LABNR,GR,C14AGE,C14STD,C13,COUNTRY,SITE,MAR,MATERIAL,SPECIES,PHASE,LOCUS,SAMPLE,CULTURE,PERIOD,calBC68,calBC95,REGION,LATITUDE,LONGITUDE,INCONGR,NOTICE,REFERENCE,ID
LE-434,---,"4870","150",0,Azerbaijan,K�ltepe,"-",n.d.,---,"� 15,35 m de profondeur","� 15,35 m de profondeur",---,Chalc.,CH, 3660 +- 190,4040 - 3280,07.01 N-Zagros,39.24,45.33,---,---,"Dolukhanov and Romanovka 1970, Dolukhanov and Timofeev 1972, Chataigner 1995","1808"
LE-163,---,"4880","90",0,Azerbaijan,K�ltepe,"-",n.d.,---,"� 8,5 m de profondeur (niveau du Bronze Ancien)","� 8,5 m de profondeur (niveau du Bronze Ancien)",---,BZ,BR, 3670 +- 110,3890 - 3450,07.01 N-Zagros,39.24,45.33,---,---,"Butomo 1965, Chataigner 1995","1809"
LE-477,---,"5770","90",0,Azerbaijan,K�ltepe,"-",n.d.,---,"� 18,2 m de profondeur","� 18,2 m de profondeur",---,Chalc.,CH, 4620 +- 100,4820 - 4420,07.01 N-Zagros,39.24,45.33,---,"Banadora: le date reelle n'est calculee faute de renseignements sur la marge d' erreur, LAB 5932 +- 0 BP","Artemev et al. 1961, Iessen 1965, Mellaart 1975, Chataigner 1995","1798"
GX-6358,---,"7485","280",0,Iran,Abdul Hosein,"-",n.d.,---,"� 0,75 m au-dessus du sol vierge","� 0,75 m au-dessus du sol vierge",---,Neo.,PN, 6380 +- 290,6960 - 5800,07.01 N-Zagros,34.18,48.17,---,---,"Pullar 1981, Pullar 1990","407"
GX-6353,---,"8100","255",0,Iran,Abdul Hosein,"-",n.d.,---,"niv. aceraiques les plus profonds, juste au-dessus du sol vierge","niv. aceraiques les plus profonds, juste au-dessus du sol vierge",---,Neo.,PN, 7060 +- 320,7700 - 6420,07.01 N-Zagros,34.18,48.17,---,---,"Pullar 1981, Pullar 1990","403"
GX-6359,---,"8655","240",0,Iran,Abdul Hosein,"-",n.d.,---,"niv. aceramiques les plus profonds, juste au-dessus du sol vierge","niv. aceramiques les plus profonds, juste au-dessus du sol vierge",---,Neo.,PN, 7800 +- 310,8420 - 7180,07.01 N-Zagros,34.18,48.17,---,---,"Pullar 1981, Pullar 1990","408"
GX-6355,---,"8665","195",0,Iran,Abdul Hosein,"-",n.d.,---,"niv. aceramiques les plus profondes, juste au-dessus du sol vierge","niv. aceramiques les plus profondes, juste au-dessus du sol vierge",---,Neo.,PN, 7830 +- 260,8350 - 7310,07.01 N-Zagros,34.18,48.17,---,---,"Pullar 1981, Pullar 1990","404"
GX-6357,---,"8935","245",0,Iran,Abdul Hosein,"-",n.d.,---,"le plus recent � 1,5 m au-dessus du sol vierge","le plus recent � 1,5 m au-dessus du sol vierge",---,Neo.,PN, 8080 +- 320,8720 - 7440,07.01 N-Zagros,34.18,48.17,---,---,"Pullar 1981, Pullar 1990","406"
GX-6356,---,"8945","275",0,Iran,Abdul Hosein,"-",n.d.,---,"� 0,50 m au-dessous de GX-6357","� 0,50 m au-dessous de GX-6357",---,Neo.,PN, 8110 +- 360,8830 - 7390,07.01 N-Zagros,34.18,48.17,---,---,"Pullar 1981, Pullar 1990","405"
I-1495,---,"7220","160",0,Iran,Ali Kosh,"-",charcoal,charcoal/ ash,---,---,---,PN,PN, 6100 +- 160,6420 - 5780,05.03 Lower Mesopotamia,32.56,47.32,---,"Banadora: phase de Mohammad Jaffar, AK 85 90","Hole et al. 1969, Hole 1987","243"
I-1496,---,"7380","130",0,Iran,Ali Kosh,"-",seeds,carbinized grain ans ash,---,---,---,PPN,ACN, 6250 +- 130,6510 - 5990,05.03 Lower Mesopotamia,32.56,47.32,---,"Banadora: phase du Bus Mordeh,AK 91 525, date attendue 7000-8000 BC","Buckley et al. 1968, Barker et al. 1969, Hole et al. 1969, Hole 1987","244"
OxA-1775,---,"7480","90",0,Iran,Ali Kosh,"-",bone,"petrous, (ch�vre), burnt",petreure 100,petreure 100,---,Bus Mordeh,PN, 6340 +- 90,6520 - 6160,05.03 Lower Mesopotamia,32.56,47.32,---,"Banadora: phase de Bus Mordeh, OxA-1774 sont dans lordre straigraphique, OxA-1775, trop jeune",Housley 1994,"248"
I-1489,---,"7660","170",0,Iran,Ali Kosh,"-",seeds,carbinized grain,directement au-dessus du sol vierge,directement au-dessus du sol vierge,---,PPN,ACN, 6560 +- 200,6960 - 6160,05.03 Lower Mesopotamia,32.56,47.32,---,"Banadora: phase de Bus Mordeh, AK 94 691","Buckley et al. 1968, Hole et al. 1969, Hole 1987","239"
SI-207,---,"7740","600",0,Iran,Ali Kosh,"-",charcoal,---,---,---,---,PPN,ACN, 6750 +- 660,8070 - 5430,05.03 Lower Mesopotamia,32.56,47.32,---,"Banadora: associe � la phase final d'Ali Kosh, preceramique, (echantillon de tr�s petite taille)","Long and Mielke 1967, Hole et al. 1969, Hole 1987","252"
H-1848,---,"7770","330",0,Iran,Ali Kosh,"-",organic material,mati�re organique,foyer sous un mur de briques ecroule,foyer sous un mur de briques ecroule,---,PPN,ACN, 6730 +- 380,7490 - 5970,05.03 Lower Mesopotamia,32.56,47.32,---,"Banadora: phase de Ali Kosh, A 26, LAB O-1848/H-1848","Hole et al. 1969, Hole 1987","237"
I-1494,---,"7820","190",0,Iran,Ali Kosh,"-",charcoal,charcoal/ ash,---,---,---,PN,PN, 6760 +- 240,7240 - 6280,05.03 Lower Mesopotamia,32.56,47.32,---,"Banadora: phase de Mohammad Jaffar, AK 59 150","Buckley et al. 1968, Barker et al. 1969, Hole et al. 1969, Hole 1987","242"
OxA-1773,---,"7830","90",0,Iran,Ali Kosh,"-",bone,"metapodial (ch�vre), burnt",---,---,metapodial 97570,Bus Mordeh,PN, 6740 +- 160,7060 - 6420,05.03 Lower Mesopotamia,32.56,47.32,---,Baadora: phase de Bus Mordeh,Housley 1994,"246"
OxA-1774,---,"7950","110",0,Iran,Ali Kosh,"-",bone,"astralagus (ch�vre), burnt",---,---,astralagus 97680,Bus Mordeh,PN, 6860 +- 160,7180 - 6540,05.03 Lower Mesopotamia,32.56,47.32,---,Banadora: phase de Bus Mordeh,Housley 1994,"247"
B-108256,---,"8000","50",0,Iran,Ali Kosh,"-",organic material,carbon,"level BM, depth 546cm","level BM, depth 546cm",---,PPN,ACN, 6910 +- 110,7130 - 6690,05.03 Lower Mesopotamia,32.56,47.32,---,---,Zeder and Hesse 2000,"5707"
I-1491,---,"8100","170",0,Iran,Ali Kosh,"-",charcoal,charcoal/ ash,---,---,---,PPN,ACN, 7060 +- 260,7580 - 6540,05.03 Lower Mesopotamia,32.56,47.32,---,"Banadora: phase de Ali Kosh, AK 69 260","Buckley et al. 1968, Barker et al. 1969, Hole et al. 1969, Hole 1987","241"
B-118722,---,"8110","80",0,Iran,Ali Kosh,"-",organic material,carbon,"level AK, depth 210-230cm","level AK, depth 210-230cm",---,PPN,ACN, 7090 +- 160,7410 - 6770,05.03 Lower Mesopotamia,32.56,47.32,---,---,Zeder and Hesse 2000,"5703"
B-118719,---,"8130","70",0,Iran,Ali Kosh,"-",organic material,carbon,"level MJ, depth 70-80cm","level MJ, depth 70-80cm",---,PPN,ACN, 7160 +- 110,7380 - 6940,05.03 Lower Mesopotamia,32.56,47.32,---,---,Zeder and Hesse 2000,"5701"
B-118720,---,"8140","70",0,Iran,Ali Kosh,"-",organic material,carbon,"level MJ, depth 130-140cm","level MJ, depth 130-140cm",---,PPN,ACN, 7170 +- 110,7390 - 6950,05.03 Lower Mesopotamia,32.56,47.32,---,---,Zeder and Hesse 2000,"5702"
H-1845,---,"8250","175",0,Iran,Ali Kosh,"-",organic material,organic material,---,---,---,PPN,ACN, 7240 +- 220,7680 - 6800,05.03 Lower Mesopotamia,32.56,47.32,---,"Banadora:phase de Ali Kosh, A 32, LAB O-1845/H-1845","Hole et al. 1969, Hole 1987","236"
B-118724,---,"8340","100",0,Iran,Ali Kosh,"-",organic material,carbon,"level AK, depth 380-400cm","level AK, depth 380-400cm",---,PPN,ACN, 7360 +- 140,7640 - 7080,05.03 Lower Mesopotamia,32.56,47.32,---,---,Zeder and Hesse 2000,"5705"
S-1246,---,"8410","200",0,Iran,Ali Kosh,"-",charcoal,---,foyer sous un mur ecroule,foyer sous un mur ecroule,---,PPN,ACN, 7420 +- 240,7900 - 6940,05.03 Lower Mesopotamia,32.56,47.32,---,"Banadora: m�me foyer quw O-1816 et 1833, phase de Ali Kosh, A 33 9","Hole et al. 1969, Hole 1987","250"
O-1816,---,"8425","180",0,Iran,Ali Kosh,"-",charcoal,---,foyer sous deblais,foyer sous deblais,---,PPN,ACN, 7430 +- 220,7870 - 6990,05.03 Lower Mesopotamia,32.56,47.32,---,"m�me foyer que O-1833 et S-1246, phase de Ali Kosh, A 33 10; Identisch mit H-1833? �berpr�fen","Hole et al. 1969, Hole 1987","245"
H-1833,---,"8425","180",0,Iran,Ali Kosh,"-",charcoal,---,foyer sous deblais,foyer sous deblais,---,PPN,ACN, 7430 +- 220,7870 - 6990,05.03 Lower Mesopotamia,32.56,47.32,---,"Banadora: LAB O-1833/H-1833, m�me foyer que O-1816 et S-1246, phase de Ali Kosh, A 33 8","Hole et al. 1969, Hole 1987","238"
B-118723,---,"8490","90",0,Iran,Ali Kosh,"-",organic material,carbon,"level AK, depth 280-300cm","level AK, depth 280-300cm",---,PPN,ACN, 7520 +- 80,7680 - 7360,05.03 Lower Mesopotamia,32.56,47.32,---,---,Zeder and Hesse 2000,"5704"
B-122721,---,"8540","90",0,Iran,Ali Kosh,"-",organic material,carbon,"level BM, depth 635cm","level BM, depth 635cm",---,PPN,ACN, 7600 +- 90,7780 - 7420,05.03 Lower Mesopotamia,32.56,47.32,---,---,Zeder and Hesse 2000,"5706"
S-1174,---,"8850","210",0,Iran,Ali Kosh,"-",charcoal,---,niv. plus ou moins sterile,niv. plus ou moins sterile,---,PPN,ACN, 7970 +- 260,8490 - 7450,05.03 Lower Mesopotamia,32.56,47.32,---,"Banadora: phase de Ali Kosh, A 22","Hole et al. 1969, Hole 1987","249"
SI-160R,---,"8890","200",0,Iran,Ali Kosh,"-",seeds,"prosopis sp., ash and grain",---,---,---,---,ACN, 8010 +- 260,8530 - 7490,05.03 Lower Mesopotamia,32.56,47.32,---,"Banadora: niveau ""contenant la plus ancienne ceramiqued'Iran, surmonte directement les niveaux preeramiques (m�me echantillon que I-160), phasse de Mohammad Jaffar","Long and Mielke 1966, Hole et al. 1969","253"
SI-160,---,"8920","100",0,Iran,Ali Kosh,"-",seeds,"prosopis sp., ash and grain",---,---,---,PN,ACN, 8040 +- 170,8380 - 7700,05.03 Lower Mesopotamia,32.56,47.32,---,"Banadora: niveau ""contenant la plus ancienne ceramique d'Iran"", surmonte directement les niveaux preceramiques (m�me echantillon que SI-160R)","Long and Mielke 1966, Hole et al. 1969, Hole 1987","251"
UCLA-750D,---,"9900","200",0,Iran,Ali Kosh,"-",charcoal,---,---,---,---,Bus Mordeh,ACN, 9500 +- 340,10180 - 8820,05.03 Lower Mesopotamia,32.56,47.32,---,Banadora: phase de Bus Mordeh,"Berger et al. 1965, Hole et al. 1969, Hole 1987","254"
I-1490,---,"9950","190",0,Iran,Ali Kosh,"-",charcoal,---,poubelle dans une cour (?),poubelle dans une cour (?),---,PPN,ACN, 9600 +- 320,10240 - 8960,05.03 Lower Mesopotamia,32.56,47.32,---,"Banadora: phase de Ali Kosh, AK 72 270","Hole et al. 1969, Hole 1987","240"
UCLA-1714C,---,"8700","100",0,Iran,Asiab,"-",bone,Ovis vel Capra,"1,2-1,4 m","1,2-1,4 m",---,PPN,ACN, 7810 +- 160,8130 - 7490,07.01 N-Zagros,34.3,47.19,---,---,"Berger et al. 1973, Mellaart 1975, Hole 1987, Voigt and Dyson 1992","326"
UCLA-1714B,---,"8900","100",0,Iran,Asiab,"-",bone,Ovis vel Capra,"1,4 m","1,4 m",---,PPN,ACN, 8020 +- 180,8380 - 7660,07.01 N-Zagros,34.3,47.19,---,---,"Berger et al. 1973, Mellaart 1975, Hole 1987, Voigt and Dyson 1992","325"
UCLA-1714F,---,"9050","300",0,Iran,Asiab,"-",bone,Ovis vel Capra,"below 1,4 m","below 1,4 m",---,PPN,ACN, 8240 +- 410,9060 - 7420,07.01 N-Zagros,34.3,47.19,---,---,"Berger et al. 1973, Mellaart 1975, Hole 1987, Voigt and Dyson 1992","327"
GrN-6434,---,"9755","85",0,Iran,Asiab,"-",charcoal,---,"1,65-1,70 m","1,65-1,70 m",---,PPN,ACN, 9130 +- 170,9470 - 8790,07.01 N-Zagros,34.3,47.19,---,---,"Howe 1983, Hole 1987, Voigt and Dyson 1992","324"
P-1501,---,"6309","78",0,Iran,Banahilk,"-",organic material,material from hearth,"sommet des niveaux Halaf (-1,30 m)","sommet des niveaux Halaf (-1,30 m)",---,Halaf Late / MCH,CH, 5280 +- 100,5480 - 5080,05.01 Mosul Arbil region,36.65,44.54,---,---,"Lawn 1973, Bernbeck 1994","462"
P-1502,---,"6752","85",0,Iran,Banahilk,"-",charcoal,---,"foyer du sol 6 (-2,20 m)","foyer du sol 6 (-2,20 m)",---,Halaf Middle / MCH,CH, 5660 +- 70,5800 - 5520,05.01 Mosul Arbil region,36.65,44.54,---,---,"Lawn 1973, Bernbeck 1994","463"
P-1504,---,"6854","72",0,Iran,Banahilk,"-",mollusc,Helix,"foyer du sol 6 (-2,20 m)","foyer du sol 6 (-2,20 m)",---,Halaf Middle / MCH,CH, 5760 +- 80,5920 - 5600,05.01 Mosul Arbil region,36.65,44.54,---,"Banadora: m�me emplacement que P-1502; Coquillage","Lawn 1973, Bernbeck 1994","464"
I-1492,---,"6200","140",0,Iran,Bog-i-No,"-",charcoal,---,---,---,---,Neo.,PN, 5140 +- 170,5480 - 4800,07.01 N-Zagros,33.47,48.35,---,Banadora: accompagne de ceramique compatible avec le debut de la phase de Sabz,Hole et al. 1969,"570"
UGa-291,---,"7730","110",0,Iran,Chagha Sefid,"-",n.d.,---,phase de Surkh,phase de Surkh,---,Neo.,PN, 6610 +- 120,6850 - 6370,05.03 Lower Mesopotamia,32.63,47.26,---,Banadora: date trop ancienne selon le fouilleur,"Hole 1977, Hole 1987","728"
UCLA-293,---,"8000","710",0,Iran,Chagha Sefid,"-",n.d.,---,phase Sefid,phase Sefid,---,PN,PN, 7080 +- 820,8720 - 5440,05.03 Lower Mesopotamia,32.63,47.26,---,Banadora: date attendue par le fouilleur,"Hole 1977, Hole 1987","721"
UCLA-297,---,"8040","90",0,Iran,Chagha Sefid,"-",n.d.,---,---,---,---,PN,PN, 6960 +- 160,7280 - 6640,05.03 Lower Mesopotamia,32.63,47.26,---,---,Hole 1987,"724"
UCLA-302,---,"8085","145",0,Iran,Chagha Sefid,"-",n.d.,---,phase Mohammad Jaffar,phase Mohammad Jaffar,---,PN,PN, 7040 +- 230,7500 - 6580,05.03 Lower Mesopotamia,32.63,47.26,---,Banadora: date attendue par le fouilleur,"Hole 1977, Hole 1987","726"
UCLA-294,---,"8760","150",0,Iran,Chagha Sefid,"-",n.d.,---,phase Ali Kosh,phase Ali Kosh,---,PPN,ACN, 7900 +- 230,8360 - 7440,05.03 Lower Mesopotamia,32.63,47.26,---,Banadora: date attendue par le fouilleur,"Hole 1977, Hole 1987","719"
UCLA-296,---,"8760","165",0,Iran,Chagha Sefid,"-",n.d.,---,phase Mohammad Jaffar,phase Mohammad Jaffar,---,PN,PN, 7900 +- 230,8360 - 7440,05.03 Lower Mesopotamia,32.63,47.26,---,Banadora: date trop ancienne selon le fouilleur,"Hole 1977, Hole 1987","723"
UCLA-310,---,"9530","145",0,Iran,Chagha Sefid,"-",n.d.,---,phase Sefid,phase Sefid,---,PN,PN, 8910 +- 230,9370 - 8450,05.03 Lower Mesopotamia,32.63,47.26,---,Banadora: date trop ancienne selon le fouilleur,"Hole 1977, Hole 1987","727"
UCLA-295,---,"9690","100",0,Iran,Chagha Sefid,"-",n.d.,---,phase Sefid,phase Sefid,---,PN,PN, 9060 +- 180,9420 - 8700,05.03 Lower Mesopotamia,32.63,47.26,---,Banadora: date trop ancienne selon le fouilleur,"Hole 1977, Hole 1987","722"
UCLA-305,---,"10425","145",0,Iran,Chagha Sefid,"-",n.d.,---,phase Ali Kosh,phase Ali Kosh,---,PPN,ACN, 10380 +- 270,10920 - 9840,05.03 Lower Mesopotamia,32.63,47.26,---,Banadora: date trop ancienne selon le fouilleur,"Hole 1977, Hole 1987","720"
UCLA-300,---,"11270","90",0,Iran,Chagha Sefid,"-",n.d.,---,phase Sefid,phase Sefid,---,PN,PN, 11210 +- 90,11390 - 11030,05.03 Lower Mesopotamia,32.63,47.26,---,Banadora: date trop ancienne selon le fouilleur,"Hole 1977, Hole 1987","725"
P-503,---,"5986","87",0,Iran,Dalma,"-",soil,ash,phase Dalma,phase Dalma,---,Dalma,CH, 4890 +- 110,5110 - 4670,07.01 N-Zagros,36.99,45.31,---,"Banadora: se place entre Hajji Firuz et Pisdeli Tepe (le nveau plus ancien de la periode Dalma), pre-traitement � la soude (NaOH)","Stuckenrath 1963, Hole 1987, Chataigner 1995","742"
SI-4734,---,"8110","70",0,Iran,Ganj Dareh,"-",n.d.,---,level B,level B,---,PPN,ACN, 7090 +- 140,7370 - 6810,07.01 N-Zagros,34.42,47.57,---,---,"Hole 1987, Voigt and Dyson 1992","1093"
SI-4739,---,"8140","70",0,Iran,Ganj Dareh,"-",n.d.,---,level D,level D,---,PPN,ACN, 7170 +- 110,7390 - 6950,07.01 N-Zagros,34.42,47.57,---,---,"Hole 1987, Voigt and Dyson 1992","1098"
SI-925,---,"8385","75",0,Iran,Ganj Dareh,"-",charcoal,---,"level E, below -7,80 m","level E, below -7,80 m",---,PPN,ACN, 7430 +- 90,7610 - 7250,07.01 N-Zagros,34.42,47.57,or 8340 +- 80 BP?,---,Hole 1987,"1104"
SI-4736,---,"8450","70",0,Iran,Ganj Dareh,"-",n.d.,---,level C,level C,---,PPN,ACN, 7490 +- 80,7650 - 7330,07.01 N-Zagros,34.42,47.57,---,---,"Hole 1987, Voigt and Dyson 1992","1095"
SI-4735,---,"8460","70",0,Iran,Ganj Dareh,"-",n.d.,---,level B,level B,---,PPN,ACN, 7500 +- 70,7640 - 7360,07.01 N-Zagros,34.42,47.57,---,---,"Hole 1987, Voigt and Dyson 1992","1094"
SI-4738,---,"8485","70",0,Iran,Ganj Dareh,"-",n.d.,---,level D,level D,---,PPN,ACN, 7530 +- 60,7650 - 7410,07.01 N-Zagros,34.42,47.57,---,---,"Hole 1987, Voigt and Dyson 1992","1097"
SI-4733,---,"8525","70",0,Iran,Ganj Dareh,"-",n.d.,---,level B,level B,---,PPN,ACN, 7570 +- 50,7670 - 7470,07.01 N-Zagros,34.42,47.57,---,---,"Hole 1987, Voigt and Dyson 1992","1092"
SI-4740,---,"8535","70",0,Iran,Ganj Dareh,"-",n.d.,---,level D,level D,---,PPN,ACN, 7580 +- 60,7700 - 7460,07.01 N-Zagros,34.42,47.57,---,---,"Hole 1987, Voigt and Dyson 1992","1099"
SI-922,---,"8570","210",0,Iran,Ganj Dareh,"-",charcoal,---,"level E, -6,70 m, sous le sol � -6,55 m","level E, -6,70 m, sous le sol � -6,55 m",---,PPN,ACN, 7680 +- 290,8260 - 7100,07.01 N-Zagros,34.42,47.57,---,"Banadora: date trop jeune, le dates SI-923, 924, 925 sont assi trop jeunes","Stuckenrath and Mielke 1973, Hole 1987","1101"
SI-4732,---,"8590","70",0,Iran,Ganj Dareh,"-",n.d.,---,level A,level A,---,PPN,ACN, 7650 +- 80,7810 - 7490,07.01 N-Zagros,34.42,47.57,---,---,"Hole 1987, Voigt and Dyson 1992","1091"
SI-923,---,"8625","195",0,Iran,Ganj Dareh,"-",charcoal,---,"level E, -7,50 � -7,60 m","level E, -7,50 � -7,60 m",---,PPN,ACN, 7780 +- 260,8300 - 7260,07.01 N-Zagros,34.42,47.57,---,---,Hole 1987,"1102"
SI-924,---,"8640","90",0,Iran,Ganj Dareh,"-",charcoal,---,level E,level E,---,PPN,ACN, 7730 +- 130,7990 - 7470,07.01 N-Zagros,34.42,47.57,---,---,Hole 1987,"1103"
SI-4737,---,"8650","70",0,Iran,Ganj Dareh,"-",n.d.,---,level C,level C,---,PPN,ACN, 7710 +- 100,7910 - 7510,07.01 N-Zagros,34.42,47.57,---,---,"Hole 1987, Voigt and Dyson 1992, Banadora","1096"
OxA-2102,---,"8690","110",0,Iran,Ganj Dareh,"-",seeds,"Hordeum, charred",level E,level E,---,---,PN, 7810 +- 170,8150 - 7470,07.01 N-Zagros,34.42,47.57,---,---,Housley 1994,"1087"
B-108241,---,"8720","50",0,Iran,Ganj Dareh,"-",bone,collagen,"level B, depth 240-260cm","level B, depth 240-260cm",---,PPN,ACN, 7770 +- 120,8010 - 7530,07.01 N-Zagros,34.42,47.57,---,---,Zeder and Hesse 2000,"5692"
B-108238,---,"8780","50",0,Iran,Ganj Dareh,"-",bone,collagen,"level A, depth 180-200cm","level A, depth 180-200cm",---,PPN,ACN, 7880 +- 150,8180 - 7580,07.01 N-Zagros,34.42,47.57,---,---,Zeder and Hesse 2000,"5689"
B-108240,---,"8780","50",0,Iran,Ganj Dareh,"-",bone,collagen,"level B, depth 220-240cm","level B, depth 220-240cm",---,PPN,ACN, 7880 +- 150,8180 - 7580,07.01 N-Zagros,34.42,47.57,---,---,Zeder and Hesse 2000,"5691"
B-108247,---,"8830","50",0,Iran,Ganj Dareh,"-",bone,collagen,"level E, depth 665-675cm","level E, depth 665-675cm",---,PPN,ACN, 7980 +- 160,8300 - 7660,07.01 N-Zagros,34.42,47.57,---,---,Zeder and Hesse 2000,"5698"
OxA-2099,---,"8840","110",0,Iran,Ganj Dareh,"-",seeds,"Hordeum, charred",level B,level B,---,---,PN, 7960 +- 200,8360 - 7560,07.01 N-Zagros,34.42,47.57,---,---,Housley 1994,"1084"
B-108244,---,"8840","50",0,Iran,Ganj Dareh,"-",bone,collagen,"level D, depth 430-460cm","level D, depth 430-460cm",---,PPN,ACN, 7990 +- 160,8310 - 7670,07.01 N-Zagros,34.42,47.57,---,---,Zeder and Hesse 2000,"5695"
B-108249,---,"8840","50",0,Iran,Ganj Dareh,"-",bone,collagen,"level E, depth 765-770cm","level E, depth 765-770cm",---,PPN,ACN, 7990 +- 160,8310 - 7670,07.01 N-Zagros,34.42,47.57,---,---,Zeder and Hesse 2000,"5700"
OxA-2101,---,"8850","100",0,Iran,Ganj Dareh,"-",seeds,"hordeum, charred",level D,level D,---,---,PN, 7980 +- 190,8360 - 7600,07.01 N-Zagros,34.42,47.57,---,---,Housley 1994,"1086"
B-108246,---,"8870","50",0,Iran,Ganj Dareh,"-",bone,collagen,"level E, depth 580-585cm","level E, depth 580-585cm",---,PPN,ACN, 8030 +- 140,8310 - 7750,07.01 N-Zagros,34.42,47.57,---,---,Zeder and Hesse 2000,"5697"
P-1486,---,"8888","98",0,Iran,Ganj Dareh,"-",charcoal,---,"level B, phase 4, -2,10 � -2,40 m","level B, phase 4, -2,10 � -2,40 m",---,PPN,ACN, 8010 +- 180,8370 - 7650,07.01 N-Zagros,34.42,47.57,---,Banadora: contemporain ou un peu plus ancien que Gak-994,"Lawn 1970, Hole 1987","1090"
B-108248,---,"8900","50",0,Iran,Ganj Dareh,"-",bone,collagen,"level E, depth 700-710cm","level E, depth 700-710cm",---,PPN,ACN, 8070 +- 120,8310 - 7830,07.01 N-Zagros,34.42,47.57,---,---,Zeder and Hesse 2000,"5699"
GAK-994,---,"8910","170",0,Iran,Ganj Dareh,"-",n.d.,---,"Gd2, � 1 m au-dessus de GD1; level B-C (oder E?)","Gd2, � 1 m au-dessus de GD1; level B-C (oder E?)",---,PPN,ACN, 8020 +- 230,8480 - 7560,07.01 N-Zagros,34.42,47.57,---,LAB GaK- zu GAK-,"Kigoshi 1967, Hole 1987, Banadora","1083"
B-108243,---,"8920","50",0,Iran,Ganj Dareh,"-",bone,collagen,"level C, depth 460-480cm","level C, depth 460-480cm",---,PPN,ACN, 8090 +- 110,8310 - 7870,07.01 N-Zagros,34.42,47.57,---,---,Zeder and Hesse 2000,"5694"
B-108239,---,"8930","60",0,Iran,Ganj Dareh,"-",bone,collagen,"level B, depth 165-180cm","level B, depth 165-180cm",---,PPN,ACN, 8100 +- 120,8340 - 7860,07.01 N-Zagros,34.42,47.57,---,---,Zeder and Hesse 2000,"5690"
B-108245,---,"8940","50",0,Iran,Ganj Dareh,"-",bone,collagen,"level D, depth 580-600cm","level D, depth 580-600cm",---,PPN,ACN, 8110 +- 110,8330 - 7890,07.01 N-Zagros,34.42,47.57,---,---,Zeder and Hesse 2000,"5696"
B-108242,---,"8940","50",0,Iran,Ganj Dareh,"-",bone,collagen,"level B, depth 280-300cm","level B, depth 280-300cm",---,PPN,ACN, 8110 +- 110,8330 - 7890,07.01 N-Zagros,34.42,47.57,---,---,Zeder and Hesse 2000,"5693"
SI-4741,---,"8950","70",0,Iran,Ganj Dareh,"-",n.d.,---,level D,level D,---,PPN,ACN, 8110 +- 130,8370 - 7850,07.01 N-Zagros,34.42,47.57,---,---,"Hole 1987, Voigt and Dyson 1992","1100"
P-1484,---,"8968","100",0,Iran,Ganj Dareh,"-",charcoal,---,"level D, base de la phase 1, -6,20 m","level D, base de la phase 1, -6,20 m",---,PPN,ACN, 8100 +- 160,8420 - 7780,07.01 N-Zagros,34.42,47.57,---,"Banadora: la premi�r phase � architecture, surmonte le niv. E sansarchitecture, plus bas que P-1485, pre-trairement � la soude (NaOH)","Lawn 1970, Hole 1987","1088"
OxA-2100,---,"9010","110",0,Iran,Ganj Dareh,"-",seeds,"Hordeum, charred",level C-D,level C-D,---,---,ACN, 8150 +- 170,8490 - 7810,07.01 N-Zagros,34.42,47.57,---,---,Housley 1994,"1085"
P-1485,---,"9239","196",0,Iran,Ganj Dareh,"-",charcoal,---,"level C, 2�me phase, -4,50 m","level C, 2�me phase, -4,50 m",---,PPN,ACN, 8530 +- 260,9050 - 8010,07.01 N-Zagros,34.42,47.57,---,"Banadora: echantillon trop petit, date mois s�re, plus jeune ue Gak-807, plus ancien que Gak-994","Lawn 1970, Hole 1987","1089"
GAK-807,---,"10400","150",0,Iran,Ganj Dareh,"-",charcoal,charcoal/ ash,"level E, zone cendreuse � la base du Tell","level E, zone cendreuse � la base du Tell",---,PPN,ACN, 10330 +- 290,10910 - 9750,07.01 N-Zagros,34.42,47.57,---,LAB GaK- zu GAK-,"Kigoshi 1967, Hole 1987","1082"
K-879,---,"7760","150",0,Iran,Guran,"-",charcoal,---,niv. H (Neolithique ancien),niv. H (Neolithique ancien),---,PN,PN, 6690 +- 200,7090 - 6290,07.01 N-Zagros,33.73,47.07,---,Banadora: avec ceramique contemporaine de Sarab,"Tauber 1968, Hole 1987","1185"
K-1006,---,"8410","200",0,Iran,Guran,"-",charcoal,Pistacia,"U; niv. preceramique � 0,12 m au-dessus de sol vierge","U; niv. preceramique � 0,12 m au-dessus de sol vierge",---,PPN,ACN, 7420 +- 240,7900 - 6940,07.01 N-Zagros,33.73,47.07,---,"Banadora: correspondant au niv. U du sondage I, la premi�re occupation Guran","Tauber 1968, Hole 1987","1186"
P-1842,---,"5370","80",0,Iran,Hajji Firuz,"-",charcoal,---,"niv. 3a, phase Pisdeli","niv. 3a, phase Pisdeli",---,Pisdeli,PN, 4200 +- 110,4420 - 3980,07.01 N-Zagros,37.04,45.54,---,Banadora: cf. P-1841 = niv. Pisdeli,"Lawn 1974, Voigt 1976, Voigt 1983, Chataigner 1995","1400"
P-1841,---,"5460","80",0,Iran,Hajji Firuz,"-",charcoal,---,"niv. 2, phase Pisdeli","niv. 2, phase Pisdeli",---,Pisdeli,CH, 4290 +- 90,4470 - 4110,07.01 N-Zagros,37.04,45.54,---,"Banadora: cf. P-866, 157, 505 et 504 = niv. Pisdeli","Lawn 1974, Voigt 1976, Voigt 1983, Chataigner 1995","1401"
P-1843,---,"6870","100",0,Iran,Hajji Firuz,"-",charcoal,---,"niv. 6, phase Hajji Firuz, Banadora: phase D","niv. 6, phase Hajji Firuz, Banadora: phase D",---,Neo.,PN, 5780 +- 100,5980 - 5580,07.01 N-Zagros,37.04,45.54,---,Banadora: equivalent de P-455 et P-502,"Lawn 1974, Voigt 1976, Voigt 1983, Hole 1987, Chataigner 1995","1230"
P-502,---,"6895","83",0,Iran,Hajji Firuz,"-",soil,ash and clay,"niv. 4, phase Hajji Firuz","niv. 4, phase Hajji Firuz",---,Neo.,PN, 5800 +- 90,5980 - 5620,07.01 N-Zagros,37.04,45.54,Chataigner 1995: 6900 +- 80 BP,"Banadora: contamination possible par des racines, la base de H.F. est plus ancienne que Dalma et Pisdeli, pre-traitement � la soude (NaOH);","Stuckenrath 1963, Voigt 1976, Voigt 1983, Hole 1987, Chataigner 1995","1232"
P-455,---,"7269","86",0,Iran,Hajji Firuz,"-",charcoal,charcoal and ash,"niv. D 5, phase Hajji Firuz","niv. D 5, phase Hajji Firuz",---,Neo.,PN, 6150 +- 90,6330 - 5970,07.01 N-Zagros,37.04,45.54,Chataigner 1995: 7270 +- 90 BP,"Banadora: Neolithique, plus ancien que la ceramique de Dalma","Stuckenrath 1963, Voigt 1983, Hole 1987, Chataigner 1995","1231"
TUNC-43,---,"4966","84",0,Iran,Jaffarabad,"-",n.d.,---,"3","3",---,Obeid,CH, 3790 +- 110,4010 - 3570,05.03 Lower Mesopotamia,32.21,48.22,---,---,Hole 1987,"1471"
TUNC-3,---,"5062","68",0,Iran,Jaffarabad,"-",n.d.,---,"1","1",---,Obeid,CH, 3860 +- 80,4020 - 3700,05.03 Lower Mesopotamia,32.21,48.22,---,---,Hole 1987,"1469"
TUNC-44,---,"5096","121",0,Iran,Jaffarabad,"-",n.d.,---,"3","3",---,Obeid,CH, 3900 +- 140,4180 - 3620,05.03 Lower Mesopotamia,32.21,48.22,---,---,Hole 1987,"1472"
TUNC-48,---,"5133","94",0,Iran,Jaffarabad,"-",n.d.,---,"3","3",---,Obeid,CH, 3930 +- 120,4170 - 3690,05.03 Lower Mesopotamia,32.21,48.22,---,---,Hole 1987,"1474"
TUNC-46,---,"5141","122",0,Iran,Jaffarabad,"-",n.d.,---,"3","3",---,Obeid,CH, 3960 +- 160,4280 - 3640,05.03 Lower Mesopotamia,32.21,48.22,---,---,Hole 1987,"1473"
TUNC-4,---,"5166","72",0,Iran,Jaffarabad,"-",n.d.,---,"2","2",---,Obeid,CH, 3960 +- 110,4180 - 3740,05.03 Lower Mesopotamia,32.21,48.22,---,---,Hole 1987,"1470"
TUNC-6,---,"5238","72",0,Iran,Jaffarabad,"-",n.d.,---,"2","2",---,Obeid,CH, 4090 +- 100,4290 - 3890,05.03 Lower Mesopotamia,32.21,48.22,---,---,Hole 1987,"1476"
TUNC-5,---,"5246","71",0,Iran,Jaffarabad,"-",n.d.,---,"2","2",---,Obeid,CH, 4100 +- 100,4300 - 3900,05.03 Lower Mesopotamia,32.21,48.22,---,---,Hole 1987,"1475"
P-157,---,"5460","160",0,Iran,Pisdeli,"-",soil,ash,"niv. 5, phase Pisdeli","niv. 5, phase Pisdeli",---,Pisdeli,CH, 4280 +- 180,4640 - 3920,07.01 N-Zagros,37.07,45.56,---,"contexte Obeid, plus ancien que Hasanlu","Ralph 1959, Hole 1987, Chataigner 1995","2352"
P-504,---,"5518","81",0,Iran,Pisdeli,"-",soil,ashy soil,"niv. 5, phase Pisdeli","niv. 5, phase Pisdeli",---,Pisdeli,CH, 4370 +- 80,4530 - 4210,07.01 N-Zagros,37.07,45.56,---,Banadora: pre-traitement � la soude (NaOH),"Stuckenrath 1963, Hole 1987, Chataigner 1995","2353"
P-505,---,"5638","85",0,Iran,Pisdeli,"-",soil,ashy soil,"niv. 10, phase Pisdeli","niv. 10, phase Pisdeli",---,Pisdeli,CH, 4490 +- 100,4690 - 4290,07.01 N-Zagros,37.07,45.56,---,Banadora: cf. P-157,"Stuckenrath 1963, Hole 1987, Chataigner 1995","2354"
P-866,---,"5445","72",0,Iran,Rezaiyeh road,"-",charcoal,---,---,---,---,---,CH, 4270 +- 80,4430 - 4110,07.01 N-Zagros,37.73,45.2,---,"Banadora: couche analogue aux couches anciennes de Pisdeli Tepe, cf. P-157, 505, 504; RY-2",Stuckenrath et al. 1966,"2443"
---,---,"5730","190",0,Iran,RY-2,"-",charcoal,---,---,---,---,---,CH, 4610 +- 210,5030 - 4190,07.01 N-Zagros,37.71,45.15,Labnumber?,"Banadora: coupe pratique par des fabricants de briques, asocie � la ceramique semblable � celle de Pisdeli, LAB Shell-?",Hole et al. 1969,"2442"
I-1500,---,"5410","160",0,Iran,Sabz,"-",wood,carbonised wood (2 mixed samples),"(-3,80 m)","(-3,80 m)",---,Obeid,CH, 4230 +- 170,4570 - 3890,05.03 Lower Mesopotamia,32.59,47.26,---,"Banadora: phase de Mehmeh, date attendue 4000 BC","Buckley et al. 1968, Hole 1987","2744"
SI-205,---,"5700","250",0,Iran,Sabz,"-",wood,Tamarix,"(-1,50 m)","(-1,50 m)",---,Obeid,CH, 4590 +- 280,5150 - 4030,05.03 Lower Mesopotamia,32.59,47.26,---,Banadora: phase de Bayat,"Long and Mielke 1967, Hole 1987","2748"
SI-156,---,"5770","120",0,Iran,Sabz,"-",wood,"wood, grain","(-3,00 m)","(-3,00 m)",---,Obeid,CH, 4630 +- 130,4890 - 4370,05.03 Lower Mesopotamia,32.59,47.26,---,"Banadora: avec ceramique de le phase Bayat (= Susiane d), date convenable","Long and Mielke 1966, Hole 1987","2745"
I-1503,---,"5860","230",0,Iran,Sabz,"-",wood,carbonised,---,---,---,Obeid,CH, 4770 +- 270,5310 - 4230,05.03 Lower Mesopotamia,32.59,47.26,---,Banadora: phase de Bayat,"Hole et al. 1969, Hole 1987","2743"
I-1499,---,"6050","140",0,Iran,Sabz,"-",charcoal,---,---,---,---,Obeid,CH, 4980 +- 180,5340 - 4620,05.03 Lower Mesopotamia,32.59,47.26,---,Banadora: phase de Bya.t,"Hole et al. 1969, Hole 1987","2740"
SI-204,---,"6060","200",0,Iran,Sabz,"-",charcoal,---,"(-1,25 m)","(-1,25 m)",---,Obeid,CH, 4980 +- 240,5460 - 4500,05.03 Lower Mesopotamia,32.59,47.26,---,Baadora phase de Baya.t,"Long and Mielke 1967, Hole 1987","2747"
I-1502,---,"6060","140",0,Iran,Sabz,"-",wood,carbonised wood and grain,"(-3,10 m)","(-3,10 m)",---,Obeid,CH, 4990 +- 180,5350 - 4630,05.03 Lower Mesopotamia,32.59,47.26,---,Banadora: phase de Bayat,"Buckley et al. 1968, Hole 1987","2742"
UCLA-750A,---,"6070","100",0,Iran,Sabz,"-",charcoal,---,"(-2,70 m)","(-2,70 m)",---,Obeid,CH, 5010 +- 150,5310 - 4710,05.03 Lower Mesopotamia,32.59,47.26,---,Banadora: phase de Bayat,"Berger et al. 1965, Hole 1987","2750"
SI-203,---,"6170","200",0,Iran,Sabz,"-",charcoal,---,"(-1,25 m)","(-1,25 m)",---,Obeid,CH, 5090 +- 230,5550 - 4630,05.03 Lower Mesopotamia,32.59,47.26,---,"Banadora: ceramique Obeid tardif, phase de Bayat, la serie SI-203 � 206 correspond � SI-156","Long and Mielke 1967, Hole 1987","2746"
I-1493,---,"6470","160",0,Iran,Sabz,"-",charcoal,---,"(-5,00 m)","(-5,00 m)",---,Obeid,CH, 5410 +- 150,5710 - 5110,05.03 Lower Mesopotamia,32.59,47.26,---,Banadora: phase de Mehmeh,"Buckley et al. 1968, Hole 1987","2738"
I-1497,---,"6740","190",0,Iran,Sabz,"-",charcoal,---,"(-9,60 m)","(-9,60 m)",---,Obeid,CH, 5680 +- 170,6020 - 5340,05.03 Lower Mesopotamia,32.59,47.26,---,Banadora: phase de Sabz,"Buckley et al. 1968, Hole 1987","2739"
UCLA-750B,---,"6925","200",0,Iran,Sabz,"-",charcoal,---,"(-8,60 m)","(-8,60 m)",---,Obeid,CH, 5830 +- 170,6170 - 5490,05.03 Lower Mesopotamia,32.59,47.26,---,Banadora: phase de Khazineh,"Berger et al. 1965, Hole 1987","2751"
SI-206,---,"7200","1000",0,Iran,Sabz,"-",charcoal,---,"(-9,40 m)","(-9,40 m)",---,Obeid,CH, 6210 +- 1110,8430 - 3990,05.03 Lower Mesopotamia,32.59,47.26,---,"Banadora: phase de Kazineh, (avec ceramique Obeid ancien ou Hajji Mohammad), echantillon trop petit","Long and Mielke 1967, Hole 1987","2749"
I-1501,---,"7460","160",0,Iran,Sabz,"-",charcoal,---,"(-6,80 m)","(-6,80 m)",---,Obeid,CH, 6310 +- 160,6630 - 5990,05.03 Lower Mesopotamia,32.59,47.26,---,Banadora: phase de Kazineh,"Buckley et al. 1968, Hole 1987","2741"
UCLA-750C,---,"9050","160",0,Iran,Sabz,"-",charcoal,---,"(-10,00 m)","(-10,00 m)",---,Obeid,CH, 8220 +- 250,8720 - 7720,05.03 Lower Mesopotamia,32.59,47.26,Banadora: 9050 +- 150 BP,"Banadora: semble trop vieux de 1000 ans d'apr�s le contexte, phase de Sabz","Berger et al. 1965, Hole 1987","2752"
P-465,---,"7605","96",0,Iran,Sarab,"-",charcoal,charcoal and black soil,niv. 4,niv. 4,"Op. I, S-strip",PN,PN, 6470 +- 100,6670 - 6270,07.01 N-Zagros,34.38,47.09,---,---,"Stuckenrath 1963, Hole 1987","2514"
P-467,---,"7644","89",0,Iran,Sarab,"-",charcoal,charcoal and black soil,sous un sol du niv. 1 (Op. L),sous un sol du niv. 1 (Op. L),---,PN,PN, 6510 +- 80,6670 - 6350,07.01 N-Zagros,34.38,47.09,---,---,"Stuckenrath 1963, Hole 1987","2516"
UCLA-1714A,---,"7850","0",0,Iran,Sarab,"-",bone,---,---,---,---,---,PN,---,---,07.01 N-Zagros,34.38,47.09,site? STD?,---,Mellaart 1975,"2756"
P-466,---,"7956","98",0,Iran,Sarab,"-",charcoal,charcoal and black soil,niv. 1,niv. 1,---,PN,PN, 6870 +- 150,7170 - 6570,07.01 N-Zagros,34.38,47.09,---,"Banadora: maison enterrees, le site plus ancien du nord-ouest de l'Iran","Stuckenrath 1963, Hole 1987","2515"
SI-4910,---,"5020","70",0,Iran,Seh Gabi B,"-",n.d.,---,early level 2,early level 2,---,---,CH, 3830 +- 90,4010 - 3650,07.01 N-Zagros,34.59,48.04,---,Banadora: Godin IX,"Henrickson 1983, Voigt and Dyson 1992","2761"
SI-4914,---,"5160","85",0,Iran,Seh Gabi B,"-",n.d.,---,transition Godin X/IX,transition Godin X/IX,---,---,CH, 3960 +- 120,4200 - 3720,07.01 N-Zagros,34.59,48.04,---,Banadora: Godin X/IX,"Henrickson 1983, Voigt and Dyson 1992","2763"
SI-4912,---,"5180","50",0,Iran,Seh Gabi B,"-",n.d.,---,early level 2,early level 2,---,---,CH, 4000 +- 50,4100 - 3900,07.01 N-Zagros,34.59,48.04,---,Banadora: Godin IX,"Henrickson 1983, Voigt and Dyson 1992","2762"
SI-4911,---,"5240","60",0,Iran,Seh Gabi B,"-",n.d.,---,early level 2,early level 2,---,---,CH, 4090 +- 90,4270 - 3910,07.01 N-Zagros,34.59,48.04,---,Banadora: Godin IX,"Henrickson 1983, Voigt and Dyson 1992","2765"
SI-4913,---,"5430","50",0,Iran,Seh Gabi B,"-",n.d.,---,niv. 3,niv. 3,---,---,CH, 4290 +- 50,4390 - 4190,07.01 N-Zagros,34.59,48.04,---,Banadora: Godin IX,"Henrickson 1983, Voigt and Dyson 1992","2764"
SI-4909,---,"5500","60",0,Iran,Seh Gabi B,"-",n.d.,---,late level 2,late level 2,---,---,CH, 4360 +- 70,4500 - 4220,07.01 N-Zagros,34.59,48.04,---,Banadora: Godin IX,"Henrickson 1983, Voigt and Dyson 1992","2760"
SI-4915,---,"5630","80",0,Iran,Seh Gabi B,"-",n.d.,---,late level 6,late level 6,---,---,CH, 4480 +- 90,4660 - 4300,07.01 N-Zagros,34.59,48.04,---,Banadora: Godin X,"Henrickson 1983, Voigt and Dyson 1992","2759"
SI-2670,---,"6055","80",0,Iran,Seh Gabi C,"-",n.d.,---,---,---,---,Shahnabad,CH, 4980 +- 120,5220 - 4740,07.01 N-Zagros,34.6,48.01,---,Banadora: phase Shahnabad,"Levine et al. 1977, Hole 1987","2540"
SI-2669,---,"6195","105",0,Iran,Seh Gabi C,"-",n.d.,---,---,---,---,Shahnabad,CH, 5140 +- 130,5400 - 4880,07.01 N-Zagros,34.6,48.01,---,Banadora: phase Shanabad,"Levine et al. 1977, Hole 1987","2539"
SI-2668,---,"6220","80",0,Iran,Seh Gabi C,"-",n.d.,---,---,---,---,Shahnabad,CH, 5170 +- 110,5390 - 4950,07.01 N-Zagros,34.6,48.01,---,Banadora: phase Shahnabad,"Levine et al. 1977, Hole 1987","2538"
P-442,---,"5815","83",0,Iran,Siabid,"-",charcoal,charcoal and clay,niv. 1,niv. 1,---,Obeid,CH, 4670 +- 100,4870 - 4470,07.01 N-Zagros,34.37,47.12,---,"Banadora: Suse B, C ou Obeid ancien","Stuckenrath 1963, Hole 1987","2587"
QU-1035,---,"5870","120",0,Iran,Siabid,"-",n.d.,---,niv. 1,niv. 1,---,Obeid,CH, 4750 +- 150,5050 - 4450,07.01 N-Zagros,34.37,47.12,---,---,"Henrickson 1983, Hole 1987, Voigt and Dyson 1992","2588"
TUNC-59,---,"4636","93",0,Iran,Susa,"-",n.d.,---,17/16 Uruk,17/16 Uruk,---,Uruk,CH, 3370 +- 160,3690 - 3050,05.03 Lower Mesopotamia,32.11,48.22,---,---,"Stuckenrath and Mielke 1973, Renfrew 1978","2730"
---,---,"5093","105",0,Iran,Susa,"-",n.d.,---,A1,A1,---,Obeid,CH, 3890 +- 120,4130 - 3650,05.03 Lower Mesopotamia,32.11,48.22,Labnumber?,LAB Brussels,Hole 1987,"2725"
GrN-6054,---,"5433","75",0,Iran,Susa,"-",n.d.,---,A2,A2,---,Obeid,CH, 4250 +- 90,4430 - 4070,05.03 Lower Mesopotamia,32.11,48.22,---,---,Hole 1987,"2727"
GrN-6052,---,"5531","40",0,Iran,Susa,"-",n.d.,---,A2,A2,---,Obeid,CH, 4390 +- 40,4470 - 4310,05.03 Lower Mesopotamia,32.11,48.22,---,---,Hole 1987,"2726"
P-912,---,"5581","72",0,Iran,Susa,"-",n.d.,---,6 = A2,6 = A2,---,Obeid,CH, 4430 +- 60,4550 - 4310,05.03 Lower Mesopotamia,32.11,48.22,---,---,Hole 1987,"2728"
TUNC-58,---,"5665","121",0,Iran,Susa,"-",n.d.,---,II,II,---,Obeid,CH, 4530 +- 130,4790 - 4270,05.03 Lower Mesopotamia,32.11,48.22,---,---,Hole 1987,"2729"
P-1245,---,"5090","56",0,Iran,Yanik,"-",charcoal,---,niv. MC 8 (phase Pisdeli),niv. MC 8 (phase Pisdeli),---,Pisdeli,PN, 3880 +- 70,4020 - 3740,07.01 N-Zagros,37.99,45.95,---,---,"Stuckenrath and Lawn 1969, Chataigner 1995","3051"
P-1246,---,"5267","73",0,Iran,Yanik,"-",charcoal,---,niv. MC 17 (phase Pisdeli),niv. MC 17 (phase Pisdeli),---,Pisdeli,PN, 4120 +- 100,4320 - 3920,07.01 N-Zagros,37.99,45.95,---,Banadora: pre-traitement � la soude (NaOH),"Stuckenrath and Lawn 1969, Chataigner 1995","3052"
P-1243,---,"6926","80",0,Iran,Yanik,"-",charcoal,---,niv. P 5 (phase Hajji Firuz),niv. P 5 (phase Hajji Firuz),---,Late Neo.,PN, 5830 +- 80,5990 - 5670,07.01 N-Zagros,37.99,45.95,or 6980 +- 80 BP?,"Banadora: Neolithic recent, pre-traitement � la soude (NaOH)","Stuckenrath and Lawn 1969, Hole 1987, Chataigner 1995","3012"
P-1244,---,"7035","69",0,Iran,Yanik,"-",charcoal,---,niv. P 7 (phase Hajji Firuz),niv. P 7 (phase Hajji Firuz),---,Late Neo.,PN, 5910 +- 80,6070 - 5750,07.01 N-Zagros,37.99,45.95,or 7040 +- 70 BP?,"Banadora: Neolithique recent, pre-traitement � la soude (NaOH)","Stuckenrath and Lawn 1969, Hole 1987, Chataigner 1995, Banadora","3013"
TUNC-10,---,"4910","70",0,Iran,Zaghe,"-",n.d.,---,"niv. I, Cheschmeh Ali","niv. I, Cheschmeh Ali",---,---,CH, 3720 +- 70,3860 - 3580,07.04 C-Iran,35.85,49.63,---,---,Bovington and Masoumi 1972,"3069"
TUNC-12,---,"7147","91",0,Iran,Zaghe,"-",wood,carbonised,"-2,89 m","-2,89 m",---,---,CH, 6030 +- 100,6230 - 5830,07.04 C-Iran,35.85,49.63,---,Banadora: avec du materiel plus ancien que Sialk I,Bovington and Masoumi 1972,"3070"
Y-934,---,"5460","120",0,Iran,Zeribar,"-",n.d.,---,---,---,---,---,CH, 4280 +- 150,4580 - 3980,07.01 N-Zagros,35.55,46.12,---,---,Hole 1987,"3068"
Y-1160,---,"14800","300",0,Iran,Zeribar,"-",n.d.,---,---,---,---,---,---, 15970 +- 500,16970 - 14970,07.01 N-Zagros,35.55,46.12,---,---,Hole 1987,"3067"
BM-1823,---,"5770","45",0,Iraq,Abadah,"-",charcoal,---,level II-III,level II-III,---,---,PN, 4620 +- 60,4740 - 4500,05.03 Lower Mesopotamia,33.97,44.83,---,---,Burleigh et al. 1982b,"389"
BM-1822,---,"31000","1250",0,Iraq,Abadah,"-",charcoal,---,level I,level I,---,---,---, 34420 +- 1560,37540 - 31300,05.03 Lower Mesopotamia,33.97,44.83,---,"Banadora: date aberrante : contamination par four ""industriel"" (?) ou carbone de bitume",Burleigh et al. 1982b,"388"
P-1499,---,"6927","63",0,Iraq,Ali Agha,"-",charcoal,---,"Oper. I, carre 3, ""features"" 6-7, sous sol 3","Oper. I, carre 3, ""features"" 6-7, sous sol 3",---,Hassuna,PN, 5820 +- 70,5960 - 5680,05.01 Mosul Arbil region,36.45,43.82,---,"Banadora: pre-traitment la soude � (NaOH), la date se place � la fin de l�epoque Hassuna",Lawn 1973,"235"
BM-1531,---,"6930","60",0,Iraq,Arpachiyah,"-",charcoal,---,fin phase 2 et debut phase 3 de Hijara (= pre-TT_10 de Mallowan),fin phase 2 et debut phase 3 de Hijara (= pre-TT_10 de Mallowan),---,"MCH, Halaf",CH, 5820 +- 70,5960 - 5680,05.01 Mosul Arbil region,36.37,43.21,---,---,"Hijara et al. 1980, Burleigh et al. 1982a, Watson 1983, Bernbeck 1994","303"
P-584,---,"7027","83",0,Iraq,Arpachiyah,"-",charcoal,charcoal/ ash,"niv. 8, phase Halaf","niv. 8, phase Halaf",---,"MCH, Halaf",CH, 5900 +- 90,6080 - 5720,05.01 Mosul Arbil region,36.37,43.21,---,---,"Stuckenrath and Ralph 1965, Coursaget and Le Run 1966, Bernbeck 1994, Chataigner 1995","304"
P-585,---,"8064","78",0,Iraq,Arpachiyah,"-",charcoal,charcoal/ ash,---,---,---,Halaf,CH, 6990 +- 150,7290 - 6690,05.01 Mosul Arbil region,36.37,43.21,---,Banadora: cf. Chagar Bazar,Stuckenrath and Ralph 1965,"305"
BM-483,---,"6846","182",0,Iraq,Choga Mami,"-",charcoal,---,---,---,---,Neo. / Samarra,PN, 5770 +- 160,6090 - 5450,05.03 Lower Mesopotamia,33.9,45.17,---,Banadora: transition phase de Samarra / Hajji Mohammed,"Oates 1972, Burleigh et al. 1977, Hole 1987, Bernbeck 1994","730"
C-817,---,"5400","325",0,Iraq,Gawra,"-",soil,ash,niv. XVIII-XVII,niv. XVIII-XVII,---,---,CH, 4240 +- 360,4960 - 3520,05.01 Mosul Arbil region,36.43,43.34,---,"Banadora: moyenne de deuy dates 5552 +- 350 BP, 5100 +- 800 BP","Libby 1955, Science 127, 1958","1191"
P-1497,---,"5787","72",0,Iraq,Gawra,"-",soil,---,level XII,level XII,---,---,PN, 4640 +- 80,4800 - 4480,05.01 Mosul Arbil region,36.43,43.34,---,Banadora: pre-traitement � la soude (NaOH),Lawn 1973,"1195"
P-1496,---,"5991","72",0,Iraq,Gawra,"-",soil,---,level XVII,level XVII,---,---,PN, 4890 +- 90,5070 - 4710,05.01 Mosul Arbil region,36.43,43.34,---,Banadora: pre-traitement � la soude (NaOH),Lawn 1973,"1193"
P-1495,---,"6420","61",0,Iraq,Gawra,"-",soil,ashy soil,"level XVIII (� 0,50 m au-dessus de P-1494)","level XVIII (� 0,50 m au-dessus de P-1494)",---,---,PN, 5400 +- 60,5520 - 5280,05.01 Mosul Arbil region,36.43,43.34,---,Banadora: pre-traitement � la soude (NaOH),Lawn 1973,"1194"
P-1494,---,"7002","82",0,Iraq,Gawra,"-",soil,ash,level XIX,level XIX,---,---,PN, 5880 +- 90,6060 - 5700,05.01 Mosul Arbil region,36.43,43.34,---,Banadora: pre-traitement � la soude (NaOH),Lawn 1973,"1192"
P-468,---,"4949","75",0,Iraq,Grai Resh,"-",charcoal,charcoal/ ash,Uruk,Uruk,---,Uruk,CH, 3780 +- 100,3980 - 3580,02.06 NE-Steppe region,36.22,41.47,---,---,"Stuckenrath 1963, Renfrew 1978","1164"
P-469,---,"5169","64",0,Iraq,Grai Resh,"-",charcoal,---,Uruk,Uruk,---,Uruk,CH, 3960 +- 90,4140 - 3780,02.06 NE-Steppe region,36.22,41.47,---,Banadora: comparable � Gawra XIA-VIIIB,"Stuckenrath 1963, Renfrew 1978","1163"
W-609,---,"3030","200",0,Iraq,Hassuna,"-",charcoal,---,niv. I a,niv. I a,---,---,PN, 1260 +- 240,1740 - 780,05.01 Mosul Arbil region,36.07,43.21,---,Banadora: date rejetee,Rubin and Alexander 1960,"1295"
W-660,---,"7040","200",0,Iraq,Hassuna,"-",charcoal,---,"level V, phase Halaf","level V, phase Halaf",---,Halaf,CH, 5940 +- 190,6320 - 5560,05.01 Mosul Arbil region,36.07,43.21,---,---,"Science 127, 1958, Rubin and Alexander 1960, Bernbeck 1994, Chataigner 1995","1294"
C-744,---,"5266","450",0,Iraq,Jarmo,"-",charcoal,---,"2, pr�s de la surface","2, pr�s de la surface",---,Jarmo,PN, 4080 +- 510,5100 - 3060,05.02 Samarra Kirkuk region,35.56,44.92,"or 5265 +- 450 BP?;","Banadora: niv. avec ceramique, cf. Braidwood 1958, 1426","Libby 1955, Braidwood et al. (eds.) 1983, Hole 1987, Koz?owski 1994a","1480"
UCLA-1723C,---,"6180","300",0,Iraq,Jarmo,"-",bone,"Bos, collagen",---,---,soundings,Jarmo,ACN, 5080 +- 320,5720 - 4440,05.02 Samarra Kirkuk region,35.56,44.92,---,---,"Berger et al. 1973, Braidwood et al. (eds.) 1983, Hole 1987, Koz?owski 1994a","1491"
GL-49,---,"6300","180",0,Iraq,Jarmo,"-",charcoal,---,"5","5",---,Jarmo,ACN, 5230 +- 200,5630 - 4830,05.02 Samarra Kirkuk region,35.56,44.92,---,"Banadora: m�me echantillon que GL-44, filtrate alone assayed","Braidwood et al. (eds.) 1983, Koz?owski 1994a","1484"
UCLA-1723D,---,"6550","200",0,Iraq,Jarmo,"-",bone,"Bos, collagen",---,---,soundings,Jarmo,ACN, 5480 +- 180,5840 - 5120,05.02 Samarra Kirkuk region,35.56,44.92,---,---,"Berger et al. 1973, Braidwood et al. (eds.) 1983, Hole 1987, Koz?owski 1994a","1492"
C-742,---,"6606","330",0,Iraq,Jarmo,"-",charcoal,taches de charbon de bois,7-8,7-8,---,Jarmo,ACN, 5500 +- 330,6160 - 4840,05.02 Samarra Kirkuk region,35.56,44.92,---,"Banadora: ""middle"" niv. aceramique, cf. Braidwood 1958, 1426","Libby 1955, Braidwood et al. (eds.) 1983, Hole 1987, Koz?owski 1994a","1478"
GL-44,---,"6650","170",0,Iraq,Jarmo,"-",charcoal,---,"5","5",---,Jarmo,ACN, 5580 +- 150,5880 - 5280,05.02 Samarra Kirkuk region,35.56,44.92,"6300 +- 180 BP and 6930 BP +- 120 reruns; Kozlowski 1994: 6650 +- 120 BP","Banadora: ""middle"" Henry/Servelle 1974, 40","Science 127, 1958, Braidwood et al. (eds.) 1983, Hole 1987, Koz?owski 1994a","1481"
GL-45,---,"6670","120",0,Iraq,Jarmo,"-",charcoal,---,"8","8",---,Jarmo,ACN, 5600 +- 90,5780 - 5420,05.02 Samarra Kirkuk region,35.56,44.92,Rerun 6570 +- 165 BP,"Banadora: ""middle Herry/Servello 1974, 40","Science 127, 1958, Braidwood et al. (eds.) 1983, Hole 1987, Koz?owski 1994a","1482"
C-743,---,"6695","360",0,Iraq,Jarmo,"-",charcoal,---,"5","5",---,Jarmo,ACN, 5600 +- 350,6300 - 4900,05.02 Samarra Kirkuk region,35.56,44.92,"or 6690 BP +- 360?;","Banadora: (niv. ceramique?), ""middle"", Braidwood 1958, 1426","Libby 1955, Braidwood et al. (eds.) 1983, Hole 1987, Koz?owski 1994a","1479"
C-113,---,"6710","320",0,Iraq,Jarmo,"-",mollusc,---,7-8,7-8,---,Jarmo,ACN, 5620 +- 300,6220 - 5020,05.02 Samarra Kirkuk region,35.56,44.92,"or 7607 +- 320 BP?, or +- 330?;","Banadora: niv. preceramique, cf. Braidwood 1958, 1426","Libby 1955, Braidwood et al. (eds.) 1983, Hole 1987, Koz?owski 1994a","1477"
GL-50,---,"6750","120",0,Iraq,Jarmo,"-",charcoal,---,"8","8",---,Jarmo,ACN, 5670 +- 110,5890 - 5450,05.02 Samarra Kirkuk region,35.56,44.92,---,"Banadora: m�me echantillon que GL-45, avec traitement HCl et NaOH","Braidwood et al. (eds.) 1983, Koz?owski 1994a","1485"
GL-48,---,"6930","120",0,Iraq,Jarmo,"-",charcoal,---,"5","5",---,Jarmo,ACN, 5830 +- 110,6050 - 5610,05.02 Samarra Kirkuk region,35.56,44.92,---,"Banadora: m�me echantillon que GL-44, avec traitement HCl et NaOH","Braidwood et al. (eds.) 1983, Koz?owski 1994a","1483"
UCLA-1723B,---,"7270","200",0,Iraq,Jarmo,"-",bone,"Bos, collagen",---,---,soundings,Jarmo,ACN, 6150 +- 200,6550 - 5750,05.02 Samarra Kirkuk region,35.56,44.92,---,---,"Berger et al. 1973, Braidwood et al. (eds.) 1983, Hole 1987, Koz?owski 1994a","1490"
GrN-6353,---,"7655","75",0,Iraq,Jarmo,"-",organic temper,pottery,"1","1",---,Jarmo,ACN, 6520 +- 70,6660 - 6380,05.02 Samarra Kirkuk region,35.56,44.92,---,---,"Braidwood et al. (eds.) 1983, Hole 1987, Koz?owski 1994a","1486"
W-608,---,"7750","250",0,Iraq,Jarmo,"-",bone,humic acid,"PQ 14 (-2,5 m)","PQ 14 (-2,5 m)",---,Jarmo,ACN, 6700 +- 300,7300 - 6100,05.02 Samarra Kirkuk region,35.56,44.92,---,"Banadora: ""lower"", niv. aceramique, m�me provenance que W-607, contamination par humus","Rubin and Alexander 1960, Braidwood et al. (eds.) 1983, Hole 1987, Koz?owski 1994a","1494"
UCLA-1723A,---,"7800","120",0,Iraq,Jarmo,"-",bone,"Ovis, collagen",---,---,soundings,Jarmo,ACN, 6720 +- 180,7080 - 6360,05.02 Samarra Kirkuk region,35.56,44.92,---,---,"Berger et al. 1973, Braidwood et al. (eds.) 1983, Hole 1987, Koz?owski 1994a","1489"
W-652,---,"7950","200",0,Iraq,Jarmo,"-",charcoal,---,7a,7a,---,Jarmo,ACN, 6900 +- 260,7420 - 6380,05.02 Samarra Kirkuk region,35.56,44.92,---,"Banadora: ""lower"", cd. Braidwood 1958, 1426","Rubin and Alexander 1960, Braidwood et al. (eds.) 1983, Hole 1987, Koz?owski 1994a","1496"
UCLA-1714E,---,"7980","140",0,Iraq,Jarmo,"-",bone,"Onager, collagen",---,---,"Operation I, strat.",Jarmo,ACN, 6900 +- 190,7280 - 6520,05.02 Samarra Kirkuk region,35.56,44.92,---,---,"Berger et al. 1973, Braidwood et al. (eds.) 1983, Hole 1987, Koz?owski 1994a","1488"
H-551/-491,---,"8525","175",0,Iraq,Jarmo,"-",charcoal,---,"7","7",---,Jarmo,ACN, 7610 +- 240,8090 - 7130,05.02 Samarra Kirkuk region,35.56,44.92,or 8520 +- 175 BP?,"Banadora: ""lower"", Henry/Servello 1974, 40","Braidwood 1958b, Braidwood et al. (eds.) 1983, Hole 1987, Koz?owski 1994a","1487"
W-651,---,"8830","200",0,Iraq,Jarmo,"-",charcoal,---,"4","4",---,Jarmo,ACN, 7960 +- 250,8460 - 7460,05.02 Samarra Kirkuk region,35.56,44.92,---,"Banadora: ""lower"" Braidwood 1958, 1426","Rubin and Alexander 1960, Braidwood et al. (eds.) 1983, Hole 1987, Koz?owski 1994a","1495"
W-607,---,"9040","250",0,Iraq,Jarmo,"-",soil,ash from hearth,"PQ 14 (-2,5 m)","PQ 14 (-2,5 m)",---,Jarmo,ACN, 8210 +- 350,8910 - 7510,05.02 Samarra Kirkuk region,35.56,44.92,---,"Banadora: ""lower"", aceramique, Braidwood 1958, 1426","Rubin and Alexander 1960, Braidwood et al. (eds.) 1983, Hole 1987, Koz?owski 1994a","1493"
W-665,---,"11200","200",0,Iraq,Jarmo,"-",soil,ashy soil,"N 18 (-2,00 m)","N 18 (-2,00 m)",---,Jarmo,ACN, 11170 +- 160,11490 - 10850,05.02 Samarra Kirkuk region,35.56,44.92,---,"Banadora: ""lower"", -2,00 m (niv. aceramique), cf. Braidwood 1958, 1426","Rubin and Alexander 1960, Hole 1987, Koz?owski 1994a","1498"
W-657,---,"11240","300",0,Iraq,Jarmo,"-",soil,ashy soil,"PQ 14 (-2,25 m)","PQ 14 (-2,25 m)",---,Jarmo,ACN, 11230 +- 260,11750 - 10710,05.02 Samarra Kirkuk region,35.56,44.92,---,"Banadora: sommet niv. aceramique, Braidwood 1958, 1426","Rubin and Alexander 1960, Braidwood et al. (eds.) 1983, Hole 1987, Koz?owski 1994a","1497"
BM-1458,---,"5570","55",0,Iraq,Madhhur,"-",seeds,carbinized grain,---,---,---,Obeid final,CH, 4420 +- 50,4520 - 4320,05.03 Lower Mesopotamia,34.2,44.95,---,---,Burleigh et al. 1982a,"1995"
IGAN-773,---,"7490","50",0,Iraq,Magzaliyah,"-",charcoal,---,level 10,level 10,---,PPNB,ACN, 6350 +- 70,6490 - 6210,05.01 Mosul Arbil region,36.39,42.33,---,Kozlowski 1994: classical PPNB,"Bader 1989, Koz?owski 1994a","1879"
IGAN-772,---,"8010","50",0,Iraq,Magzaliyah,"-",charcoal,---,layer 10,layer 10,---,PPNB,ACN, 6920 +- 110,7140 - 6700,05.01 Mosul Arbil region,36.39,42.33,---,Kozlowski 1994: classical PPNB,"Bader 1989, Koz?owski 1994a","1878"
W-623,---,"7570","250",0,Iraq,Matarrah,"-",charcoal,---,Op. VI-4,Op. VI-4,---,Hassuna,PN, 6480 +- 280,7040 - 5920,05.02 Samarra Kirkuk region,35.18,44.4,---,"Banadora: Mattarrah ""Lower"", cf. Braidwood 1958, 1426","Rubin and Alexander 1960, Bernbeck 1994","1902"
Gd-6356,---,"9630","130",0,Iraq,M'lefaat,"-",charcoal,---,lower layer,lower layer,---,Mlefatian,ACN, 9010 +- 190,9390 - 8630,05.01 Mosul Arbil region,36.31,43.54,---,---,Koz?owski 1994a,"1852"
OxA-3749,---,"9660","250",0,Iraq,M'lefaat,"-",seeds,carbinized grain,upper layer,upper layer,---,Mlefatian,ACN, 9100 +- 380,9860 - 8340,05.01 Mosul Arbil region,36.31,43.54,---,---,Koz?owski 1994a,"1856"
OxA-3819,---,"9680","100",0,Iraq,M'lefaat,"-",seeds,carbinized grain,upper layer,upper layer,---,Mlefatian,ACN, 9060 +- 170,9400 - 8720,05.01 Mosul Arbil region,36.31,43.54,---,---,"Koz?owski 1994a, Waterbolk 1994","1857"
OxA-3747,---,"9870","1140",0,Iraq,M'lefaat,"-",seeds,carbinized grain,upper layer,upper layer,---,Mlefatian,ACN, 9360 +- 1430,12220 - 6500,05.01 Mosul Arbil region,36.31,43.54,---,---,Koz?owski 1994a,"1854"
OxA-3748,---,"9890","120",0,Iraq,M'lefaat,"-",seeds,carbinized grain,upper layer,upper layer,---,Mlefatian,ACN, 9480 +- 200,9880 - 9080,05.01 Mosul Arbil region,36.31,43.54,or 9890 +- 250 BP?,---,Koz?owski 1994a,"1855"
Gd-6149,---,"10290","180",0,Iraq,M'lefaat,"-",charcoal,---,lower layer,lower layer,---,Mlefatian,ACN, 10120 +- 380,10880 - 9360,05.01 Mosul Arbil region,36.31,43.54,---,---,Koz?owski 1994a,"1850"
Gd-4465,---,"10850","200",0,Iraq,M'lefaat,"-",charcoal,---,Upper Layer,Upper Layer,---,Mlefatian,ACN, 10820 +- 230,11280 - 10360,05.01 Mosul Arbil region,36.31,43.54,---,---,Koz?owski 1994a,"1846"
Gd-6150,---,"10890","140",0,Iraq,M'lefaat,"-",charcoal,---,upper layer,upper layer,---,Mlefatian,ACN, 10940 +- 120,11180 - 10700,05.01 Mosul Arbil region,36.31,43.54,---,---,Koz?owski 1994a,"1851"
Gd-4658,---,"12360","280",0,Iraq,M'lefaat,"-",charcoal,---,lower layer,lower layer,---,Mlefatian,ACN, 12500 +- 420,13340 - 11660,05.01 Mosul Arbil region,36.31,43.54,---,---,Koz?owski 1994a,"1849"
Gd-4483,---,"12810","660",0,Iraq,M'lefaat,"-",charcoal,---,lower layer,lower layer,---,Mlefatian,ACN, 13130 +- 900,14930 - 11330,05.01 Mosul Arbil region,36.31,43.54,---,---,Koz?owski 1994a,"1847"
Gd-6363,---,"13540","180",0,Iraq,M'lefaat,"-",charcoal,---,upper layer,upper layer,---,Mlefatian,ACN, 14140 +- 260,14660 - 13620,05.01 Mosul Arbil region,36.31,43.54,---,---,Koz?owski 1994a,"1853"
Gd-4652,---,"13860","300",0,Iraq,M'lefaat,"-",charcoal,---,lower layer,lower layer,---,Mlefatian,ACN, 14590 +- 420,15430 - 13750,05.01 Mosul Arbil region,36.31,43.54,---,---,Koz?owski 1994a,"1848"
Gd-4194,---,"5200","450",0,Iraq,Nemrik 9,"-",charcoal,---,phase 4,phase 4,---,Nemrikian,ACN, 3990 +- 510,5010 - 2970,05.01 Mosul Arbil region,36.73,42.88,---,---,"Pazdur 1992, Koz?owski 1994a","2086"
Gd-5110,---,"7470","60",0,Iraq,Nemrik 9,"-",mollusc,---,phase 5,phase 5,---,Nemrikian,ACN, 6340 +- 70,6480 - 6200,05.01 Mosul Arbil region,36.73,42.88,---,---,"Pazdur 1992, Koz?owski 1994a","2114"
Gd-2935,---,"7640","110",0,Iraq,Nemrik 9,"-",charcoal,---,phase 4,phase 4,---,Nemrikian,ACN, 6500 +- 100,6700 - 6300,05.01 Mosul Arbil region,36.73,42.88,---,---,Koz?owski 1994a,"2073"
Gd-4204,---,"7980","140",0,Iraq,Nemrik 9,"-",charcoal,---,phase 2,phase 2,---,Nemrikian,ACN, 6900 +- 190,7280 - 6520,05.01 Mosul Arbil region,36.73,42.88,---,---,"Pazdur 1992, Koz?owski 1994a","2087"
Gd-4222,---,"8180","120",0,Iraq,Nemrik 9,"-",charcoal,---,phase 4/5,phase 4/5,---,Nemrikian,ACN, 7200 +- 170,7540 - 6860,05.01 Mosul Arbil region,36.73,42.88,---,Banadora: falsch Gd-8180,"Pazdur 1992, Koz?owski 1994a, Waterbolk 1994","2143"
Gd-6119,---,"8300","150",0,Iraq,Nemrik 9,"-",charcoal,---,phase 3,phase 3,---,Nemrikian,ACN, 7310 +- 180,7670 - 6950,05.01 Mosul Arbil region,36.73,42.88,---,---,Koz?owski 1994a,"2132"
Gd-6108,---,"8300","130",0,Iraq,Nemrik 9,"-",charcoal,---,phase 4,phase 4,---,Nemrikian,ACN, 7320 +- 160,7640 - 7000,05.01 Mosul Arbil region,36.73,42.88,---,---,Koz?owski 1994a,"2128"
Gd-2637,---,"8440","130",0,Iraq,Nemrik 9,"-",charcoal,or shell?,phase 4,phase 4,---,Nemrikian,ACN, 7440 +- 140,7720 - 7160,05.01 Mosul Arbil region,36.73,42.88,---,---,"Pazdur 1992, Koz?owski 1994a","2065"
Gd-6113,---,"8570","150",0,Iraq,Nemrik 9,"-",charcoal,---,phase 4,phase 4,---,Nemrikian,ACN, 7680 +- 200,8080 - 7280,05.01 Mosul Arbil region,36.73,42.88,---,---,Koz?owski 1994a,"2131"
Gd-5111,---,"8630","70",0,Iraq,Nemrik 9,"-",mollusc,---,phase 5,phase 5,---,Nemrikian,ACN, 7690 +- 90,7870 - 7510,05.01 Mosul Arbil region,36.73,42.88,---,---,"Pazdur 1992, Koz?owski 1994a","2115"
Gd-4207,---,"8700","110",0,Iraq,Nemrik 9,"-",charcoal,---,phase 3/4,phase 3/4,---,Nemrikian,ACN, 7820 +- 180,8180 - 7460,05.01 Mosul Arbil region,36.73,42.88,---,---,"Pazdur 1992, Koz?owski 1994a, Banadora","2089"
Gd-5422,---,"8750","80",0,Iraq,Nemrik 9,"-",charcoal,---,phase 4,phase 4,---,Nemrikian,ACN, 7860 +- 170,8200 - 7520,05.01 Mosul Arbil region,36.73,42.88,---,---,Koz?owski 1994a,"2122"
Gd-4463,---,"8910","220",0,Iraq,Nemrik 9,"-",charcoal,---,phase 2,phase 2,---,Nemrikian,ACN, 8040 +- 280,8600 - 7480,05.01 Mosul Arbil region,36.73,42.88,---,---,Koz?owski 1994a,"2106"
Gd-4205,---,"9000","150",0,Iraq,Nemrik 9,"-",charcoal,---,phase 2,phase 2,---,Nemrikian,ACN, 8140 +- 230,8600 - 7680,05.01 Mosul Arbil region,36.73,42.88,---,---,"Pazdur 1992, Koz?owski 1994a","2088"
Gd-2778,---,"9010","170",0,Iraq,Nemrik 9,"-",charcoal,---,phase 3,phase 3,---,Nemrikian,ACN, 8150 +- 260,8670 - 7630,05.01 Mosul Arbil region,36.73,42.88,---,---,"Pazdur 1992, Koz?owski 1994a","2072"
Gd-4364,---,"9030","400",0,Iraq,Nemrik 9,"-",charcoal,---,phase 2,phase 2,---,Nemrikian,ACN, 8260 +- 530,9320 - 7200,05.01 Mosul Arbil region,36.73,42.88,---,---,Koz?owski 1994a,"2100"
Gd-5240,---,"9130","60",0,Iraq,Nemrik 9,"-",charcoal,---,phase 3,phase 3,---,Nemrikian,ACN, 8380 +- 90,8560 - 8200,05.01 Mosul Arbil region,36.73,42.88,---,---,"Pazdur 1992, Koz?owski 1994a","2118"
Gd-4365,---,"9140","150",0,Iraq,Nemrik 9,"-",charcoal,---,phase 3,phase 3,---,Nemrikian,ACN, 8360 +- 210,8780 - 7940,05.01 Mosul Arbil region,36.73,42.88,---,---,Koz?owski 1994a,"2101"
Gd-5424,---,"9140","90",0,Iraq,Nemrik 9,"-",charcoal,---,phase 4,phase 4,---,Nemrikian,ACN, 8400 +- 110,8620 - 8180,05.01 Mosul Arbil region,36.73,42.88,---,---,Koz?owski 1994a,"2123"
Gd-5425,---,"9140","90",0,Iraq,Nemrik 9,"-",charcoal,---,phase 3,phase 3,---,Nemrikian,ACN, 8400 +- 110,8620 - 8180,05.01 Mosul Arbil region,36.73,42.88,---,---,Koz?owski 1994a,"2144"
Gd-5186,---,"9170","90",0,Iraq,Nemrik 9,"-",charcoal,or shell?,phase 4,phase 4,---,Nemrikian,ACN, 8420 +- 110,8640 - 8200,05.01 Mosul Arbil region,36.73,42.88,---,same phase than house 1,"Pazdur 1992, Koz?owski 1994a","2116"
Gd-2936,---,"9170","130",0,Iraq,Nemrik 9,"-",charcoal,---,phase 4,phase 4,---,Nemrikian,ACN, 8430 +- 150,8730 - 8130,05.01 Mosul Arbil region,36.73,42.88,---,---,Koz?owski 1994a,"2074"
Gd-6130,---,"9230","160",0,Iraq,Nemrik 9,"-",charcoal,---,phase 3,phase 3,---,Nemrikian,ACN, 8510 +- 200,8910 - 8110,05.01 Mosul Arbil region,36.73,42.88,---,---,Koz?owski 1994a,"2138"
Gd-5421,---,"9250","70",0,Iraq,Nemrik 9,"-",charcoal,---,phase 3,phase 3,---,Nemrikian,ACN, 8480 +- 110,8700 - 8260,05.01 Mosul Arbil region,36.73,42.88,---,---,Koz?owski 1994a,"2121"
Gd-6131,---,"9370","120",0,Iraq,Nemrik 9,"-",charcoal,---,phase 3,phase 3,---,Nemrikian,ACN, 8680 +- 210,9100 - 8260,05.01 Mosul Arbil region,36.73,42.88,---,---,Koz?owski 1994a,"2139"
Gd-4213,---,"9410","550",0,Iraq,Nemrik 9,"-",charcoal,---,phase 4,phase 4,---,Nemrikian,ACN, 8850 +- 810,10470 - 7230,05.01 Mosul Arbil region,36.73,42.88,---,---,"Pazdur 1992, Koz?owski 1994a","2095"
Gd-5443,---,"9420","90",0,Iraq,Nemrik 9,"-",charcoal,---,phase 2,phase 2,---,Nemrikian,ACN, 8790 +- 200,9190 - 8390,05.01 Mosul Arbil region,36.73,42.88,---,---,Koz?owski 1994a,"2125"
Gd-2966,---,"9440","160",0,Iraq,Nemrik 9,"-",charcoal,---,phase 3,phase 3,---,Nemrikian,ACN, 8810 +- 270,9350 - 8270,05.01 Mosul Arbil region,36.73,42.88,---,---,Koz?owski 1994a,"2077"
Gd-2713,---,"9470","140",0,Iraq,Nemrik 9,"-",mollusc,---,phase 4/5,phase 4/5,---,Nemrikian,ACN, 8850 +- 240,9330 - 8370,05.01 Mosul Arbil region,36.73,42.88,or LABNR =  Gd-2731?,Banadora: pr�s de la maison 3,"Pazdur 1992, Koz?owski 1994a","2066"
Gd-2773,---,"9480","170",0,Iraq,Nemrik 9,"-",charcoal,---,phase 3,phase 3,---,Nemrikian,ACN, 8850 +- 260,9370 - 8330,05.01 Mosul Arbil region,36.73,42.88,---,---,"Pazdur 1992, Koz?owski 1994a, Banadora","2069"
Gd-2972,---,"9490","170",0,Iraq,Nemrik 9,"-",charcoal,---,phase 3,phase 3,---,Nemrikian,ACN, 8860 +- 260,9380 - 8340,05.01 Mosul Arbil region,36.73,42.88,---,---,Koz?owski 1994a,"2082"
Gd-4193,---,"9500","130",0,Iraq,Nemrik 9,"-",charcoal,---,phase 3,phase 3,---,Nemrikian,ACN, 8880 +- 220,9320 - 8440,05.01 Mosul Arbil region,36.73,42.88,---,---,"Pazdur 1992, Koz?owski 1994a","2085"
Gd-6129,---,"9510","150",0,Iraq,Nemrik 9,"-",charcoal,---,phase 3,phase 3,---,Nemrikian,ACN, 8880 +- 240,9360 - 8400,05.01 Mosul Arbil region,36.73,42.88,---,---,Koz?owski 1994a,"2137"
Gd-6120,---,"9530","140",0,Iraq,Nemrik 9,"-",charcoal,---,phase 3,phase 3,---,Nemrikian,ACN, 8910 +- 220,9350 - 8470,05.01 Mosul Arbil region,36.73,42.88,---,---,Koz?owski 1994a,"2133"
Gd-2766,---,"9570","130",0,Iraq,Nemrik 9,"-",charcoal,---,phase 3,phase 3,---,Nemrikian,ACN, 8950 +- 200,9350 - 8550,05.01 Mosul Arbil region,36.73,42.88,---,---,"Pazdur 1992, Koz?owski 1994a","2068"
Gd-4453,---,"9630","160",0,Iraq,Nemrik 9,"-",charcoal,---,phase 3,phase 3,---,Nemrikian,ACN, 9000 +- 220,9440 - 8560,05.01 Mosul Arbil region,36.73,42.88,---,---,Koz?owski 1994a,"2105"
Gd-4474,---,"9640","300",0,Iraq,Nemrik 9,"-",charcoal,---,phase 3,phase 3,---,Nemrikian,ACN, 9110 +- 470,10050 - 8170,05.01 Mosul Arbil region,36.73,42.88,---,---,Koz?owski 1994a,"2109"
Gd-6148,---,"9720","130",0,Iraq,Nemrik 9,"-",charcoal,---,phase 5,phase 5,---,Nemrikian,ACN, 9100 +- 210,9520 - 8680,05.01 Mosul Arbil region,36.73,42.88,---,---,Koz?owski 1994a,"2141"
Gd-2937,---,"9740","150",0,Iraq,Nemrik 9,"-",charcoal,---,phase 4,phase 4,---,Nemrikian,ACN, 9150 +- 250,9650 - 8650,05.01 Mosul Arbil region,36.73,42.88,---,---,Koz?owski 1994a,"2075"
Gd-4372,---,"9770","240",0,Iraq,Nemrik 9,"-",charcoal,---,phase 2,phase 2,---,Nemrikian,ACN, 9280 +- 420,10120 - 8440,05.01 Mosul Arbil region,36.73,42.88,---,---,Koz?owski 1994a,"2104"
Gd-4371,---,"9770","520",0,Iraq,Nemrik 9,"-",charcoal,---,phase 2,phase 2,---,Nemrikian,ACN, 9360 +- 780,10920 - 7800,05.01 Mosul Arbil region,36.73,42.88,---,---,Koz?owski 1994a,"2103"
Gd-6121,---,"9780","180",0,Iraq,Nemrik 9,"-",charcoal,---,"phase 2, floors below house 7A","phase 2, floors below house 7A",---,Nemrikian,ACN, 9260 +- 340,9940 - 8580,05.01 Mosul Arbil region,36.73,42.88,---,---,Koz?owski 1994a,"2134"
Gd-2963,---,"9780","130",0,Iraq,Nemrik 9,"-",charcoal,---,phase 2,phase 2,---,Nemrikian,ACN, 9210 +- 250,9710 - 8710,05.01 Mosul Arbil region,36.73,42.88,---,---,Koz?owski 1994a,"2076"
Gd-6152,---,"9800","130",0,Iraq,Nemrik 9,"-",charcoal,---,phase 4,phase 4,---,Nemrikian,ACN, 9260 +- 270,9800 - 8720,05.01 Mosul Arbil region,36.73,42.88,---,---,Koz?owski 1994a,"2142"
Gd-6127,---,"9800","160",0,Iraq,Nemrik 9,"-",charcoal,---,phase 2,phase 2,---,Nemrikian,ACN, 9280 +- 320,9920 - 8640,05.01 Mosul Arbil region,36.73,42.88,---,---,Koz?owski 1994a,"2135"
Gd-6128,---,"9870","160",0,Iraq,Nemrik 9,"-",charcoal,---,"phase 1, on virgin soil","phase 1, on virgin soil",---,Nemrikian,ACN, 9450 +- 280,10010 - 8890,05.01 Mosul Arbil region,36.73,42.88,---,---,Koz?owski 1994a,"2136"
Gd-4224,---,"9930","230",0,Iraq,Nemrik 9,"-",charcoal,---,phase 3,phase 3,---,Nemrikian,ACN, 9570 +- 390,10350 - 8790,05.01 Mosul Arbil region,36.73,42.88,---,---,"Pazdur 1992, Koz?owski 1994a","2099"
Gd-5595,---,"9950","100",0,Iraq,Nemrik 9,"-",charcoal,---,phase 4,phase 4,---,Nemrikian,ACN, 9540 +- 190,9920 - 9160,05.01 Mosul Arbil region,36.73,42.88,---,---,Koz?owski 1994a,"2127"
Gd-6110,---,"9970","170",0,Iraq,Nemrik 9,"-",charcoal,---,phase 2,phase 2,---,Nemrikian,ACN, 9620 +- 290,10200 - 9040,05.01 Mosul Arbil region,36.73,42.88,---,---,Koz?owski 1994a,"2129"
Gd-6143,---,"9990","140",0,Iraq,Nemrik 9,"-",charcoal,---,phase 2,phase 2,---,Nemrikian,ACN, 9620 +- 250,10120 - 9120,05.01 Mosul Arbil region,36.73,42.88,---,---,Koz?owski 1994a,"2140"
Gd-5257,---,"10020","80",0,Iraq,Nemrik 9,"-",charcoal,---,phase 3,phase 3,---,Nemrikian,ACN, 9610 +- 190,9990 - 9230,05.01 Mosul Arbil region,36.73,42.88,---,---,"Pazdur 1992, Koz?owski 1994a","2120"
Gd-4209,---,"10040","130",0,Iraq,Nemrik 9,"-",charcoal,---,phase 3,phase 3,---,Nemrikian,ACN, 9680 +- 260,10200 - 9160,05.01 Mosul Arbil region,36.73,42.88,---,---,"Pazdur 1992, Koz?owski 1994a","2091"
Gd-2970,---,"10070","120",0,Iraq,Nemrik 9,"-",charcoal,---,phase 2,phase 2,---,Nemrikian,ACN, 9710 +- 260,10230 - 9190,05.01 Mosul Arbil region,36.73,42.88,---,---,Koz?owski 1994a,"2080"
Gd-4208,---,"10100","130",0,Iraq,Nemrik 9,"-",charcoal,---,phase 3,phase 3,---,Nemrikian,ACN, 9750 +- 270,10290 - 9210,05.01 Mosul Arbil region,36.73,42.88,---,---,"Pazdur 1992, Koz?owski 1994a","2090"
Gd-6111,---,"10130","180",0,Iraq,Nemrik 9,"-",charcoal,---,phase 2,phase 2,---,Nemrikian,ACN, 9840 +- 350,10540 - 9140,05.01 Mosul Arbil region,36.73,42.88,---,---,Koz?owski 1994a,"2130"
Gd-2777,---,"10180","130",0,Iraq,Nemrik 9,"-",charcoal,---,phase 5,phase 5,---,Nemrikian,ACN, 9880 +- 300,10480 - 9280,05.01 Mosul Arbil region,36.73,42.88,---,---,"Pazdur 1992, Koz?owski 1994a","2071"
Gd-4210,---,"10180","190",0,Iraq,Nemrik 9,"-",charcoal,---,phase 3/4,phase 3/4,---,Nemrikian,ACN, 9930 +- 390,10710 - 9150,05.01 Mosul Arbil region,36.73,42.88,---,---,"Pazdur 1992, Koz?owski 1994a","2092"
Gd-4211,---,"10260","170",0,Iraq,Nemrik 9,"-",charcoal,---,phase 3,phase 3,---,Nemrikian,ACN, 10060 +- 360,10780 - 9340,05.01 Mosul Arbil region,36.73,42.88,---,---,"Pazdur 1992, Koz?owski 1994a","2093"
Gd-2971,---,"10330","150",0,Iraq,Nemrik 9,"-",charcoal,---,phase 3,phase 3,---,Nemrikian,ACN, 10210 +- 330,10870 - 9550,05.01 Mosul Arbil region,36.73,42.88,---,---,Koz?owski 1994a,"2081"
Gd-4475,---,"10370","330",0,Iraq,Nemrik 9,"-",charcoal,---,"phase 2, floor below house 7A","phase 2, floor below house 7A",---,Nemrikian,ACN, 10140 +- 520,11180 - 9100,05.01 Mosul Arbil region,36.73,42.88,---,---,Koz?owski 1994a,"2110"
Gd-2973,---,"10400","190",0,Iraq,Nemrik 9,"-",charcoal,---,phase 2,phase 2,---,Nemrikian,ACN, 10280 +- 360,11000 - 9560,05.01 Mosul Arbil region,36.73,42.88,---,---,Koz?owski 1994a,"2083"
Gd-4212,---,"10480","180",0,Iraq,Nemrik 9,"-",charcoal,---,phase 3,phase 3,---,Nemrikian,ACN, 10410 +- 300,11010 - 9810,05.01 Mosul Arbil region,36.73,42.88,---,---,"Pazdur 1992, Koz?owski 1994a","2094"
Gd-5451,---,"10700","120",0,Iraq,Nemrik 9,"-",charcoal,---,phase 3,phase 3,---,Nemrikian,ACN, 10690 +- 180,11050 - 10330,05.01 Mosul Arbil region,36.73,42.88,---,---,Koz?owski 1994a,"2126"
Gd-4478,---,"10700","190",0,Iraq,Nemrik 9,"-",charcoal,---,"phase 3, below house 3","phase 3, below house 3",---,Nemrikian,ACN, 10630 +- 250,11130 - 10130,05.01 Mosul Arbil region,36.73,42.88,---,---,Koz?owski 1994a,"2113"
Gd-2714,---,"10900","140",0,Iraq,Nemrik 9,"-",mollusc,---,phase 2,phase 2,---,Nemrikian,ACN, 10950 +- 120,11190 - 10710,05.01 Mosul Arbil region,36.73,42.88,---,---,"Pazdur 1992, Koz?owski 1994a","2067"
Gd-4469,---,"11090","190",0,Iraq,Nemrik 9,"-",charcoal,---,phase 1/2,phase 1/2,---,Nemrikian,ACN, 11090 +- 140,11370 - 10810,05.01 Mosul Arbil region,36.73,42.88,---,---,Koz?owski 1994a,"2107"
Gd-4477,---,"11150","560",0,Iraq,Nemrik 9,"-",charcoal,---,phase 2,phase 2,---,Nemrikian,ACN, 10990 +- 680,12350 - 9630,05.01 Mosul Arbil region,36.73,42.88,---,---,Koz?owski 1994a,"2112"
Gd-5249,---,"11180","90",0,Iraq,Nemrik 9,"-",charcoal,---,phase 3,phase 3,---,Nemrikian,ACN, 11130 +- 100,11330 - 10930,05.01 Mosul Arbil region,36.73,42.88,---,---,"Pazdur 1992, Koz?owski 1994a","2119"
Gd-4118,---,"11300","200",0,Iraq,Nemrik 9,"-",charcoal,---,phase 5,phase 5,---,Nemrikian,ACN, 11250 +- 180,11610 - 10890,05.01 Mosul Arbil region,36.73,42.88,---,---,"Pazdur 1992, Koz?owski 1994a","2084"
Gd-4473,---,"12240","340",0,Iraq,Nemrik 9,"-",charcoal,---,"phase 3, below house 3","phase 3, below house 3",---,Nemrikian,ACN, 12380 +- 490,13360 - 11400,05.01 Mosul Arbil region,36.73,42.88,---,---,Koz?owski 1994a,"2108"
Gd-4370,---,"12550","1000",0,Iraq,Nemrik 9,"-",charcoal,---,phase 3,phase 3,---,Nemrikian,ACN, 12940 +- 1270,15480 - 10400,05.01 Mosul Arbil region,36.73,42.88,---,---,Koz?owski 1994a,"2102"
Gd-2969,---,"13000","2400",0,Iraq,Nemrik 9,"-",charcoal,---,phase 1,phase 1,---,Nemrikian,ACN, 13340 +- 2990,19320 - 7360,05.01 Mosul Arbil region,36.73,42.88,---,---,Koz?owski 1994a,"2079"
Gd-4476,---,"13600","900",0,Iraq,Nemrik 9,"-",charcoal,---,phase 5,phase 5,---,Nemrikian,ACN, 14270 +- 1290,16850 - 11690,05.01 Mosul Arbil region,36.73,42.88,---,---,Koz?owski 1994a,"2111"
Gd-5440,---,"18250","220",0,Iraq,Nemrik 9,"-",charcoal,---,phase 4,phase 4,---,Nemrikian,ACN, 19730 +- 340,20410 - 19050,05.01 Mosul Arbil region,36.73,42.88,---,---,Koz?owski 1994a,"2124"
Gd-4223,---,"20800","550",0,Iraq,Nemrik 9,"-",charcoal,---,phase 2,phase 2,---,Nemrikian,ACN, 23040 +- 710,24460 - 21620,05.01 Mosul Arbil region,36.73,42.88,---,---,"Pazdur 1992, Koz?owski 1994a","2098"
Gd-2775,---,"25200","670",0,Iraq,Nemrik 9,"-",charcoal,---,phase 2,phase 2,---,Nemrikian,EP, 28080 +- 620,29320 - 26840,05.01 Mosul Arbil region,36.73,42.88,---,---,"Pazdur 1992, Koz?owski 1994a, Banadora","2070"
Gd-4215,>,"26000","0",0,Iraq,Nemrik 9,"-",charcoal,---,phase 2,phase 2,---,Nemrikian,ACN,---,---,05.01 Mosul Arbil region,36.73,42.88,---,---,"Pazdur 1992, Koz?owski 1994a","2097"
Gd-4214,>,"27000","0",0,Iraq,Nemrik 9,"-",charcoal,---,phase 4,phase 4,---,Nemrikian,ACN,---,---,05.01 Mosul Arbil region,36.73,42.88,---,---,"Pazdur 1992, Koz?owski 1994a","2096"
Gd-5116,---,"33300","1100",0,Iraq,Nemrik 9,"-",charcoal,---,phase 2,phase 2,---,Nemrikian,EP, 37060 +- 1620,40300 - 33820,05.01 Mosul Arbil region,36.73,42.88,---,Pazdur: NK9/86C,"Pazdur 1992, Koz?owski 1994a","2064"
Gd-2967,>,"37700","0",0,Iraq,Nemrik 9,"-",charcoal,---,phase 4,phase 4,---,Nemrikian,ACN,---,---,05.01 Mosul Arbil region,36.73,42.88,---,---,Koz?owski 1994a,"2078"
Gd-5237,>,"40000","0",0,Iraq,Nemrik 9,"-",charcoal,---,phase 4,phase 4,---,Nemrikian,ACN,---,---,05.01 Mosul Arbil region,36.73,42.88,---,---,"Pazdur 1992, Koz?owski 1994a","2117"
P-530,---,"4672","74",0,Iraq,Nippur,"-",n.d.,---,---,---,---,Uruk,CH, 3480 +- 100,3680 - 3280,05.03 Lower Mesopotamia,32.17,45.46,---,---,"Stuckenrath 1963, Renfrew 1978","2174"
MC-2384,---,"5650","90",0,Iraq,Oueili,"-",seeds,grain,---,---,---,Obeid final,CH, 4510 +- 100,4710 - 4310,05.03 Lower Mesopotamia,31.15,46.05,---,---,Banadora,"2322"
MC-2386,---,"5810","100",0,Iraq,Oueili,"-",seeds,grain,niv. 3,niv. 3,---,Obeid final,CH, 4670 +- 120,4910 - 4430,05.03 Lower Mesopotamia,31.15,46.05,---,---,Banadora,"2323"
MC-2382,---,"5980","100",0,Iraq,Oueili,"-",charcoal,---,niv. 1,niv. 1,---,Obeid final,CH, 4880 +- 120,5120 - 4640,05.03 Lower Mesopotamia,31.15,46.05,---,---,Banadora,"2325"
MC-2385,---,"6170","90",0,Iraq,Oueili,"-",charcoal,---,niv. 3,niv. 3,---,Obeid final,CH, 5120 +- 120,5360 - 4880,05.03 Lower Mesopotamia,31.15,46.05,---,---,Banadora,"2324"
MC-2383,---,"6190","90",0,Iraq,Oueili,"-",charcoal,---,niv. 3,niv. 3,---,Obeid final,CH, 5140 +- 120,5380 - 4900,05.03 Lower Mesopotamia,31.15,46.05,---,---,Banadora,"2326"
GifA-89150,---,"6460","140",0,Iraq,Oueili,"-",charcoal,---,E 87 72 1 (V 34) Phase I,E 87 72 1 (V 34) Phase I,---,Obeid 1,CH, 5410 +- 130,5670 - 5150,05.03 Lower Mesopotamia,31.15,46.05,---,---,Huot (ed.) 1996,"2317"
GifA-89149,---,"6680","110",0,Iraq,Oueili,"-",charcoal,---,E 87 49 3 (T 34) fosse anterieure � phase I,E 87 49 3 (T 34) fosse anterieure � phase I,---,Obeid 1,CH, 5610 +- 90,5790 - 5430,05.03 Lower Mesopotamia,31.15,46.05,---,---,Huot (ed.) 1996,"2319"
Ly-4550,---,"6710","160",0,Iraq,Oueili,"1",shell,---,E 87 67 1 (W 34) Phase II,E 87 67 1 (W 34) Phase II,---,Obeid 1,CH,---,---,05.03 Lower Mesopotamia,31.15,46.05,---,---,Huot (ed.) 1996,"2321"
GifA-89173,---,"7320","140",0,Iraq,Oueili,"1",shell,---,E 87 59 1 (U 34) Phase IA,E 87 59 1 (U 34) Phase IA,---,Obeid 0?,CH,---,---,05.03 Lower Mesopotamia,31.15,46.05,---,---,Huot (ed.) 1996,"2318"
GifA-89165,---,"7430","150",0,Iraq,Oueili,"1",shell,---,E 87 64 1 (U 34) phase IB,E 87 64 1 (U 34) phase IB,---,Obeid 0,CH,---,---,05.03 Lower Mesopotamia,31.15,46.05,---,---,"Huot 1991, Bernbeck 1994, Huot (ed.) 1996","2316"
Ly-4549,---,"24470","4700",0,Iraq,Oueili,"-",soil,ashy soil,E 87 67 2 (W 34) Phase II,E 87 67 2 (W 34) Phase II,---,Obeid 1,CH, 26790 +- 5400,37590 - 15990,05.03 Lower Mesopotamia,31.15,46.05,---,---,Huot (ed.) 1996,"2320"
GrN-6415,---,"11590","95",0,Iraq,Palegawra,"-",charcoal,---,"56 I, < 60cm","56 I, < 60cm",---,Zarzian,EP, 11520 +- 120,11760 - 11280,05.02 Samarra Kirkuk region,35.64,45.11,---,---,"Henry and Servello 1974, Koz?owski 1994a","2331"
GrN-6356,---,"13060","110",0,Iraq,Palegawra,"-",charcoal,---,"7A-47A, -80-60cm","7A-47A, -80-60cm",---,Zarzian,EP, 13500 +- 170,13840 - 13160,05.02 Samarra Kirkuk region,35.64,45.11,---,---,"Henry and Servello 1974, Koz?owski 1994a","2328"
UCLA-1714D,---,"13600","460",0,Iraq,Palegawra,"-",bone,collagen,-100-80cm,-100-80cm,---,Zarzian,EP, 14230 +- 640,15510 - 12950,05.02 Samarra Kirkuk region,35.64,45.11,---,"Kozlowski 1994, 261: charcoal","Berger et al. 1973, Henry and Servello 1974, Hole 1987, Koz?owski 1994a","2333"
UCLA-1703D,---,"14210","80",0,Iraq,Palegawra,"-",charcoal,---,-120-100cm,-120-100cm,---,Zarzian,EP, 15040 +- 150,15340 - 14740,05.02 Samarra Kirkuk region,35.64,45.11,---,---,Koz?owski 1994a,"2360"
UCLA-1703A,---,"14350","280",0,Iraq,Palegawra,"-",bone,collagen,---,---,---,Zarzian,EP, 15350 +- 460,16270 - 14430,05.02 Samarra Kirkuk region,35.64,45.11,or 14210 +- 280 BP,---,"Berger et al. 1973, Henry and Servello 1974, Hole 1987","2332"
GrN-6358,---,"14350","280",0,Iraq,Palegawra,"-",charcoal,---,"7C-47B, -120cm","7C-47B, -120cm",---,Zarzian,EP, 15350 +- 460,16270 - 14430,05.02 Samarra Kirkuk region,35.64,45.11,"Kozlowski 1994: 14350 +- 280 BP; 14210 +- 80 BP Banadora? wohl falsch s. UCLA-1703D",---,"Henry and Servello 1974, Koz?owski 1994a","2330"
GrN-6357,---,"14480","75",0,Iraq,Palegawra,"-",charcoal,---,"7B-47C, -100-80cm","7B-47C, -100-80cm",---,Zarzian,EP, 15490 +- 210,15910 - 15070,05.02 Samarra Kirkuk region,35.64,45.11,---,---,"Henry and Servello 1974, Koz?owski 1994a","2329"
OxA-3754,---,"9580","95",0,Iraq,Qermez Dere,"-",n.d.,---,RCK (phase 3),RCK (phase 3),---,PPN,ACN, 8980 +- 170,9320 - 8640,05.01 Mosul Arbil region,36.38,42.45,---,---,Banadora,"2393"
OxA-3757,---,"9640","85",0,Iraq,Qermez Dere,"-",n.d.,---,RDN (phase 6),RDN (phase 6),---,PPN,ACN, 9030 +- 160,9350 - 8710,05.01 Mosul Arbil region,36.38,42.45,---,---,Banadora,"2396"
OxA-3755,---,"9710","85",0,Iraq,Qermez Dere,"-",n.d.,---,RDI (phase VI),RDI (phase VI),---,PPN,ACN, 9080 +- 170,9420 - 8740,05.01 Mosul Arbil region,36.38,42.45,---,---,Banadora,"2394"
OxA-3756,---,"10115","95",0,Iraq,Qermez Dere,"-",n.d.,---,RDM (phase 5),RDM (phase 5),---,PPN,ACN, 9760 +- 240,10240 - 9280,05.01 Mosul Arbil region,36.38,42.45,---,---,Banadora,"2395"
OxA-3752,---,"10145","90",0,Iraq,Qermez Dere,"-",n.d.,---,CBR,CBR,---,PPN,ACN, 9800 +- 230,10260 - 9340,05.01 Mosul Arbil region,36.38,42.45,---,---,Banadora,"2392"
OxA-3753,---,"11990","100",0,Iraq,Qermez Dere,"-",n.d.,---,CBR,CBR,---,PPN,ACN, 11920 +- 110,12140 - 11700,05.01 Mosul Arbil region,36.38,42.45,---,"Banadora: provient, comme OxA-3752, des maisons les plus profondes dans la tranchee Nord",Banadora,"2397"
LOD-184,---,"5579","255",0,Iraq,Saadiya,"-",n.d.,---,Obeid,Obeid,---,Obeid,CH, 4430 +- 290,5010 - 3850,05.03 Lower Mesopotamia,33.95,44.87,---,---,Watkins and Campbell 1987,"2734"
LOD-183,---,"6072","270",0,Iraq,Saadiya,"-",n.d.,---,Obeid,Obeid,---,Obeid,CH, 4980 +- 300,5580 - 4380,05.03 Lower Mesopotamia,33.95,44.87,---,---,Watkins and Campbell 1987,"2735"
P-857,---,"6808","82",0,Iraq,Sawwan I,"-",charcoal,---,"level I, sol de la pi�ce 39, du b�t. T 11 oder Level III?","level I, sol de la pi�ce 39, du b�t. T 11 oder Level III?",---,Hassuna/Samarra,PN, 5720 +- 70,5860 - 5580,05.02 Samarra Kirkuk region,34.12,43.93,---,"Banadora: Sawwan III, date attendue","El-Wailly, F et al. 1965, Stuckenrath and Ralph 1965, Hole 1987, Bernbeck 1994","2528"
BM-1438,---,"6980","59",0,Iraq,Sawwan I,"-",charcoal,---,level III,level III,---,Samarra,PN, 5870 +- 80,6030 - 5710,05.02 Samarra Kirkuk region,34.12,43.93,---,---,"Burleigh et al. 1982a, Bernbeck 1994","2525"
BM-1435,---,"7015","66",0,Iraq,Sawwan I,"-",charcoal,---,level II-III,level II-III,---,Samarra,PN, 5900 +- 80,6060 - 5740,05.02 Samarra Kirkuk region,34.12,43.93,---,---,"Burleigh et al. 1982a, Bernbeck 1994, Banadora","2522"
BM-1437,---,"7037","69",0,Iraq,Sawwan I,"-",charcoal,---,level IIIA,level IIIA,---,Samarra,PN, 5910 +- 70,6050 - 5770,05.02 Samarra Kirkuk region,34.12,43.93,---,---,"Burleigh et al. 1982a, Bernbeck 1994","2524"
BM-1436,---,"7052","57",0,Iraq,Sawwan I,"-",charcoal,---,level IIIA,level IIIA,---,Samarra,PN, 5930 +- 60,6050 - 5810,05.02 Samarra Kirkuk region,34.12,43.93,---,---,"Burleigh et al. 1982a, Bernbeck 1994","2523"
BM-1434,---,"7069","66",0,Iraq,Sawwan I,"-",charcoal,---,level III,level III,---,Samarra,PN, 5940 +- 70,6080 - 5800,05.02 Samarra Kirkuk region,34.12,43.93,---,---,"Burleigh et al. 1982a, Bernbeck 1994","2521"
Pr-180,---,"7246","146",0,Iraq,Sawwan I,"-",n.d.,---,level III,level III,---,Samarra,PN, 6140 +- 150,6440 - 5840,05.02 Samarra Kirkuk region,34.12,43.93,---,---,"Watkins and Campbell 1987, Bernbeck 1994","2529"
P-856,---,"7299","86",0,Iraq,Sawwan I,"-",charcoal,---,"level III, sol 3","level III, sol 3",---,Samarra,PN, 6180 +- 100,6380 - 5980,05.02 Samarra Kirkuk region,34.12,43.93,---,---,"El-Wailly, F et al. 1965, Stuckenrath and Ralph 1965, Hole 1987, Bernbeck 1994","2527"
P-855,---,"7456","73",0,Iraq,Sawwan I,"-",charcoal,---,"level I, sol 2, pi�ce 21 (-3,5 m)","level I, sol 2, pi�ce 21 (-3,5 m)",---,Hassuna/Samarra,PN, 6330 +- 80,6490 - 6170,05.02 Samarra Kirkuk region,34.12,43.93,---,"Banadora: Sawan I, date attendue","El-Wailly, F et al. 1965, Stuckenrath and Ralph 1965, Hole 1987, Bernbeck 1994","2526"
K-960,---,"7300","150",0,Iraq,Shimshara,"-",n.d.,---,niv. 9,niv. 9,---,Hassuna,PN, 6190 +- 150,6490 - 5890,05.02 Samarra Kirkuk region,36.02,45.01,---,"Banadra: au-dessus de K-981, le niveau Neolithique le plus recent","Tauber 1968, Hole 1987, Bernbeck 1994","2562"
K-972,---,"7820","150",0,Iraq,Shimshara,"-",n.d.,---,niv. 11,niv. 11,---,Hassuna,PN, 6750 +- 210,7170 - 6330,05.02 Samarra Kirkuk region,36.02,45.01,---,Banadora: au-dessus de K-951,"Tauber 1968, Hole 1987, Bernbeck 1994","2563"
K-951,---,"7940","150",0,Iraq,Shimshara,"-",n.d.,---,niv. 13,niv. 13,---,Hassuna,PN, 6860 +- 190,7240 - 6480,05.02 Samarra Kirkuk region,36.02,45.01,---,Banadora: les niveaux 13 � 9 surmontent 3 niveaux aceramique et contiennent de la ceramique Hassuna IV-VI,"Tauber 1968, Hole 1987, Bernbeck 1994","2561"
K-981,---,"10030","160",0,Iraq,Shimshara,"-",n.d.,---,niv. 10,niv. 10,---,---,ACN, 9690 +- 290,10270 - 9110,05.02 Samarra Kirkuk region,36.02,45.01,---,"Banadora: au-dessus de K-972, date trop haute","Tauber 1968, Hole 1987, Bernbeck 1994","2564"
IGAN-780,---,"7010","150",0,Iraq,Sotto,"-",n.d.,---,---,---,---,---,PN, 5890 +- 140,6170 - 5610,05.01 Mosul Arbil region,36.28,42.37,---,---,Bader 1989,"2717"
IGAN-774,---,"7150","50",0,Iraq,Sotto,"-",n.d.,---,---,---,---,---,PN, 6020 +- 40,6100 - 5940,05.01 Mosul Arbil region,36.28,42.37,---,---,Bader 1989,"2716"
IGAN-769,---,"7470","60",0,Iraq,Sotto,"-",n.d.,---,---,---,---,---,PN, 6340 +- 70,6480 - 6200,05.01 Mosul Arbil region,36.28,42.37,---,---,Bader 1989,"2715"
TK-199a,---,"6340","390",0,Iraq,Thalathat II,"-",charcoal,---,level XVI,level XVI,---,Nemrikian,ACN, 5210 +- 400,6010 - 4410,05.01 Mosul Arbil region,36.48,42.5,---,---,"Fukai et al. 1981, Koz?owski 1994a","2815"
TK-199b,---,"6680","290",0,Iraq,Thalathat II,"-",charcoal,---,level XVI,level XVI,---,Nemrikian,ACN, 5600 +- 270,6140 - 5060,05.01 Mosul Arbil region,36.48,42.5,---,---,"Fukai et al. 1981, Koz?owski 1994a","2816"
TK-23,---,"7360","100",0,Iraq,Thalathat II,"-",organic material,carbinized herb,level XVI,level XVI,---,Hassuna,PN, 6230 +- 120,6470 - 5990,05.01 Mosul Arbil region,36.48,42.5,---,Banadora: avec ceramique Hassuna et Matarrah,"Sato et al. 1969, Bernbeck 1994, Banadora","2817"
TK-24,---,"7520","120",0,Iraq,Thalathat II,"-",charcoal,charcoal and carbonized herbs,humus noir du niv. XV,humus noir du niv. XV,---,Hassuna,PN, 6370 +- 120,6610 - 6130,05.01 Mosul Arbil region,36.48,42.5,---,---,"Sato et al. 1969, Bernbeck 1994","2818"
TK-198,---,"7800","80",0,Iraq,Thalathat II,"-",n.d.,---,level XV,level XV,---,---,ACN, 6670 +- 120,6910 - 6430,05.01 Mosul Arbil region,36.48,42.5,---,---,"Fukai et al. 1981, Bernbeck 1994","2814"
P-1498,---,"6599","107",0,Iraq,Uqair A,"1",shell,---,---,---,---,---,PN,---,---,05.03 Lower Mesopotamia,32.71,44.93,---,Banadora: le date correspond � Gawra (P-1494) et Uruk (H-138-1-123),Lawn 1973,"2855"
---,---,"4883","85",0,Iraq,Warka,"-",n.d.,---,IVA,IVA,---,Uruk,CH, 3670 +- 100,3870 - 3470,05.03 Lower Mesopotamia,31.28,45.67,Labnumber?,---,"nd, Renfrew 1978","2994"
H-138-123,---,"6070","160",0,Iraq,Warka,"-",organic material,reed,"niv. XVIII (le plus profond dans le sondage l'Eanna), repose sur le sol vierge","niv. XVIII (le plus profond dans le sondage l'Eanna), repose sur le sol vierge",---,Obeid 4,CH, 5000 +- 200,5400 - 4600,05.03 Lower Mesopotamia,31.28,45.67,---,---,"Science 127, 1958","2995"
LE-1070,---,"7040","100",0,Iraq,Yarim Tepe I,"-",n.d.,---,niv. 7-8,niv. 7-8,---,---,PN, 5910 +- 100,6110 - 5710,05.01 Mosul Arbil region,36.31,42.43,---,---,"Merpert et al. 1976, Munchaev et al. 1981, Bernbeck 1994","3015"
LE-1086,---,"7150","90",0,Iraq,Yarim Tepe I,"-",n.d.,---,niv. 7,niv. 7,---,---,PN, 6040 +- 100,6240 - 5840,05.01 Mosul Arbil region,36.31,42.43,---,---,"Merpert et al. 1976, Munchaev et al. 1981, Bernbeck 1994","3016"
LE-1173,---,"6110","110",0,Iraq,Yarim Tepe II,"-",n.d.,---,"niv. VI, -4,20 m","niv. VI, -4,20 m",---,Halaf,CH, 5050 +- 150,5350 - 4750,05.01 Mosul Arbil region,36.32,42.37,---,---,Munchaev et al. 1981,"3022"
LE-1015,---,"6160","130",0,Iraq,Yarim Tepe II,"-",n.d.,---,"niv. III, -1,70 � -1,90 m","niv. III, -1,70 � -1,90 m",---,Halaf,CH, 5100 +- 160,5420 - 4780,05.01 Mosul Arbil region,36.32,42.37,---,---,"Merpert et al. 1981, Bernbeck 1994","3018"
LE-1212,---,"6400","120",0,Iraq,Yarim Tepe II,"-",n.d.,---,"niv. VII, -4,85 � -5,20 m","niv. VII, -4,85 � -5,20 m",---,Halaf,CH, 5360 +- 120,5600 - 5120,05.01 Mosul Arbil region,36.32,42.37,Banadora: date correct?,---,Munchaev et al. 1981,"3020"
LE-1172,---,"6430","80",0,Iraq,Yarim Tepe II,"-",n.d.,---,"niv. VI, -4,40 Xa -4,60 m","niv. VI, -4,40 Xa -4,60 m",---,Halaf,CH, 5400 +- 70,5540 - 5260,05.01 Mosul Arbil region,36.32,42.37,---,---,Munchaev et al. 1981,"3023"
LE-1174,---,"6440","80",0,Iraq,Yarim Tepe II,"-",n.d.,---,"niv. VI, -4,70 m","niv. VI, -4,70 m",---,Halaf,CH, 5410 +- 70,5550 - 5270,05.01 Mosul Arbil region,36.32,42.37,---,---,Munchaev et al. 1981,"3024"
LE-1211,---,"6500","100",0,Iraq,Yarim Tepe II,"-",n.d.,---,"niv. VI, -4,30 m","niv. VI, -4,30 m",---,Halaf,CH, 5460 +- 90,5640 - 5280,05.01 Mosul Arbil region,36.32,42.37,---,---,Munchaev et al. 1981,"3019"
SOAN-1291,---,"6660","40",0,Iraq,Yarim Tepe II,"-",n.d.,---,"niv. VIII, -5,30 � 5,50 m","niv. VIII, -5,30 � 5,50 m",---,Halaf,CH, 5590 +- 40,5670 - 5510,05.01 Mosul Arbil region,36.32,42.37,---,---,Munchaev et al. 1981,"3025"
LE-1011,---,"6790","180",0,Iraq,Yarim Tepe II,"-",n.d.,---,"niv. Viii, entre -5,40 et -5,85 m","niv. Viii, entre -5,40 et -5,85 m",---,Halaf,CH, 5720 +- 160,6040 - 5400,05.01 Mosul Arbil region,36.32,42.37,Banadora: date correct?,---,"Munchaev et al. 1981, Bernbeck 1994","3017"
LE-1012,---,"7170","180",0,Iraq,Yarim Tepe II,"-",n.d.,---,"niv. III, -1,50 m","niv. III, -1,50 m",---,Halaf,CH, 6050 +- 180,6410 - 5690,05.01 Mosul Arbil region,36.32,42.37,---,---,Munchaev et al. 1981,"3021"
W-667,---,"10600","300",0,Iraq,Zawi Chemi Shanidar,"-",charcoal,---,zone B1,zone B1,---,Zarzian,EP, 10420 +- 420,11260 - 9580,05.01 Mosul Arbil region,36.8,44.22,---,Solecki 1963: Proto-Neolithic,"Rubin and Alexander 1960, Solecki, R.S. 1963, Hole 1987, Koz?owski 1994a","2559"
W-681,---,"10800","300",0,Iraq,Zawi Chemi Shanidar,"-",charcoal,---,n� 455,n� 455,---,Zarzian,EP, 10670 +- 380,11430 - 9910,05.01 Mosul Arbil region,36.8,44.22,---,"corrected from 10870 +- 300 BP; Banadora: preceramique, (niveau sans hache) = base","Rubin and Alexander 1960, Hole 1987, Koz?owski 1994a","3066"
W-179,---,"12400","400",0,Iraq,Zawi Chemi Shanidar,"-",charcoal,---,zone B2,zone B2,---,Zarzian,EP, 12570 +- 540,13650 - 11490,05.01 Mosul Arbil region,36.8,44.22,---,---,"Hole and Flannery 1967, Hole 1987, Koz?owski 1994a","2558"
Beta-536,---,"6160","70",0,Syria,Aqab,"-",n.d.,---,---,---,---,---,PN, 5110 +- 100,5310 - 4910,03.03 Khabur region,37.08,40.82,---,---,Watkins and Campbell 1987,"273"
GrN-10589,---,"7465","45",0,Syria,Bouqras,"-",n.d.,---,lev. 3-4,lev. 3-4,---,PPNB,ACN, 6340 +- 60,6460 - 6220,03.04 Deir-es-Zor Mari region,35.03,40.39,---,---,Bernbeck 1994,"530"
GrN-13079,---,"7485","50",0,Syria,Bouqras,"-",n.d.,---,lev. 3-4,lev. 3-4,---,PPNB,ACN, 6350 +- 70,6490 - 6210,03.04 Deir-es-Zor Mari region,35.03,40.39,---,---,Bernbeck 1994,"534"
GrN-13081,---,"7520","50",0,Syria,Bouqras,"-",n.d.,---,lev. 3-4,lev. 3-4,---,PPNB,ACN, 6370 +- 70,6510 - 6230,03.04 Deir-es-Zor Mari region,35.03,40.39,---,---,Bernbeck 1994,"536"
GrN-13082,---,"7530","50",0,Syria,Bouqras,"-",n.d.,---,lev. 3-4,lev. 3-4,---,PPNB,ACN, 6380 +- 70,6520 - 6240,03.04 Deir-es-Zor Mari region,35.03,40.39,---,---,Bernbeck 1994,"537"
GrN-4820,---,"7840","60",0,Syria,Bouqras,"-",charcoal,---,lev. 2,lev. 2,---,PPNB,ACN, 6730 +- 110,6950 - 6510,03.04 Deir-es-Zor Mari region,35.03,40.39,---,"Banadora: niv. II, Neolithique ceramique qui rapelle Catel H�y�k ancien et la Syrie du Nord","Vogel and Waterbolk 1967, Bernbeck 1994","547"
GrN-8264,---,"7860","40",0,Syria,Bouqras,"-",n.d.,---,lev. 2,lev. 2,---,PPNB,ACN, 6730 +- 80,6890 - 6570,03.04 Deir-es-Zor Mari region,35.03,40.39,---,Banadora: rafa�chessement des coupes des sondages de Contenson,"Akkermans et al. 1981, Bernbeck 1994","555"
GrN-13090,---,"7880","60",0,Syria,Bouqras,"-",n.d.,---,lev. 3-4,lev. 3-4,---,PPNB,ACN, 6810 +- 130,7070 - 6550,03.04 Deir-es-Zor Mari region,35.03,40.39,---,---,Bernbeck 1994,"538"
GrN-8260,---,"7905","45",0,Syria,Bouqras,"-",n.d.,---,lev. 5,lev. 5,---,PPNB,ACN, 6830 +- 130,7090 - 6570,03.04 Deir-es-Zor Mari region,35.03,40.39,---,Banadora: rafa�chissement des coupes des sondages de Contenson,"Akkermans et al. 1981, Bernbeck 1994","551"
GrN-8259,---,"7925","40",0,Syria,Bouqras,"-",n.d.,---,lev. 5,lev. 5,---,PPNB,ACN, 6850 +- 130,7110 - 6590,03.04 Deir-es-Zor Mari region,35.03,40.39,---,Banadora: rafa�chissement des coupes des sondages de Contenson,"Akkermans et al. 1981, Bernbeck 1994","550"
GrN-10591,---,"7945","50",0,Syria,Bouqras,"-",n.d.,---,lev. 3-4,lev. 3-4,---,PPNB,ACN, 6860 +- 120,7100 - 6620,03.04 Deir-es-Zor Mari region,35.03,40.39,---,---,Bernbeck 1994,"532"
GrN-4819,---,"7960","55",0,Syria,Bouqras,"-",charcoal,---,lev. 4,lev. 4,---,PPNB,ACN, 6870 +- 120,7110 - 6630,03.04 Deir-es-Zor Mari region,35.03,40.39,---,Banadora: niv. II,"Vogel and Waterbolk 1967, Bernbeck 1994","546"
GrN-13099,---,"8025","50",0,Syria,Bouqras,"-",n.d.,---,lev. 3,lev. 3,---,PPNB,ACN, 6940 +- 110,7160 - 6720,03.04 Deir-es-Zor Mari region,35.03,40.39,---,---,Bernbeck 1994,"539"
GrN-13100,---,"8080","50",0,Syria,Bouqras,"-",n.d.,---,lev. 3,lev. 3,---,PPNB,ACN, 7020 +- 120,7260 - 6780,03.04 Deir-es-Zor Mari region,35.03,40.39,---,---,Bernbeck 1994,"540"
GrN-10592,---,"8110","50",0,Syria,Bouqras,"-",n.d.,---,lev. 10,lev. 10,---,PPNB,ACN, 7120 +- 80,7280 - 6960,03.04 Deir-es-Zor Mari region,35.03,40.39,---,---,Bernbeck 1994,"533"
GrN-8258,---,"8115","40",0,Syria,Bouqras,"-",n.d.,---,lev. 4,lev. 4,---,PPNB,ACN, 7120 +- 60,7240 - 7000,03.04 Deir-es-Zor Mari region,35.03,40.39,---,Banadora: rafa�chissement des coupes des sondages de Contenson,"Akkermans et al. 1981, Bernbeck 1994","549"
GrN-4818,---,"8140","60",0,Syria,Bouqras,"-",charcoal,---,lev. 10,lev. 10,---,PPNB,ACN, 7170 +- 100,7370 - 6970,03.04 Deir-es-Zor Mari region,35.03,40.39,---,Banadora: niv. I (base),"Vogel and Waterbolk 1967, Bernbeck 1994","545"
GrN-8261,---,"8155","45",0,Syria,Bouqras,"-",n.d.,---,lev. 4,lev. 4,---,PPNB,ACN, 7180 +- 90,7360 - 7000,03.04 Deir-es-Zor Mari region,35.03,40.39,---,"Banadora: rafa�chissement des coupes des sondages de Contenson; 2.4 mbs","Akkermans et al. 1981, Bernbeck 1994","552"
GrN-13101,---,"8230","35",0,Syria,Bouqras,"-",n.d.,---,lev. 7,lev. 7,---,PPNB,ACN, 7250 +- 80,7410 - 7090,03.04 Deir-es-Zor Mari region,35.03,40.39,---,---,Bernbeck 1994,"541"
GrN-4852,---,"8240","100",0,Syria,Bouqras,"-",charcoal,---,layer I (lev. 8?),layer I (lev. 8?),---,PPNB,ACN, 7280 +- 150,7580 - 6980,03.04 Deir-es-Zor Mari region,35.03,40.39,---,Banadora: niv. I (sommet),"Vogel and Waterbolk 1967, Bernbeck 1994","548"
GrN-13103,---,"8285","50",0,Syria,Bouqras,"-",n.d.,---,lev. 9,lev. 9,---,PPNB,ACN, 7330 +- 110,7550 - 7110,03.04 Deir-es-Zor Mari region,35.03,40.39,---,---,Bernbeck 1994,"543"
GrN-13104,---,"8300","50",0,Syria,Bouqras,"-",n.d.,---,lev. 9,lev. 9,---,PPNB,ACN, 7350 +- 110,7570 - 7130,03.04 Deir-es-Zor Mari region,35.03,40.39,---,---,Bernbeck 1994,"544"
GrN-8263,---,"8330","80",0,Syria,Bouqras,"-",n.d.,---,lev. 11,lev. 11,---,PPNB,ACN, 7360 +- 120,7600 - 7120,03.04 Deir-es-Zor Mari region,35.03,40.39,---,Banadora: rafa�chissement des coupes des sondages de Contenson,"Akkermans et al. 1981, Bernbeck 1994","554"
GrN-13102,---,"8345","35",0,Syria,Bouqras,"-",n.d.,---,lev. 8,lev. 8,---,PPNB,ACN, 7420 +- 70,7560 - 7280,03.04 Deir-es-Zor Mari region,35.03,40.39,---,---,Bernbeck 1994,"542"
GrN-13080,---,"8365","50",0,Syria,Bouqras,"-",n.d.,---,lev. 3-4,lev. 3-4,---,PPNB,ACN, 7430 +- 70,7570 - 7290,03.04 Deir-es-Zor Mari region,35.03,40.39,---,---,Bernbeck 1994,"535"
GrN-8262,---,"8380","45",0,Syria,Bouqras,"-",charcoal,---,lev. 9,lev. 9,---,PPNB,ACN, 7450 +- 70,7590 - 7310,03.04 Deir-es-Zor Mari region,35.03,40.39,---,Banadora: rafa�chissement des coupes des sondages de Contenson,"Akkermans et al. 1981, Bernbeck 1994","553"
GrN-10590,---,"12230","190",0,Syria,Bouqras,"-",n.d.,---,lev. 3-4,lev. 3-4,---,PPNB,ACN, 12330 +- 330,12990 - 11670,03.04 Deir-es-Zor Mari region,35.03,40.39,---,---,Bernbeck 1994,"531"
P-1487,---,"6665","77",0,Syria,Chagar Bazar,"-",soil,ash,"niv. 11-12, phase Halaf","niv. 11-12, phase Halaf",---,Halaf,CH, 5590 +- 60,5710 - 5470,03.03 Khabur region,36.88,40.93,---,Banadora: pre-traitement � la soude (NaOH),"Lawn 1973, Bernbeck 1994, Chataigner 1995","718"
GrN-2660,---,"7570","35",0,Syria,Halaf,"-",charcoal,---,"transition ""Altmonochrome"" / Halaf","transition ""Altmonochrome"" / Halaf",---,"Chalc., Middle",CH, 6440 +- 30,6500 - 6380,03.03 Khabur region,36.81,40.06,---,"Banadora: debut de l'epoque Halaf, cf. Chagar Bazar; Banadora: tranche avec contexte de ceramique Halaf, pr�s de la transition avec la Altmonochrom","Vogel and Waterbolk 1964, Bernbeck 1994, Chataigner 1995","1233"
TK-802,---,"6290","220",0,Syria,Kashkashok II,"-",n.d.,---,level 4 (foyer Pa),level 4 (foyer Pa),---,---,PN, 5200 +- 240,5680 - 4720,03.03 Khabur region,36.71,40.59,---,---,Matsutani 1991,"1645"
TK-860,---,"7490","110",0,Syria,Kashkashok II,"-",n.d.,---,level 3,level 3,---,---,PN, 6340 +- 100,6540 - 6140,03.03 Khabur region,36.71,40.59,---,Banadora: les dates sont inversees par rapport � la stratigraphie,"Matsutani 1991, Bernbeck 1994","1644"
TK-803,---,"7730","90",0,Syria,Kashkashok II,"-",n.d.,---,level 3,level 3,---,---,PN, 6580 +- 90,6760 - 6400,03.03 Khabur region,36.71,40.59,---,---,"Matsutani 1991, Bernbeck 1994","1642"
TK-859,---,"7880","110",0,Syria,Kashkashok II,"-",n.d.,---,level 3,level 3,---,---,PN, 6800 +- 170,7140 - 6460,03.03 Khabur region,36.71,40.59,---,---,"Matsutani 1991, Bernbeck 1994","1643"
UM-1817,---,"6584","100",0,Syria,Leilan,"-",wood,grain and wood,"Perid VI, Stratum 58 (Late Northern Ubaid)","Perid VI, Stratum 58 (Late Northern Ubaid)",---,Obeid,CH, 5530 +- 80,5690 - 5370,03.03 Khabur region,36.89,41.38,---,---,Weiss 2000,"1827"
GrN-9831,---,"8170","100",0,Syria,Sinn,"-",n.d.,---,level XIII,level XIII,---,---,ACN, 7200 +- 140,7480 - 6920,03.04 Deir-es-Zor Mari region,35.28,40.36,---,---,Roodenberg 1979,"2732"
GrN-9832,---,"8280","40",0,Syria,Sinn,"-",n.d.,---,level XIV,level XIV,---,---,ACN, 7330 +- 110,7550 - 7110,03.04 Deir-es-Zor Mari region,35.28,40.36,---,---,Roodenberg 1979,"2731"
GrN-9833,---,"8650","50",0,Syria,Sinn,"-",n.d.,---,level XIV,level XIV,---,---,ACN, 7690 +- 70,7830 - 7550,03.04 Deir-es-Zor Mari region,35.28,40.36,---,Banadora: date rejetee par le physicien (echantillon trop petit) et par le fouilleur (trop ancienne),Roodenberg 1979,"2733"
BETA-66850,---,"9510","200",0,Turkey,Hallan Cemi,"-",charcoal,---,---,---,---,PPNA,EP, 8870 +- 280,9430 - 8310,04.03 Upper Tigris basin,38.23,41.25,---,---,"Rosenberg et al. 1995, Thissen 2002a","1247"
BETA-66852,---,"9600","180",0,Turkey,Hallan Cemi,"-",charcoal,---,---,---,---,Hallan Cemi,EP, 8970 +- 250,9470 - 8470,04.03 Upper Tigris basin,38.23,41.25,or STD +- 200?,---,"Rosenberg et al. 1995, Thissen 2002a","1248"
BETA-47253,---,"9730","300",0,Turkey,Hallan Cemi,"-",charcoal,---,---,---,---,Hallan Cemi,EP, 9250 +- 490,10230 - 8270,04.03 Upper Tigris basin,38.23,41.25,---,Rosenberg 1994a: small carbon sample,"Rosenberg and Davis 1992, Kuijt and Bar-Yosef 1994, Rosenberg 1994a, Thissen 2002a","1241"
BETA-55050,---,"9840","50",0,Turkey,Hallan Cemi,"-",charcoal,---,---,---,---,Hallan Cemi,EP, 9330 +- 70,9470 - 9190,04.03 Upper Tigris basin,38.23,41.25,---,---,"Rosenberg 1994a, Bar-Yosef and Gopher 1997c, Thissen 2002a","1243"
BETA-66856,---,"9870","110",0,Turkey,Hallan Cemi,"-",charcoal,---,---,---,---,Hallan Cemi,EP, 9450 +- 190,9830 - 9070,04.03 Upper Tigris basin,38.23,41.25,---,---,"Rosenberg et al. 1995, Thissen 2002a","1251"
BETA-67463,---,"9890","90",0,Turkey,Hallan Cemi,"-",charcoal,---,---,---,---,Hallan Cemi,EP, 9460 +- 170,9800 - 9120,04.03 Upper Tigris basin,38.23,41.25,---,---,"Rosenberg et al. 1995, Thissen 2002a","1254"
BETA-66854,---,"9930","110",0,Turkey,Hallan Cemi,"-",charcoal,---,---,---,---,Hallan Cemi,EP, 9530 +- 200,9930 - 9130,04.03 Upper Tigris basin,38.23,41.25,---,---,"Rosenberg et al. 1995, Thissen 2002a","1249"
BETA-67464,---,"10000","80",0,Turkey,Hallan Cemi,"-",charcoal,---,---,---,---,Hallan Cemi,EP, 9580 +- 190,9960 - 9200,04.03 Upper Tigris basin,38.23,41.25,---,---,"Rosenberg et al. 1995, Thissen 2002a","1255"
BETA-46647,---,"10040","160",0,Turkey,Hallan Cemi,"-",charcoal,---,"lower level (""architectural level""), below house floor","lower level (""architectural level""), below house floor",---,Hallan Cemi,EP, 9700 +- 290,10280 - 9120,04.03 Upper Tigris basin,38.23,41.25,---,---,"Rosenberg and Davis 1992, Kuijt and Bar-Yosef 1994, Rosenberg 1994a, Thissen 2002a","1237"
BETA-55049,---,"10050","80",0,Turkey,Hallan Cemi,"-",charcoal,---,---,---,---,Hallan Cemi,EP, 9660 +- 200,10060 - 9260,04.03 Upper Tigris basin,38.23,41.25,---,---,"Rosenberg 1994a, Bar-Yosef and Gopher 1997c, Thissen 2002a","1242"
BETA-47211,---,"10060","120",0,Turkey,Hallan Cemi,"-",charcoal,---,---,---,---,Hallan Cemi,EP, 9700 +- 260,10220 - 9180,04.03 Upper Tigris basin,38.23,41.25,---,---,"Rosenberg and Davis 1992, Kuijt and Bar-Yosef 1994, Rosenberg 1994a, Thissen 2002a","1239"
BETA-66855,---,"10060","90",0,Turkey,Hallan Cemi,"-",charcoal,---,---,---,---,Hallan Cemi,EP, 9680 +- 220,10120 - 9240,04.03 Upper Tigris basin,38.23,41.25,---,---,"Rosenberg et al. 1995, Thissen 2002a","1250"
BETA-66858,---,"10320","110",0,Turkey,Hallan Cemi,"-",charcoal,---,---,---,---,Hallan Cemi,EP, 10200 +- 260,10720 - 9680,04.03 Upper Tigris basin,38.23,41.25,---,---,"Rosenberg et al. 1995, Thissen 2002a","1252"
BETA-55051,---,"10500","170",0,Turkey,Hallan Cemi,"-",charcoal,---,---,---,---,Hallan Cemi,EP, 10440 +- 280,11000 - 9880,04.03 Upper Tigris basin,38.23,41.25,---,---,"Rosenberg 1994a, Bar-Yosef and Gopher 1997c, Thissen 2002a","1244"
BETA-67462,---,"10520","190",0,Turkey,Hallan Cemi,"-",charcoal,---,---,---,---,Hallan Cemi,EP, 10450 +- 300,11050 - 9850,04.03 Upper Tigris basin,38.23,41.25,---,---,"Rosenberg et al. 1995, Thissen 2002a","1253"
BETA-55052,---,"10590","170",0,Turkey,Hallan Cemi,"-",charcoal,---,---,---,---,Hallan Cemi,EP, 10540 +- 260,11060 - 10020,04.03 Upper Tigris basin,38.23,41.25,---,---,"Rosenberg 1994a, Bar-Yosef and Gopher 1997c, Thissen 2002a","1245"
BETA-56102,---,"10590","260",0,Turkey,Hallan Cemi,"-",charcoal,---,---,---,---,Hallan Cemi,EP, 10450 +- 370,11190 - 9710,04.03 Upper Tigris basin,38.23,41.25,---,Rosenberg 1994a: small carbon sample (2 g),"Rosenberg 1994a, Bar-Yosef and Gopher 1997c, Thissen 2002a","1246"
BETA-46649,---,"10800","220",0,Turkey,Hallan Cemi,"-",charcoal,---,"upper level (""pit level"")","upper level (""pit level"")",---,Hallan Cemi,EP, 10740 +- 270,11280 - 10200,04.03 Upper Tigris basin,38.23,41.25,---,---,"Rosenberg and Davis 1992, Kuijt and Bar-Yosef 1994, Rosenberg 1994a, Thissen 2002a","1238"
BETA-47252,---,"11700","460",0,Turkey,Hallan Cemi,"-",charcoal,---,"lower level (""architectural level"")","lower level (""architectural level"")",---,Hallan Cemi,EP, 11780 +- 530,12840 - 10720,04.03 Upper Tigris basin,38.23,41.25,---,Rosenberg 1994a: small carbon sample,"Rosenberg and Davis 1992, Kuijt and Bar-Yosef 1994, Rosenberg 1994a, Thissen 2002a","1240"
