"LabID","CRA","Error","Material","Species","SiteName","Country","Longitude","Latitude","Region"
"AA-1164",9100,140,"charcoal","Pisum","'Ain Ghazal","JO",35.976,31.988,"1"
"AA-1167",8570,180,"charcoal",,"'Ain Ghazal","JO",35.976,31.988,"1"
"AA-25037",8775,75,"charcoal",,"'Ain Ghazal","JO",35.976,31.988,"1"
"AA-25424",8030,65,"charcoal/mortar",,"'Ain Ghazal","JO",35.976,31.988,"1"
"AA-25425",8080,65,"charcoal",,"'Ain Ghazal","JO",35.976,31.988,"1"
"AA-25426",8205,65,"charcoal",,"'Ain Ghazal","JO",35.976,31.988,"1"
"AA-25427",7910,60,"charcoal",,"'Ain Ghazal","JO",35.976,31.988,"1"
"AA-25428",7910,60,"charcoal",,"'Ain Ghazal","JO",35.976,31.988,"1"
"AA-25429",7980,55,"seeds (charred)","Lens","'Ain Ghazal","JO",35.976,31.988,"1"
"AA-5196",7670,100,"charcoal",,"'Ain Ghazal","JO",35.976,31.988,"1"
"AA-5197",8090,75,"charcoal",,"'Ain Ghazal","JO",35.976,31.988,"1"
"AA-5198",7960,75,"charcoal",,"'Ain Ghazal","JO",35.976,31.988,"1"
"AA-5199",8270,75,"charcoal",,"'Ain Ghazal","JO",35.976,31.988,"1"
"AA-5200",8780,70,"charcoal",,"'Ain Ghazal","JO",35.976,31.988,"1"
"AA-5201",8235,70,"wood",,"'Ain Ghazal","JO",35.976,31.988,"1"
"AA-5202",8310,70,"wood",,"'Ain Ghazal","JO",35.976,31.988,"1"
"AA-5203",8200,75,"wood",,"'Ain Ghazal","JO",35.976,31.988,"1"
"AA-5205",7895,95,"charcoal",,"'Ain Ghazal","JO",35.976,31.988,"1"
"AA-5206",7990,80,"seeds (charred)","Pisum","'Ain Ghazal","JO",35.976,31.988,"1"
"AA-98396",7975,56,"charcoal",,"'Ain Ghazal","JO",35.976,31.988,"1"
"Beta-19906",8970,150,"charcoal",,"'Ain Ghazal","JO",35.976,31.988,"1"
"Beta-19907",8520,110,"charcoal",,"'Ain Ghazal","JO",35.976,31.988,"1"
"Erl-14758",8004,38,"charcoal",,"'Ain Ghazal","JO",35.976,31.988,"1"
"Erl-14762",7921,40,"charcoal",,"'Ain Ghazal","JO",35.976,31.988,"1"
"Erl-14763",7955,40,"charcoal",,"'Ain Ghazal","JO",35.976,31.988,"1"
"Erl-14764",8004,40,"charcoal",,"'Ain Ghazal","JO",35.976,31.988,"1"
"Erl-14765",8723,38,"charcoal",,"'Ain Ghazal","JO",35.976,31.988,"1"
"Erl-14768",8554,39,"bone","Bos","'Ain Ghazal","JO",35.976,31.988,"1"
"Erl-14769",8796,40,"charcoal",,"'Ain Ghazal","JO",35.976,31.988,"1"
"GrN-12959",9000,90,"charcoal",,"'Ain Ghazal","JO",35.976,31.988,"1"
"GrN-12960",9030,80,"charcoal",,"'Ain Ghazal","JO",35.976,31.988,"1"
"GrN-12961",8930,60,"charcoal",,"'Ain Ghazal","JO",35.976,31.988,"1"
"GrN-12962",8680,190,"charcoal",,"'Ain Ghazal","JO",35.976,31.988,"1"
"GrN-12963",8970,80,"charcoal",,"'Ain Ghazal","JO",35.976,31.988,"1"
"GrN-12964",8970,80,"charcoal",,"'Ain Ghazal","JO",35.976,31.988,"1"
"GrN-12965",9050,80,"charcoal",,"'Ain Ghazal","JO",35.976,31.988,"1"
"GrN-12966",9200,110,"charcoal",,"'Ain Ghazal","JO",35.976,31.988,"1"
"GrN-12967",8930,80,"charcoal",,"'Ain Ghazal","JO",35.976,31.988,"1"
"GrN-12968",8970,110,"charcoal",,"'Ain Ghazal","JO",35.976,31.988,"1"
"GrN-12969",8810,80,"charcoal",,"'Ain Ghazal","JO",35.976,31.988,"1"
"GrN-12970",8650,200,"charcoal",,"'Ain Ghazal","JO",35.976,31.988,"1"
"GrN-12971",8460,90,"charcoal",,"'Ain Ghazal","JO",35.976,31.988,"1"
"GrN-12972",8165,50,"charcoal",,"'Ain Ghazal","JO",35.976,31.988,"1"
"GrN-14257",8720,80,"charcoal",,"'Ain Ghazal","JO",35.976,31.988,"1"
"GrN-14258",8810,160,"seed (charred)","Pisum","'Ain Ghazal","JO",35.976,31.988,"1"
"GrN-17494",7825,65,"charcoal",,"'Ain Ghazal","JO",35.976,31.988,"1"
"GrN-17495",7915,95,"charcoal",,"'Ain Ghazal","JO",35.976,31.988,"1"
"KN-4877",8208,77,"charcoal",,"'Ain Ghazal","JO",35.976,31.988,"1"
"KN-4878",8253,76,"charcoal",,"'Ain Ghazal","JO",35.976,31.988,"1"
"KN-4879",7952,77,"charcoal",,"'Ain Ghazal","JO",35.976,31.988,"1"
"KN-4880",7726,73,"seeds (charred)","Lens","'Ain Ghazal","JO",35.976,31.988,"1"
"KN-4881",7880,82,"seeds (charred)","Lens","'Ain Ghazal","JO",35.976,31.988,"1"
"KN-4882",7809,74,"seeds (charred)","Lens","'Ain Ghazal","JO",35.976,31.988,"1"
"KN-4883",8230,76,"charcoal",,"'Ain Ghazal","JO",35.976,31.988,"1"
"KN-4884",7857,74,"seeds (charred)","Lens","'Ain Ghazal","JO",35.976,31.988,"1"
"KN-4885",7939,87,"charcoal",,"'Ain Ghazal","JO",35.976,31.988,"1"
"KN-5054",8236,81,"charcoal",,"'Ain Ghazal","JO",35.976,31.988,"1"
"KN-5055",8162,62,"charcoal",,"'Ain Ghazal","JO",35.976,31.988,"1"
"KN-5056",8083,47,"charcoal",,"'Ain Ghazal","JO",35.976,31.988,"1"
"KN-5188",8515,50,"charcoal",,"'Ain Ghazal","JO",35.976,31.988,"1"
"OxA-1472",8660,80,"charcoal",,"'Ain Ghazal","JO",35.976,31.988,"1"
"OxA-1473",8700,80,"charcoal",,"'Ain Ghazal","JO",35.976,31.988,"1"
"OxA-1742",8660,80,"charcoal",,"'Ain Ghazal","JO",35.976,31.988,"1"
"OxA-1743",8700,80,"charcoal",,"'Ain Ghazal","JO",35.976,31.988,"1"
,8750,80,"charcoal",,"'Ain Ghazal","JO",35.976,31.988,"1"
,8750,80,"charcoal",,"'Ain Ghazal","JO",35.976,31.988,"1"
"Beta-56560",8030,120,,,"'Ain Jammam","JO",35.4686,30.0203,"1"
"Beta-56561",8520,190,,,"'Ain Jammam","JO",35.4686,30.0203,"1"
"RT-2453",8895,60,"charcoal","Crataegus","Abu Gosh","IL",35.1083,31.8054,"1"
"BM-1120",8666,66,"charcoal",,"Abu Hureyra","SY",38.3933,35.8683,"2"
"BM-1121",10792,82,"charcoal",,"Abu Hureyra","SY",38.3933,35.8683,"2"
"BM-1122",9374,72,"charcoal",,"Abu Hureyra","SY",38.3933,35.8683,"2"
"BM-1423",8676,72,"charcoal",,"Abu Hureyra","SY",38.3933,35.8683,"2"
"BM-1424",8190,77,"charcoal",,"Abu Hureyra","SY",38.3933,35.8683,"2"
"BM-1425",8393,72,"charcoal",,"Abu Hureyra","SY",38.3933,35.8683,"2"
"BM-1718R",11140,140,"charcoal",,"Abu Hureyra","SY",38.3933,35.8683,"2"
"BM-1719R",9100,100,"charcoal",,"Abu Hureyra","SY",38.3933,35.8683,"2"
"BM-1721R",8490,110,"charcoal",,"Abu Hureyra","SY",38.3933,35.8683,"2"
"BM-1722R",8640,100,"charcoal",,"Abu Hureyra","SY",38.3933,35.8683,"2"
"BM-1724R",8020,100,"charcoal",,"Abu Hureyra","SY",38.3933,35.8683,"2"
"OxA-1190",8500,120,"grain (charred)","Triticum monococcum,Triticum dicoccum","Abu Hureyra","SY",38.3933,35.8683,"2"
"OxA-1227",8320,80,"charcoal (twig)",,"Abu Hureyra","SY",38.3933,35.8683,"2"
"OxA-1228",9680,90,"charcoal (twig)",,"Abu Hureyra","SY",38.3933,35.8683,"2"
"OxA-170",10600,200,"grain (charred)","Triticum boeoticum/monococcum","Abu Hureyra","SY",38.3933,35.8683,"2"
"OxA-171",10600,200,"grain (charred)","Triticum boeoticum/monococcum","Abu Hureyra","SY",38.3933,35.8683,"2"
"OxA-172",10900,200,"grain (charred)","Triticum boeoticum/monococcum","Abu Hureyra","SY",38.3933,35.8683,"2"
"OxA-17225",8066,39,"grain (charred)","Triticum durum","Abu Hureyra","SY",38.3933,35.8683,"2"
"OxA-17226",8175,40,"grain (charred)","Triticum aestivum","Abu Hureyra","SY",38.3933,35.8683,"2"
"OxA-1930",8180,100,"grain (charred)","Secale montanum/Secale vavilovii/Triticum boeoticum","Abu Hureyra","SY",38.3933,35.8683,"2"
"OxA-1931",7890,90,"grain (charred)","Triticum","Abu Hureyra","SY",38.3933,35.8683,"2"
"OxA-2167",8270,100,"grain (charred)","Hordeum vulgare","Abu Hureyra","SY",38.3933,35.8683,"2"
"OxA-2168",8330,100,"charcoal (twig)",,"Abu Hureyra","SY",38.3933,35.8683,"2"
"OxA-2169",8640,110,"grain (charred)","Triticum monococcum,Hordeum vulgare","Abu Hureyra","SY",38.3933,35.8683,"2"
"OxA-386",10800,160,"grain (charred)","Triticum boeoticum/monococcum","Abu Hureyra","SY",38.3933,35.8683,"2"
"OxA-387",11070,160,"bone (charred)","Bos","Abu Hureyra","SY",38.3933,35.8683,"2"
"OxA-397",10420,140,"grain (charred)","Triticum boeoticum/monococcum","Abu Hureyra","SY",38.3933,35.8683,"2"
"OxA-407",10050,180,"bone (charred)","Ovis orientalis","Abu Hureyra","SY",38.3933,35.8683,"2"
"OxA-408",10250,160,"bone","Ovis orientalis","Abu Hureyra","SY",38.3933,35.8683,"2"
"OxA-430",11020,150,"bone","Gazella","Abu Hureyra","SY",38.3933,35.8683,"2"
"OxA-431",10680,150,"bone","Gazella","Abu Hureyra","SY",38.3933,35.8683,"2"
"OxA-432",9540,170,"bone (charred)","Gazella","Abu Hureyra","SY",38.3933,35.8683,"2"
"OxA-433",9840,200,"humic acid",,"Abu Hureyra","SY",38.3933,35.8683,"2"
"OxA-434",10490,150,"bone (charred)","Gazella","Abu Hureyra","SY",38.3933,35.8683,"2"
"OxA-435",10450,180,"bone","Gazella","Abu Hureyra","SY",38.3933,35.8683,"2"
"OxA-4660",8180,200,"bone","Homo sapiens","Abu Hureyra","SY",38.3933,35.8683,"2"
"OxA-468",11090,150,"bone (charred)","Bos","Abu Hureyra","SY",38.3933,35.8683,"2"
"OxA-469",10920,140,"bone (humic)","Bos","Abu Hureyra","SY",38.3933,35.8683,"2"
"OxA-470",10820,160,"bone (humic)","Bos","Abu Hureyra","SY",38.3933,35.8683,"2"
"OxA-471",10620,150,"bone (humic)","Ovis orientalis","Abu Hureyra","SY",38.3933,35.8683,"2"
"OxA-472",10750,170,"bone (humic)","Ovis orientalis","Abu Hureyra","SY",38.3933,35.8683,"2"
"OxA-473",10000,170,"bone (charred)","Ovis orientalis","Abu Hureyra","SY",38.3933,35.8683,"2"
"OxA-474",10930,150,"bone (humic)","Ovis orientalis","Abu Hureyra","SY",38.3933,35.8683,"2"
"OxA-475",9060,140,"bone (humic)","Gazella","Abu Hureyra","SY",38.3933,35.8683,"2"
"OxA-476",9600,200,"bone","Gazella","Abu Hureyra","SY",38.3933,35.8683,"2"
"OxA-5842",8260,75,"grain (charred)","Triticum aestivum/spelta","Abu Hureyra","SY",38.3933,35.8683,"2"
"OxA-5843",8275,65,"grain (charred)","Secale cereale","Abu Hureyra","SY",38.3933,35.8683,"2"
"OxA-6336",8140,90,"grain (charred)","Triticum monococcum","Abu Hureyra","SY",38.3933,35.8683,"2"
"OxA-6417",8170,90,"grain (charred)","Triticum monococcum","Abu Hureyra","SY",38.3933,35.8683,"2"
"OxA-6418",8115,80,"grain (charred)","Hordeum vulgare","Abu Hureyra","SY",38.3933,35.8683,"2"
"OxA-6419",8230,80,"grain (charred)","Triticum dicoccum/durum","Abu Hureyra","SY",38.3933,35.8683,"2"
"OxA-6685",10930,120,"grain (charred)","Secale cereale","Abu Hureyra","SY",38.3933,35.8683,"2"
"OxA-7122",8290,75,"grain (charred)","Triticum monococcum","Abu Hureyra","SY",38.3933,35.8683,"2"
"OxA-8718",11140,100,"grain","Secale cereale","Abu Hureyra","SY",38.3933,35.8683,"2"
"OxA-8719",10610,100,"grain (charred)","Secale cereale","Abu Hureyra","SY",38.3933,35.8683,"2"
"OxA-876",8500,90,"bone (charred)","Equus asinus","Abu Hureyra","SY",38.3933,35.8683,"2"
"OxA-877",8300,150,"bone (charred)","Ovis/Capra","Abu Hureyra","SY",38.3933,35.8683,"2"
"OxA-878",8490,110,"bone (charred)","Equus asinus","Abu Hureyra","SY",38.3933,35.8683,"2"
"OxA-879",8570,130,"bone (charred)","Equus asinus","Abu Hureyra","SY",38.3933,35.8683,"2"
"OxA-880",14920,180,,,"Abu Hureyra","SY",38.3933,35.8683,"2"
"OxA-881",8870,100,"bone (charred)","Ovis/Capra","Abu Hureyra","SY",38.3933,35.8683,"2"
"Pta-2699",10110,100,"charcoal",,"Abu Madi 1","EG",33.99,28.55,"1"
"Pta-3635",8640,120,"charcoal",,"Abu Madi 1","EG",33.99,28.55,"1"
"Pta-4551",9790,100,"charcoal",,"Abu Madi 1","EG",33.99,28.55,"1"
"Pta-4552",9920,80,"charcoal",,"Abu Madi 1","EG",33.99,28.55,"1"
"Pta-4568",9970,120,"charcoal",,"Abu Madi 1","EG",33.99,28.55,"1"
"Pta-4572",9790,100,"charcoal",,"Abu Madi 1","EG",33.99,28.55,"1"
"Pta-4577",9870,100,"charcoal",,"Abu Madi 1","EG",33.99,28.55,"1"
"Pta-4580",9800,80,"charcoal",,"Abu Madi 1","EG",33.99,28.55,"1"
,10110,100,"charcoal",,"Abu Madi 1","EG",33.99,28.55,"1"
"I-5498",9970,150,"charcoal",,"Abu Salem","IL",34.5531,30.5072,"1"
"I-5499",10230,150,"charcoal",,"Abu Salem","IL",34.5531,30.5072,"1"
"I-5500",10230,150,"charcoal",,"Abu Salem","IL",34.5531,30.5072,"1"
"Pta-3080",11660,90,"charcoal",,"Abu Salem","IL",34.5531,30.5072,"1"
"Pta-3286",10420,100,"charcoal",,"Abu Salem","IL",34.5531,30.5072,"1"
"Pta-3289",10300,100,"charcoal",,"Abu Salem","IL",34.5531,30.5072,"1"
"Pta-3290",10340,90,"charcoal",,"Abu Salem","IL",34.5531,30.5072,"1"
"Pta-3291",10140,80,"charcoal",,"Abu Salem","IL",34.5531,30.5072,"1"
"Pta-3292",10550,90,"charcoal",,"Abu Salem","IL",34.5531,30.5072,"1"
"Pta-3293",10420,100,"charcoal",,"Abu Salem","IL",34.5531,30.5072,"1"
"A-11802",8625,85,,,"Ain Abu Nukhayla","JO",35.4069,29.5486,"1"
"A-11803",8465,120,"wood",,"Ain Abu Nukhayla","JO",35.4069,29.5486,"1"
"A-11804",8565,55,"wood",,"Ain Abu Nukhayla","JO",35.4069,29.5486,"1"
"A-11805",8370,80,"wood",,"Ain Abu Nukhayla","JO",35.4069,29.5486,"1"
"A-11806",8610,95,"wood",,"Ain Abu Nukhayla","JO",35.4069,29.5486,"1"
"A-11807",8410,80,"wood",,"Ain Abu Nukhayla","JO",35.4069,29.5486,"1"
,8030,120,,,"Ain Jammam","JO",35.4686,30.0203,"1"
,8030,120,,,"Ain Jammam","JO",35.4686,30.0203,"1"
,8030,120,,,"Ain Jammam","JO",35.4686,30.0203,"1"
,8520,190,,,"Ain Jammam","JO",35.4686,30.0203,"1"
,8520,190,,,"Ain Jammam","JO",35.4686,30.0203,"1"
,8520,190,,,"Ain Jammam","JO",35.4686,30.0203,"1"
,8030,120,,,"Ain Jammam","JO",35.4686,30.0203,"1"
,8520,190,,,"Ain Jammam","JO",35.4686,30.0203,"1"
"GifA-100400",10540,90,"charcoal",,"Ain Mallaha","IL",35.5792,33.087,"1"
"GifA-70012",8740,40,"bone/charcoal",,"Ain Mallaha","IL",35.5792,33.087,"1"
"GifA-70013",10200,50,"bone/charcoal",,"Ain Mallaha","IL",35.5792,33.087,"1"
"GifA-70014",12250,60,"bone/charcoal",,"Ain Mallaha","IL",35.5792,33.087,"1"
"GifA-99332",10530,100,"charcoal",,"Ain Mallaha","IL",35.5792,33.087,"1"
"Beta-138548",8750,40,"charcoal",,"Akarçay Tepe","TR",38.0257,36.9191,"2"
"Beta-138583",8390,110,"charcoal",,"Akarçay Tepe","TR",38.0257,36.9191,"2"
"Beta-138584",8750,40,"charcoal",,"Akarçay Tepe","TR",38.0257,36.9191,"2"
"Beta-138586",7970,120,"charcoal",,"Akarçay Tepe","TR",38.0257,36.9191,"2"
"Beta-173036",8260,40,,,"Akarçay Tepe","TR",38.0257,36.9191,"2"
"Beta-174035",8560,40,,,"Akarçay Tepe","TR",38.0257,36.9191,"2"
"Beta-174036",8260,40,,,"Akarçay Tepe","TR",38.0257,36.9191,"2"
"Beta-174037",8310,130,,,"Akarçay Tepe","TR",38.0257,36.9191,"2"
"Beta-174038",7930,40,,,"Akarçay Tepe","TR",38.0257,36.9191,"2"
"Beta-174039",7860,40,,,"Akarçay Tepe","TR",38.0257,36.9191,"2"
"Beta-174040",7690,50,,,"Akarçay Tepe","TR",38.0257,36.9191,"2"
"Beta-174041",8300,40,,,"Akarçay Tepe","TR",38.0257,36.9191,"2"
"KIA-31913",8283,41,,,"Akarçay Tepe","TR",38.0257,36.9191,"2"
"KIA-31914",8205,35,,,"Akarçay Tepe","TR",38.0257,36.9191,"2"
"KIA-31915",8293,39,,,"Akarçay Tepe","TR",38.0257,36.9191,"2"
"KIA-31916",8021,33,,,"Akarçay Tepe","TR",38.0257,36.9191,"2"
"KIA-31917",8132,40,,,"Akarçay Tepe","TR",38.0257,36.9191,"2"
"KIA-31918",8246,39,,,"Akarçay Tepe","TR",38.0257,36.9191,"2"
"KIA-31919",8181,45,,,"Akarçay Tepe","TR",38.0257,36.9191,"2"
"KIA-31920",8121,52,,,"Akarçay Tepe","TR",38.0257,36.9191,"2"
"KIA-31921",8146,36,,,"Akarçay Tepe","TR",38.0257,36.9191,"2"
"KIA-31922",8365,40,,,"Akarçay Tepe","TR",38.0257,36.9191,"2"
"KIA-31923",8309,49,,,"Akarçay Tepe","TR",38.0257,36.9191,"2"
"KIA-31924",8290,50,,,"Akarçay Tepe","TR",38.0257,36.9191,"2"
"KIA-31925",7979,42,,,"Akarçay Tepe","TR",38.0257,36.9191,"2"
"KIA-31926",8199,34,,,"Akarçay Tepe","TR",38.0257,36.9191,"2"
,8283,41,,,"Akarçay Tepe","TR",38.0257,36.9191,"2"
"Pta-1367",10680,190,"charcoal",,"al-Wad Cave","IL",34.9653,32.6706,"1"
"Pta-1368",12950,200,"charcoal",,"al-Wad Cave","IL",34.9653,32.6706,"1"
"Pta-5435",12620,110,"charcoal",,"al-Wad Cave","IL",34.9653,32.6706,"1"
"RT-1367",10740,200,"charcoal",,"al-Wad Cave","IL",34.9653,32.6706,"1"
"RT-1367a",10680,190,"charcoal",,"al-Wad Cave","IL",34.9653,32.6706,"1"
"RT-1367b",10740,200,"charcoal",,"al-Wad Cave","IL",34.9653,32.6706,"1"
"RT-1368",12950,200,"charcoal",,"al-Wad Cave","IL",34.9653,32.6706,"1"
"RTT-5786",11370,115,"bone",,"al-Wad Terrace","IL",34.9653,32.6706,"1"
"RTT-5790",11965,125,"bone",,"al-Wad Terrace","IL",34.9653,32.6706,"1"
"RTT-6095-2",11610,80,"charcoal",,"al-Wad Terrace","IL",34.9653,32.6706,"1"
"RTT-6096-2",12340,85,"charcoal",,"al-Wad Terrace","IL",34.9653,32.6706,"1"
"RTT-6098-2",12430,80,"charcoal",,"al-Wad Terrace","IL",34.9653,32.6706,"1"
"RTT-6105",11935,100,"bone",,"al-Wad Terrace","IL",34.9653,32.6706,"1"
"RTT-6106",11840,100,"bone",,"al-Wad Terrace","IL",34.9653,32.6706,"1"
"RTT-6107",12350,100,"bone",,"al-Wad Terrace","IL",34.9653,32.6706,"1"
"RTT-6114",11570,75,"bone",,"al-Wad Terrace","IL",34.9653,32.6706,"1"
"RTT-6115",11570,75,"bone",,"al-Wad Terrace","IL",34.9653,32.6706,"1"
"RTT-6116",11640,70,"charcoal",,"al-Wad Terrace","IL",34.9653,32.6706,"1"
"RTT-6117-2",12300,70,"charcoal",,"al-Wad Terrace","IL",34.9653,32.6706,"1"
"SMU-2373",14500,190,"charcoal",,"Arabi I, Wadi Feiran","EG",33.499,28.78,"1"
"N-5976",8290,145,"charcoal",,"Aray 2","SY",36.51,35.91,"2"
"P-585",8064,78,"charcoal",,"Arpachiyah","IQ",43.2033,36.3633,"2"
"OxA-7915",7995,50,"charcoal (bulk,ash)",,"Ashkelon","IL",34.5667,31.6667,"1"
"AA-100674",9650,60,"charcoal",,"Aşıklı Höyük","TR",34.2298,38.3492,"3"
"AA-100684",8820,50,"dung",,"Aşıklı Höyük","TR",34.2298,38.3492,"3"
"AA-100687",9050,50,"charcoal",,"Aşıklı Höyük","TR",34.2298,38.3492,"3"
"AA-100690",8960,50,"charcoal",,"Aşıklı Höyük","TR",34.2298,38.3492,"3"
"AA-101168",9120,50,"charcoal",,"Aşıklı Höyük","TR",34.2298,38.3492,"3"
"AA-101170",9600,50,"charcoal",,"Aşıklı Höyük","TR",34.2298,38.3492,"3"
"AA-101172",8900,50,"charcoal",,"Aşıklı Höyük","TR",34.2298,38.3492,"3"
"AA-101173",8870,50,"dung",,"Aşıklı Höyük","TR",34.2298,38.3492,"3"
"AA-101176",8900,50,"charcoal",,"Aşıklı Höyük","TR",34.2298,38.3492,"3"
"AA-101177",9010,50,"charcoal",,"Aşıklı Höyük","TR",34.2298,38.3492,"3"
"AA-101178",8710,50,"charcoal",,"Aşıklı Höyük","TR",34.2298,38.3492,"3"
"AA-101180",8860,50,"charcoal",,"Aşıklı Höyük","TR",34.2298,38.3492,"3"
"AA-101181",8720,50,"charcoal",,"Aşıklı Höyük","TR",34.2298,38.3492,"3"
"AA-101182",8830,50,"charcoal",,"Aşıklı Höyük","TR",34.2298,38.3492,"3"
"AA-101183",8790,50,"charcoal",,"Aşıklı Höyük","TR",34.2298,38.3492,"3"
"AA-101860",8870,50,"charcoal",,"Aşıklı Höyük","TR",34.2298,38.3492,"3"
"AA-101862",9020,50,"charcoal",,"Aşıklı Höyük","TR",34.2298,38.3492,"3"
"AA-87955",8770,40,"charcoal",,"Aşıklı Höyük","TR",34.2298,38.3492,"3"
"AA-87957",8850,30,"charcoal",,"Aşıklı Höyük","TR",34.2298,38.3492,"3"
"AA-87958",8770,30,"charcoal",,"Aşıklı Höyük","TR",34.2298,38.3492,"3"
"AA-87960",8780,40,"charcoal",,"Aşıklı Höyük","TR",34.2298,38.3492,"3"
"AA-87961",8910,40,"charcoal",,"Aşıklı Höyük","TR",34.2298,38.3492,"3"
"AA-87962",8830,40,"charcoal",,"Aşıklı Höyük","TR",34.2298,38.3492,"3"
"AA-87979",8760,40,"charcoal",,"Aşıklı Höyük","TR",34.2298,38.3492,"3"
"AA-87981",8570,40,"seed (silicified)","Celtis","Aşıklı Höyük","TR",34.2298,38.3492,"3"
"AA-87982",8640,30,"seed (silicified)","Celtis","Aşıklı Höyük","TR",34.2298,38.3492,"3"
"AA-87983",8560,40,"seed (silicified)","Celtis","Aşıklı Höyük","TR",34.2298,38.3492,"3"
"AA-87987",8670,30,"seed (silicified)","Celtis","Aşıklı Höyük","TR",34.2298,38.3492,"3"
"AA-96470",8930,50,"charcoal",,"Aşıklı Höyük","TR",34.2298,38.3492,"3"
"AA-96733",8860,50,"charcoal",,"Aşıklı Höyük","TR",34.2298,38.3492,"3"
"AA-96734",8880,50,"charcoal",,"Aşıklı Höyük","TR",34.2298,38.3492,"3"
"AA-97666",8660,50,"seed",,"Aşıklı Höyük","TR",34.2298,38.3492,"3"
"GrN-18617",8730,45,"charcoal",,"Aşıklı Höyük","TR",34.2298,38.3492,"3"
"GrN-18618",8725,50,"charcoal",,"Aşıklı Höyük","TR",34.2298,38.3492,"3"
"GrN-18619",8610,55,"charcoal",,"Aşıklı Höyük","TR",34.2298,38.3492,"3"
"GrN-18620",8720,55,"charcoal",,"Aşıklı Höyük","TR",34.2298,38.3492,"3"
"GrN-19114",8515,40,"charcoal",,"Aşıklı Höyük","TR",34.2298,38.3492,"3"
"GrN-19115",8710,100,"charcoal",,"Aşıklı Höyük","TR",34.2298,38.3492,"3"
"GrN-19116",8920,50,"charcoal",,"Aşıklı Höyük","TR",34.2298,38.3492,"3"
"GrN-19117",8710,130,"charcoal",,"Aşıklı Höyük","TR",34.2298,38.3492,"3"
"GrN-19118",8760,45,"charcoal",,"Aşıklı Höyük","TR",34.2298,38.3492,"3"
"GrN-19119",8760,40,"charcoal",,"Aşıklı Höyük","TR",34.2298,38.3492,"3"
"GrN-19120",8815,70,"charcoal",,"Aşıklı Höyük","TR",34.2298,38.3492,"3"
"GrN-19121",8590,80,"charcoal",,"Aşıklı Höyük","TR",34.2298,38.3492,"3"
"GrN-19358",8550,70,"charcoal",,"Aşıklı Höyük","TR",34.2298,38.3492,"3"
"GrN-19359",8570,70,"charcoal",,"Aşıklı Höyük","TR",34.2298,38.3492,"3"
"GrN-19360",8695,25,"charcoal",,"Aşıklı Höyük","TR",34.2298,38.3492,"3"
"GrN-19361",8595,60,"charcoal",,"Aşıklı Höyük","TR",34.2298,38.3492,"3"
"GrN-19362",8630,30,"charcoal",,"Aşıklı Höyük","TR",34.2298,38.3492,"3"
"GrN-19363",8675,25,"charcoal",,"Aşıklı Höyük","TR",34.2298,38.3492,"3"
"GrN-19364",8585,45,"charcoal",,"Aşıklı Höyük","TR",34.2298,38.3492,"3"
"GrN-19365",8420,30,"charcoal",,"Aşıklı Höyük","TR",34.2298,38.3492,"3"
"GrN-19366",8400,40,"charcoal",,"Aşıklı Höyük","TR",34.2298,38.3492,"3"
"GrN-19858",8770,90,"charcoal",,"Aşıklı Höyük","TR",34.2298,38.3492,"3"
"GrN-19860",8720,50,"charcoal",,"Aşıklı Höyük","TR",34.2298,38.3492,"3"
"GrN-19861",8670,60,"charcoal",,"Aşıklı Höyük","TR",34.2298,38.3492,"3"
"GrN-19862",8580,50,"charcoal",,"Aşıklı Höyük","TR",34.2298,38.3492,"3"
"GrN-19865",8880,70,"charcoal",,"Aşıklı Höyük","TR",34.2298,38.3492,"3"
"GrN-19866",8560,40,"charcoal",,"Aşıklı Höyük","TR",34.2298,38.3492,"3"
"GrN-19867",8630,50,"charcoal",,"Aşıklı Höyük","TR",34.2298,38.3492,"3"
"GrN-19868",8530,110,"charcoal",,"Aşıklı Höyük","TR",34.2298,38.3492,"3"
"GrN-19869",8740,70,"charcoal",,"Aşıklı Höyük","TR",34.2298,38.3492,"3"
"GrN-19870",8720,80,"charcoal",,"Aşıklı Höyük","TR",34.2298,38.3492,"3"
"GrN-20349",8840,50,"charcoal",,"Aşıklı Höyük","TR",34.2298,38.3492,"3"
"GrN-20351",8670,40,"charcoal",,"Aşıklı Höyük","TR",34.2298,38.3492,"3"
"GrN-20352",8720,40,"charcoal",,"Aşıklı Höyük","TR",34.2298,38.3492,"3"
"GrN-20353",8740,60,"charcoal",,"Aşıklı Höyük","TR",34.2298,38.3492,"3"
"GrN-20354",8710,70,"charcoal",,"Aşıklı Höyük","TR",34.2298,38.3492,"3"
"GrN-20355",8550,60,"charcoal",,"Aşıklı Höyük","TR",34.2298,38.3492,"3"
"GrN-20356",8560,60,"charcoal",,"Aşıklı Höyük","TR",34.2298,38.3492,"3"
"GrN-20684",8720,70,"charcoal",,"Aşıklı Höyük","TR",34.2298,38.3492,"3"
"GrN-28614",8840,50,"charcoal",,"Aşıklı Höyük","TR",34.2298,38.3492,"3"
"GrN-28616",8860,60,"charcoal",,"Aşıklı Höyük","TR",34.2298,38.3492,"3"
"GrN-28617",8980,40,"charcoal",,"Aşıklı Höyük","TR",34.2298,38.3492,"3"
"GrN-28618",8940,40,"charcoal",,"Aşıklı Höyük","TR",34.2298,38.3492,"3"
"GrN-28621",8940,40,"charcoal",,"Aşıklı Höyük","TR",34.2298,38.3492,"3"
"GrN-28622",8790,60,"charcoal",,"Aşıklı Höyük","TR",34.2298,38.3492,"3"
"GrN-28623",8770,60,"charcoal",,"Aşıklı Höyük","TR",34.2298,38.3492,"3"
"GrN-28624",8760,25,"charcoal",,"Aşıklı Höyük","TR",34.2298,38.3492,"3"
"Hd-19640",8882,40,"charcoal",,"Aşıklı Höyük","TR",34.2298,38.3492,"3"
"P-1238",8807,128,"charcoal",,"Aşıklı Höyük","TR",34.2298,38.3492,"3"
"P-1239",8611,108,"charcoal",,"Aşıklı Höyük","TR",34.2298,38.3492,"3"
"P-1240",8958,130,"charcoal",,"Aşıklı Höyük","TR",34.2298,38.3492,"3"
"P-1241",8793,127,"charcoal",,"Aşıklı Höyük","TR",34.2298,38.3492,"3"
"P-1242",8778,128,"charcoal",,"Aşıklı Höyük","TR",34.2298,38.3492,"3"
"MC-607",12500,160,,,"Assouad","SY",39.033,36.95,"2"
"MC-864",8450,120,"charcoal",,"Assouad","SY",39.033,36.95,"2"
"MC-865",8620,120,"charcoal",,"Assouad","SY",39.033,36.95,"2"
"PITT-622",7550,80,"grain (charred)","Triticum","Atlit-Yam","IL",34.9352,32.7108,"1"
"Pta-3950",8000,90,"charcoal",,"Atlit-Yam","IL",34.9352,32.7108,"1"
"RT-2477-2478",7605,55,"wood (waterlogged,branches)",,"Atlit-Yam","IL",34.9352,32.7108,"1"
"RT-2489-2492",7880,55,"wood (waterlogged,branch)",,"Atlit-Yam","IL",34.9352,32.7108,"1"
"RT-2493-2495",7755,55,"wood (waterlogged,branch)",,"Atlit-Yam","IL",34.9352,32.7108,"1"
"RT-2496-2497",8170,55,"plant matter (waterlogged)",,"Atlit-Yam","IL",34.9352,32.7108,"1"
"RT-3038",8000,45,"bone","Homo sapiens","Atlit-Yam","IL",34.9352,32.7108,"1"
"RT-707",8140,120,"charcoal",,"Atlit-Yam","IL",34.9352,32.7108,"1"
"RT-944A",7670,85,"grain (charred)","Hordeum vulgare","Atlit-Yam","IL",34.9352,32.7108,"1"
"RT-944C",7610,90,"charcoal",,"Atlit-Yam","IL",34.9352,32.7108,"1"
"OxA-18833",9195,40,"charcoal","Chenopodiaceae","Ayn Qasiyah","JO",36.8181,31.8339,"1"
"OxA-2142",15160,190,"charcoal",,"Azariq 13, W Negev","IL",34.4167,30.95,"1"
"OxA-869",13260,200,"charcoal",,"Azraq 17","JO",35.0105,29.5269,"1"
"OxA-2412",8275,80,"charcoal",,"Azraq 31","JO",36.81,31.83,"1"
"OxA-870",8350,120,"charcoal",,"Azraq 31","JO",36.82,31.83,"1"
"Bln-5035",7887,43,"charcoal","Juniperus","Ba'ja","JO",35.4611,30.4133,"1"
"Bln-5036",7910,44,"charcoal","Juniperus","Ba'ja","JO",35.4611,30.4133,"1"
"Bln-5123",8100,33,"charcoal","Juniperus","Ba'ja","JO",35.4611,30.4133,"1"
"KIA-11576",10470,121,"charcoal",,"Baaz","SY",36.51,33.81,"1"
"KIA-11577",10942,65,"charcoal",,"Baaz","SY",36.51,33.81,"1"
"KIA-11578",10667,97,"charcoal",,"Baaz","SY",36.51,33.81,"1"
"AA-38141",10031,69,"charcoal",,"Bab edh-Dhra","JO",35.5342,31.2539,"1"
"AA-38142",10059,73,"charcoal",,"Bab edh-Dhra","JO",35.5342,31.2539,"1"
"AA-38143",9984,67,"charcoal",,"Bab edh-Dhra","JO",35.5342,31.2539,"1"
"AA-38144",10000,68,"charcoal",,"Bab edh-Dhra","JO",35.5342,31.2539,"1"
"ISGS-2898",9960,110,"charcoal",,"Bab edh-Dhra","JO",35.5342,31.2539,"1"
"ISGS-3277",9610,170,"charcoal",,"Bab edh-Dhra","JO",35.5342,31.2539,"1"
"ISGS-3278",9940,180,"charcoal",,"Bab edh-Dhra","JO",35.5342,31.2539,"1"
"ISGS-A0246",9913,59,"charcoal",,"Bab edh-Dhra","JO",35.5342,31.2539,"1"
"ISGS-A0248",9835,65,"charcoal",,"Bab edh-Dhra","JO",35.5342,31.2539,"1"
"Hd-20910",7546,41,"charcoal",,"Bademağacı","TR",30.4981,37.2231,"3"
"Hd-22339",7553,31,"charcoal",,"Bademağacı","TR",30.4981,37.2231,"3"
"Hd-22340",7949,31,"charcoal",,"Bademağacı","TR",30.4981,37.2231,"3"
"Ly-4863",9325,40,"seeds",,"Balas","SY",37.54,34.91,"2"
"GrN-14537",8380,100,"charcoal","Pistacia atlantica","Basta","JO",35.5333,30.2275,"1"
"GrN-14538",8155,50,"charcoal","Pistacia atlantica","Basta","JO",35.5333,30.2275,"1"
"KIA-30842",8325,35,"charcoal",,"Basta","JO",35.5333,30.2275,"1"
"KIA-30843a",7990,35,"charcoal",,"Basta","JO",35.5333,30.2275,"1"
"KIA-30843b",7985,30,"humic acid",,"Basta","JO",35.5333,30.2275,"1"
"KIA-30844",7960,35,"charcoal",,"Basta","JO",35.5333,30.2275,"1"
"KIA-30845a",8435,40,"charcoal",,"Basta","JO",35.5333,30.2275,"1"
"KIA-30845b",7840,160,"humic acid",,"Basta","JO",35.5333,30.2275,"1"
"KIA-30846",8100,40,"charcoal",,"Basta","JO",35.5333,30.2275,"1"
"KIA-30847",7910,55,"charcoal",,"Basta","JO",35.5333,30.2275,"1"
"KIA-30848a",8320,40,"charcoal",,"Basta","JO",35.5333,30.2275,"1"
"KIA-30848b",8260,50,"humic acid",,"Basta","JO",35.5333,30.2275,"1"
"KN-5450",8151,52,"wood","Tamarix","Bawwab al-Ghazal","JO",35.7333,31.9667,"1"
"KN-5451",8104,78,"wood","Tamarix","Bawwab al-Ghazal","JO",35.7333,31.9667,"1"
"KN-5452",8102,51,"wood","Tamarix","Bawwab al-Ghazal","JO",35.7333,31.9667,"1"
"KN-5453",8139,39,"wood","Tamarix","Bawwab al-Ghazal","JO",35.7333,31.9667,"1"
"KN-5454",8273,59,"wood","Tamarix","Bawwab al-Ghazal","JO",35.7333,31.9667,"1"
"AA-13036",8830,70,"nutshell","Pistacia","Beidha","JO",35.4478,30.3708,"1"
"AA-13037",7720,130,"seed (charred)","Leguminosae","Beidha","JO",35.4478,30.3708,"1"
"AA-13038",8765,80,"seed (charred)","Leguminosae","Beidha","JO",35.4478,30.3708,"1"
"AA-14109",8646,69,"bone",,"Beidha","JO",35.4478,30.3708,"1"
"AA-1464",12130,190,"charcoal",,"Beidha","JO",35.4478,30.3708,"1"
"AA-1465",12450,170,"charcoal",,"Beidha","JO",35.4478,30.3708,"1"
"Beta-235214",11820,70,"charcoal",,"Beidha","JO",35.4478,30.3708,"1"
"Beta-235216",9110,50,"charcoal",,"Beidha","JO",35.4478,30.3708,"1"
"BM-111",8790,200,"charcoal",,"Beidha","JO",35.4478,30.3708,"1"
"GrN-5062",9030,50,"charcoal","Juniperus","Beidha","JO",35.4478,30.3708,"1"
"GrN-5063",8860,50,"seeds","Pistacia","Beidha","JO",35.4478,30.3708,"1"
"GrN-5136",8810,50,"charcoal","Pistacia","Beidha","JO",35.4478,30.3708,"1"
"K-1082",8710,120,"seeds","Pistacia atlantica","Beidha","JO",35.4478,30.3708,"1"
"K-1083",8640,160,"charcoal","Pistacia","Beidha","JO",35.4478,30.3708,"1"
"K-1084",8730,160,"charcoal","Juniperus","Beidha","JO",35.4478,30.3708,"1"
"K-1085",8550,160,"charcoal","Juniperus","Beidha","JO",35.4478,30.3708,"1"
"K-1086",8940,160,"charcoal","Quercus","Beidha","JO",35.4478,30.3708,"1"
"K-1410",8850,100,"charcoal","Juniperus","Beidha","JO",35.4478,30.3708,"1"
"K-1411",8770,150,"charcoal","Quercus","Beidha","JO",35.4478,30.3708,"1"
"K-1412",8720,150,"charcoal","Pistacia","Beidha","JO",35.4478,30.3708,"1"
"P-1378",8715,130,"charcoal",,"Beidha","JO",35.4478,30.3708,"1"
"P-1379",8546,100,"seed (charred)","Pistacia","Beidha","JO",35.4478,30.3708,"1"
"P-1380",9128,103,"charcoal","Pistacia","Beidha","JO",35.4478,30.3708,"1"
"P-1381",8765,102,"charcoal",,"Beidha","JO",35.4478,30.3708,"1"
"P-1382",8892,115,"charcoal",,"Beidha","JO",35.4478,30.3708,"1"
"Beta-368934",8610,50,"bone",,"Bestansur","IQ",45.2059,35.3768,"2"
"RT-1394",8330,100,"charcoal",,"Betzet 1","IL",35.15,33.06,"1"
"GrN-10590",12230,190,,,"Bouqraz","SY",40.39,35.02,"2"
"GrN-10591",7945,50,"charcoal",,"Bouqraz","SY",40.39,35.02,"2"
"GrN-10592",8110,50,"charcoal",,"Bouqraz","SY",40.39,35.02,"2"
"GrN-13080",8365,50,"charcoal",,"Bouqraz","SY",40.39,35.02,"2"
"GrN-13081",7520,50,"charcoal",,"Bouqraz","SY",40.39,35.02,"2"
"GrN-13082",7530,50,"charcoal",,"Bouqraz","SY",40.39,35.02,"2"
"GrN-13090",7880,60,"charcoal",,"Bouqraz","SY",40.39,35.02,"2"
"GrN-13099",8025,50,"charcoal",,"Bouqraz","SY",40.39,35.02,"2"
"GrN-13100",8080,50,"charcoal",,"Bouqraz","SY",40.39,35.02,"2"
"GrN-13101",8230,35,"charcoal",,"Bouqraz","SY",40.39,35.02,"2"
"GrN-13102",8345,35,"charcoal",,"Bouqraz","SY",40.39,35.02,"2"
"GrN-13103",8285,50,"charcoal",,"Bouqraz","SY",40.39,35.02,"2"
"GrN-13104",8300,50,"charcoal",,"Bouqraz","SY",40.39,35.02,"2"
"GrN-4818",8140,60,"charcoal",,"Bouqraz","SY",40.39,35.02,"2"
"GrN-4819",7960,55,"charcoal",,"Bouqraz","SY",40.39,35.02,"2"
"GrN-4820",7840,60,"charcoal",,"Bouqraz","SY",40.39,35.02,"2"
"GrN-4852",8240,100,"charcoal",,"Bouqraz","SY",40.39,35.02,"2"
"GrN-8258",8115,40,"charcoal",,"Bouqraz","SY",40.39,35.02,"2"
"GrN-8259",7925,40,"charcoal",,"Bouqraz","SY",40.39,35.02,"2"
"GrN-8260",7905,45,"charcoal",,"Bouqraz","SY",40.39,35.02,"2"
"GrN-8261",8155,45,"charcoal",,"Bouqraz","SY",40.39,35.02,"2"
"GrN-8262",8380,45,"charcoal",,"Bouqraz","SY",40.39,35.02,"2"
"GrN-8263",8330,80,"charcoal",,"Bouqraz","SY",40.39,35.02,"2"
"GrN-8264",7860,40,"charcoal",,"Bouqraz","SY",40.39,35.02,"2"
"OxA-2766",7930,80,"charcoal",,"Burqu 27","JO",37.9666,32.6174,"1"
"OxA-2768",8140,90,"charcoal",,"Burqu 35","JO",37.9666,32.6174,"1"
"OxA-2769",8180,80,"charcoal",,"Burqu 35","JO",37.9666,32.6174,"1"
"OxA-2770",8270,80,"charcoal",,"Burqu 35","JO",37.9666,32.6174,"1"
"Ly-2181",8450,160,"charcoal",,"Cafer Höyük","TR",38.7531,38.4161,"2"
"Ly-2182",8990,160,"charcoal",,"Cafer Höyük","TR",38.7531,38.4161,"2"
"Ly-2523",8600,120,"charcoal",,"Cafer Höyük","TR",38.7531,38.4161,"2"
"Ly-3090",8920,160,"charcoal",,"Cafer Höyük","TR",38.7531,38.4161,"2"
"Ly-3091",8980,150,"charcoal",,"Cafer Höyük","TR",38.7531,38.4161,"2"
"Ly-3772",8480,140,"charcoal",,"Cafer Höyük","TR",38.7531,38.4161,"2"
"Ly-3773",7900,190,"charcoal",,"Cafer Höyük","TR",38.7531,38.4161,"2"
"Ly-4436",9560,190,"charcoal",,"Cafer Höyük","TR",38.7531,38.4161,"2"
"Ly-4437",8950,80,"charcoal",,"Cafer Höyük","TR",38.7531,38.4161,"2"
,8990,160,"charcoal",,"Cafer Höyük","TR",38.7531,38.4161,"2"
"AA-41170",7853,36,"charcoal","Juniperus","Can Hasan I","TR",33.331,37.263,"3"
"AA-41171",7695,33,"charcoal","Juniperus","Can Hasan I","TR",33.331,37.263,"3"
"BM-1655",7660,70,"charcoal",,"Can Hasan III","TR",33.331,37.263,"3"
"BM-1655R",7980,120,"charcoal",,"Can Hasan III","TR",33.331,37.263,"3"
"BM-1656",7770,100,"charcoal",,"Can Hasan III","TR",33.331,37.263,"3"
"BM-1656R",8090,170,"charcoal",,"Can Hasan III","TR",33.331,37.263,"3"
"BM-1657",7760,90,"charcoal",,"Can Hasan III","TR",33.331,37.263,"3"
"BM-1657R",8080,130,"charcoal",,"Can Hasan III","TR",33.331,37.263,"3"
"BM-1658",7760,90,"charcoal",,"Can Hasan III","TR",33.331,37.263,"3"
"BM-1658R",8060,130,"charcoal",,"Can Hasan III","TR",33.331,37.263,"3"
"BM-1660R",8390,140,"charcoal",,"Can Hasan III","TR",33.331,37.263,"3"
"BM-1662R",8460,110,"charcoal",,"Can Hasan III","TR",33.331,37.263,"3"
"BM-1663",7940,190,"charcoal",,"Can Hasan III","TR",33.331,37.263,"3"
"BM-1664R",8470,140,"charcoal",,"Can Hasan III","TR",33.331,37.263,"3"
"BM-1665R",8270,160,"charcoal",,"Can Hasan III","TR",33.331,37.263,"3"
"BM-1666R",8460,150,"charcoal",,"Can Hasan III","TR",33.331,37.263,"3"
"BM-1667R",8480,110,"charcoal",,"Can Hasan III","TR",33.331,37.263,"3"
"HU-10",7796,140,"charcoal",,"Can Hasan III","TR",33.331,37.263,"3"
"HU-11",8584,65,"charcoal",,"Can Hasan III","TR",33.331,37.263,"3"
"HU-12",8543,66,"charcoal",,"Can Hasan III","TR",33.331,37.263,"3"
"HU-9",7874,70,"charcoal",,"Can Hasan III","TR",33.331,37.263,"3"
"OxA-388",7910,160,"grain (charred)","Triticum dicoccum","Can Hasan III","TR",33.331,37.263,"3"
"OxA-X-104222",7870,60,"bone","animal","Catalhöyük East","TR",32.8257,37.6664,"3"
"OxA-X-104513",7850,110,"bone","animal","Catalhöyük East","TR",32.8257,37.6664,"3"
"PL-980507B",7850,90,"grain","Cerealia","Catalhöyük East","TR",32.8257,37.6664,"3"
"PL-980565A",8050,70,"grain","Cerealia","Catalhöyük East","TR",32.8257,37.6664,"3"
"PL-980568A",7880,90,"grain","Cerealia","Catalhöyük East","TR",32.8257,37.6664,"3"
,7898,80,"seeds",,"Catalhöyük East","TR",32.8257,37.6664,"3"
,7930,80,"seeds",,"Catalhöyük East","TR",32.8257,37.6664,"3"
,7950,80,"charcoal",,"Catalhöyük East","TR",32.8257,37.6664,"3"
,8060,80,"charcoal",,"Catalhöyük East","TR",32.8257,37.6664,"3"
"AA-18104",8065,50,"charcoal","Juniperus","Çatalhöyük East","TR",32.8257,37.6664,"3"
"AA-18105",7710,100,"charcoal","Juniperus","Çatalhöyük East","TR",32.8257,37.6664,"3"
"AA-19344",7620,50,"charcoal","Juniperus","Çatalhöyük East","TR",32.8257,37.6664,"3"
"AA-19345",7626,52,"charcoal","Juniperus","Çatalhöyük East","TR",32.8257,37.6664,"3"
"AA-19346",7670,50,"charcoal","Juniperus","Çatalhöyük East","TR",32.8257,37.6664,"3"
"AA-19347",7998,54,"charcoal","Juniperus","Çatalhöyük East","TR",32.8257,37.6664,"3"
"AA-19348",7982,52,"charcoal","Juniperus","Çatalhöyük East","TR",32.8257,37.6664,"3"
"AA-19349",7944,65,"charcoal","Juniperus","Çatalhöyük East","TR",32.8257,37.6664,"3"
"AA-19350",7918,54,"charcoal","Juniperus","Çatalhöyük East","TR",32.8257,37.6664,"3"
"AA-19351",7747,65,"charcoal","Juniperus","Çatalhöyük East","TR",32.8257,37.6664,"3"
"AA-27976",7780,55,"charcoal",,"Çatalhöyük East","TR",32.8257,37.6664,"3"
"AA-27978",7710,70,"grain (charred)","Cerealia","Çatalhöyük East","TR",32.8257,37.6664,"3"
"AA-27979",7700,60,"grain (charred)","Cerealia","Çatalhöyük East","TR",32.8257,37.6664,"3"
"AA-27980",7790,60,"grain (charred)","Cerealia","Çatalhöyük East","TR",32.8257,37.6664,"3"
"AA-27982",8195,80,"charcoal",,"Çatalhöyük East","TR",32.8257,37.6664,"3"
"AA-47057",8085,66,"bone","Bos","Çatalhöyük East","TR",32.8257,37.6664,"3"
"OxA-11007",7630,45,"bone","Ovis/Capra","Çatalhöyük East","TR",32.8257,37.6664,"3"
"OxA-11028",7780,40,"grain (charred)","Hordeum/Triticum","Çatalhöyük East","TR",32.8257,37.6664,"3"
"OxA-11029",7730,45,"seeds (charred)","Lens","Çatalhöyük East","TR",32.8257,37.6664,"3"
"OxA-11030",7685,40,"grain (charred)","Triticum dicoccum","Çatalhöyük East","TR",32.8257,37.6664,"3"
"OxA-11031",7675,50,"grain (charred)","Hordeum/Triticum","Çatalhöyük East","TR",32.8257,37.6664,"3"
"OxA-11032",7765,40,"grain (charred)","Hordeum/Triticum","Çatalhöyük East","TR",32.8257,37.6664,"3"
"OxA-11040",7640,45,"grain (charred)","Hordeum/Triticum","Çatalhöyük East","TR",32.8257,37.6664,"3"
"OxA-11041",7655,45,"grain (charred)","Hordeum vulgare","Çatalhöyük East","TR",32.8257,37.6664,"3"
"OxA-11042",7785,45,"grain (charred)","Hordeum/Triticum","Çatalhöyük East","TR",32.8257,37.6664,"3"
"OxA-11043",7680,50,"grain (charred)","Triticum dicoccum","Çatalhöyük East","TR",32.8257,37.6664,"3"
"OxA-11044",7680,50,"grain (charred)","Hordeum/Triticum","Çatalhöyük East","TR",32.8257,37.6664,"3"
"OxA-11045",7620,45,"seeds (charred)","Lens","Çatalhöyük East","TR",32.8257,37.6664,"3"
"OxA-11046",7730,50,"grain (charred)","Triticum dicoccum","Çatalhöyük East","TR",32.8257,37.6664,"3"
"OxA-11047",7790,50,"bone","Homo sapiens","Çatalhöyük East","TR",32.8257,37.6664,"3"
"OxA-11048",7800,50,"bone","Homo sapiens","Çatalhöyük East","TR",32.8257,37.6664,"3"
"OxA-11049",7760,50,"bone","Homo sapiens","Çatalhöyük East","TR",32.8257,37.6664,"3"
"OxA-11050",7775,50,"bone","Homo sapiens","Çatalhöyük East","TR",32.8257,37.6664,"3"
"OxA-11051",7855,45,"bone","Homo sapiens","Çatalhöyük East","TR",32.8257,37.6664,"3"
"OxA-11052",7860,45,"bone","Homo sapiens","Çatalhöyük East","TR",32.8257,37.6664,"3"
"OxA-11075",7725,75,"bone","Bos","Çatalhöyük East","TR",32.8257,37.6664,"3"
"OxA-11077",7540,60,"seeds (charred)","Lens","Çatalhöyük East","TR",32.8257,37.6664,"3"
"OxA-11078",7515,60,"grain (charred)","Triticum dicoccum","Çatalhöyük East","TR",32.8257,37.6664,"3"
"OxA-11079",7590,60,"grain (charred)","Hordeum/Triticum","Çatalhöyük East","TR",32.8257,37.6664,"3"
"OxA-11155",7710,50,"grain (charred)","Hordeum/Triticum","Çatalhöyük East","TR",32.8257,37.6664,"3"
"OxA-11182",7535,45,"bone","Capra","Çatalhöyük East","TR",32.8257,37.6664,"3"
"OxA-11183",7750,45,"grain (charred)","Hordeum/Triticum","Çatalhöyük East","TR",32.8257,37.6664,"3"
"OxA-11267",7990,50,"seeds","Celtis","Çatalhöyük East","TR",32.8257,37.6664,"3"
"OxA-11267",8050,60,"seeds (calcified)","Celtis","Çatalhöyük East","TR",32.8257,37.6664,"3"
"OxA-11268",7630,50,"seeds (calcified)","Celtis","Çatalhöyük East","TR",32.8257,37.6664,"3"
"OxA-11269",7530,45,"seed (silicified)","Celtis","Çatalhöyük East","TR",32.8257,37.6664,"3"
"OxA-11545",7670,40,"seeds (charred)","Leguminosae","Çatalhöyük East","TR",32.8257,37.6664,"3"
"OxA-11712",7705,55,"seeds (charred)","Lens","Çatalhöyük East","TR",32.8257,37.6664,"3"
"OxA-11713",7755,55,"seeds (charred)","Lens","Çatalhöyük East","TR",32.8257,37.6664,"3"
"OxA-12107",7904,38,"seed (silicified)","Celtis","Çatalhöyük East","TR",32.8257,37.6664,"3"
"OxA-13804",7765,38,"seed (silicified)","Celtis","Çatalhöyük East","TR",32.8257,37.6664,"3"
"OxA-13805",7755,39,"seed (silicified)","Celtis","Çatalhöyük East","TR",32.8257,37.6664,"3"
"OxA-13806",7914,40,"seed (silicified)","Celtis","Çatalhöyük East","TR",32.8257,37.6664,"3"
"OxA-13807",8000,38,"seed (silicified)","Celtis","Çatalhöyük East","TR",32.8257,37.6664,"3"
"OxA-13869",7830,40,"seed (silicified)","Celtis","Çatalhöyük East","TR",32.8257,37.6664,"3"
"OxA-13870",8170,45,"seed (silicified)","Celtis","Çatalhöyük East","TR",32.8257,37.6664,"3"
"OxA-16797",7598,43,"bone","Ovis/Capra","Çatalhöyük East","TR",32.8257,37.6664,"3"
"OxA-16798",7657,43,"bone","Homo sapiens","Çatalhöyük East","TR",32.8257,37.6664,"3"
"OxA-16799",7707,44,"bone","Homo sapiens","Çatalhöyük East","TR",32.8257,37.6664,"3"
"OxA-16800",7704,45,"bone","Homo sapiens","Çatalhöyük East","TR",32.8257,37.6664,"3"
"OxA-16801",7690,43,"bone","Homo sapiens","Çatalhöyük East","TR",32.8257,37.6664,"3"
"OxA-16802",7712,43,"bone","Homo sapiens","Çatalhöyük East","TR",32.8257,37.6664,"3"
"OxA-21261",8033,39,"bone","Homo sapiens","Çatalhöyük East","TR",32.8257,37.6664,"3"
"OxA-21262",7955,40,"bone","Homo sapiens","Çatalhöyük East","TR",32.8257,37.6664,"3"
"OxA-23247",8027,37,"bone","Ovis/Capra","Çatalhöyük East","TR",32.8257,37.6664,"3"
"OxA-23248",8082,37,"bone","Ovis","Çatalhöyük East","TR",32.8257,37.6664,"3"
"OxA-23250",8085,36,"bone","Ovis/Capra","Çatalhöyük East","TR",32.8257,37.6664,"3"
"OxA-23251",8137,36,"bone","Capra","Çatalhöyük East","TR",32.8257,37.6664,"3"
"OxA-23252",8199,36,"bone","Ovis/Capra","Çatalhöyük East","TR",32.8257,37.6664,"3"
"OxA-23523",7931,38,"bone","Homo sapiens","Çatalhöyük East","TR",32.8257,37.6664,"3"
"OxA-27087",8000,40,"bone","Ovis","Çatalhöyük East","TR",32.8257,37.6664,"3"
"OxA-9771",7965,55,"grain (charred)","Triticum","Çatalhöyük East","TR",32.8257,37.6664,"3"
"OxA-9772",8025,55,"grain (charred)","Triticum","Çatalhöyük East","TR",32.8257,37.6664,"3"
"OxA-9774",7935,50,"seeds (charred)","Scirpus","Çatalhöyük East","TR",32.8257,37.6664,"3"
"OxA-9775",8090,55,"grain (charred)","Hordeum/Scirpus/Triticum","Çatalhöyük East","TR",32.8257,37.6664,"3"
"OxA-9776",7985,55,"seeds (charred)","Scirpus","Çatalhöyük East","TR",32.8257,37.6664,"3"
"OxA-9777",8160,50,"seeds (charred)","Lens","Çatalhöyük East","TR",32.8257,37.6664,"3"
"OxA-9778",8240,55,"grain (charred)","Triticum dicoccum,Pisum","Çatalhöyük East","TR",32.8257,37.6664,"3"
"OxA-9892",8150,50,"seeds (charred)","Lens","Çatalhöyük East","TR",32.8257,37.6664,"3"
"OxA-9893",8155,50,"grain (charred)","Cerealea/Scirpus/Triticum","Çatalhöyük East","TR",32.8257,37.6664,"3"
"OxA-9943",7910,55,"grain (charred)","Triticum","Çatalhöyük East","TR",32.8257,37.6664,"3"
"OxA-9944",7975,50,"grain (charred)","Triticum","Çatalhöyük East","TR",32.8257,37.6664,"3"
"OxA-9945",7775,50,"seeds (charred)","Scirpus","Çatalhöyük East","TR",32.8257,37.6664,"3"
"OxA-9946",7980,55,"seeds (charred)","Scirpus","Çatalhöyük East","TR",32.8257,37.6664,"3"
"OxA-9947",7985,50,"grain (charred)","Hordeum/Scirpus/Triticum","Çatalhöyük East","TR",32.8257,37.6664,"3"
"OxA-9948",8090,50,"grain (charred)","Hordeum/Scirpus/Triticum","Çatalhöyük East","TR",32.8257,37.6664,"3"
"OxA-9949",8050,50,"seeds (charred)","Pisum","Çatalhöyük East","TR",32.8257,37.6664,"3"
"OxA-9950",8030,50,"grain (charred)","Pisum/Triticum","Çatalhöyük East","TR",32.8257,37.6664,"3"
"OxA-9980",7955,75,"grain (charred)","Triticum","Çatalhöyük East","TR",32.8257,37.6664,"3"
"OxA-X-1042-22",7870,60,"bone","Ovis","Çatalhöyük East","TR",32.8257,37.6664,"3"
"OxA-X-1045-13",7850,110,"bone","animal","Çatalhöyük East","TR",32.8257,37.6664,"3"
"P-1362",7904,111,"charcoal","Ulmus","Çatalhöyük East","TR",32.8257,37.6664,"3"
"P-1363",7911,103,"charcoal",,"Çatalhöyük East","TR",32.8257,37.6664,"3"
"P-1364",7936,98,"charcoal","Ulmus","Çatalhöyük East","TR",32.8257,37.6664,"3"
"P-1365",7729,80,"charcoal","Juniperus","Çatalhöyük East","TR",32.8257,37.6664,"3"
"P-1366",7684,90,"charcoal",,"Çatalhöyük East","TR",32.8257,37.6664,"3"
"P-1367",7853,97,"charcoal","Quercus/Ulmus","Çatalhöyük East","TR",32.8257,37.6664,"3"
"P-1369",7937,109,"charcoal",,"Çatalhöyük East","TR",32.8257,37.6664,"3"
"P-1370",8036,104,"charcoal","Ulmus","Çatalhöyük East","TR",32.8257,37.6664,"3"
"P-1371",7844,102,"charcoal",,"Çatalhöyük East","TR",32.8257,37.6664,"3"
"P-1372",7915,85,"bone/charcoal","Ulmus","Çatalhöyük East","TR",32.8257,37.6664,"3"
"P-1374",7757,92,"charcoal","Ulmus","Çatalhöyük East","TR",32.8257,37.6664,"3"
"P-1375",7661,99,"charcoal","Ulmus","Çatalhöyük East","TR",32.8257,37.6664,"3"
"P-769",7505,93,"grain","Cerealia","Çatalhöyük East","TR",32.8257,37.6664,"3"
"P-770",7912,94,"charcoal","Quercus/Juniperus","Çatalhöyük East","TR",32.8257,37.6664,"3"
"P-772",7572,91,"charcoal","Quercus","Çatalhöyük East","TR",32.8257,37.6664,"3"
"P-774",7531,94,"charcoal",,"Çatalhöyük East","TR",32.8257,37.6664,"3"
"P-775",8037,96,"charcoal","Juniperus","Çatalhöyük East","TR",32.8257,37.6664,"3"
"P-776",7640,91,"charcoal","Juniperus","Çatalhöyük East","TR",32.8257,37.6664,"3"
"P-777",7704,91,"charcoal","Juniperus","Çatalhöyük East","TR",32.8257,37.6664,"3"
"P-778",7538,89,"grain","Cerealia","Çatalhöyük East","TR",32.8257,37.6664,"3"
"P-779",8190,99,"charcoal",,"Çatalhöyük East","TR",32.8257,37.6664,"3"
"P-781",7524,90,"charcoal","Quercus","Çatalhöyük East","TR",32.8257,37.6664,"3"
"P-782",8092,98,"charcoal",,"Çatalhöyük East","TR",32.8257,37.6664,"3"
"P-796",7521,77,"grain","Cerealia","Çatalhöyük East","TR",32.8257,37.6664,"3"
"P-797",7629,90,"charcoal","Juniperus","Çatalhöyük East","TR",32.8257,37.6664,"3"
"P-827",7579,86,"bone/tissue","Homo sapiens","Çatalhöyük East","TR",32.8257,37.6664,"3"
"PL-972126A",7830,80,"grain (charred)","Cerealia","Çatalhöyük East","TR",32.8257,37.6664,"3"
"PL-972139A",7710,70,"grain (charred)","Cerealia","Çatalhöyük East","TR",32.8257,37.6664,"3"
"PL-972424A",7940,80,"grain (charred)","Cerealia","Çatalhöyük East","TR",32.8257,37.6664,"3"
"PL-972425A",8070,80,"charcoal",,"Çatalhöyük East","TR",32.8257,37.6664,"3"
"PL-972431A",7810,80,"grain (charred)","Cerealia","Çatalhöyük East","TR",32.8257,37.6664,"3"
"PL-9800507B",7850,90,"grain (charred)","Cerealia","Çatalhöyük East","TR",32.8257,37.6664,"3"
"PL-9800521A",7820,90,"grain (charred)","Cerealia","Çatalhöyük East","TR",32.8257,37.6664,"3"
"PL-9800522A",7830,90,"grain (charred)","Cerealia","Çatalhöyük East","TR",32.8257,37.6664,"3"
"PL-9800562A",7640,90,"grain (charred)","Cerealia","Çatalhöyük East","TR",32.8257,37.6664,"3"
"PL-9800563A",7760,90,"grain (charred)","Cerealia","Çatalhöyük East","TR",32.8257,37.6664,"3"
"PL-9800565A",8050,70,"grain (charred)","Cerealia","Çatalhöyük East","TR",32.8257,37.6664,"3"
"PL-9800566A",7820,90,"grain (charred)","Cerealia","Çatalhöyük East","TR",32.8257,37.6664,"3"
"PL-9800568A",7880,90,"grain (charred)","Cerealia","Çatalhöyük East","TR",32.8257,37.6664,"3"
"PL-9800570A",7800,90,"grain (charred)","Cerealia","Çatalhöyük East","TR",32.8257,37.6664,"3"
"PL-980410AB",7815,60,"charcoal",,"Çatalhöyük East","TR",32.8257,37.6664,"3"
"PL-980511A",7800,100,"grain (charred)","Cerealia","Çatalhöyük East","TR",32.8257,37.6664,"3"
"PL-980512A",7860,100,"grain (charred)","Cerealia","Çatalhöyük East","TR",32.8257,37.6664,"3"
"PL-980513A",7850,100,"grain (charred)","Cerealia","Çatalhöyük East","TR",32.8257,37.6664,"3"
"PL-980514A",7810,100,"seeds (charred)",,"Çatalhöyük East","TR",32.8257,37.6664,"3"
"PL-980515A",7620,100,"seeds (charred)",,"Çatalhöyük East","TR",32.8257,37.6664,"3"
"PL-980518A",7840,80,"grain (charred)","Cerealia","Çatalhöyük East","TR",32.8257,37.6664,"3"
"PL-980519A",7760,80,"grain (charred)","Cerealia","Çatalhöyük East","TR",32.8257,37.6664,"3"
"PL-980520A",7780,80,"grain (charred)","Cerealia","Çatalhöyük East","TR",32.8257,37.6664,"3"
"PL-980521A",7820,90,"grain","Cerealia","Çatalhöyük East","TR",32.8257,37.6664,"3"
"PL-980522A",7830,90,"grain","Cerealia","Çatalhöyük East","TR",32.8257,37.6664,"3"
"PL-980525A",8390,90,"charcoal",,"Çatalhöyük East","TR",32.8257,37.6664,"3"
"PL-980558A",7910,80,"charcoal",,"Çatalhöyük East","TR",32.8257,37.6664,"3"
"PL-980559A",7730,80,"charcoal",,"Çatalhöyük East","TR",32.8257,37.6664,"3"
"PL-980560A",7910,80,"grain (charred)","Cerealia","Çatalhöyük East","TR",32.8257,37.6664,"3"
"PL-980561A",7850,80,"grain (charred)","Cerealia","Çatalhöyük East","TR",32.8257,37.6664,"3"
"PL-980563A",7760,90,"grain","Cerealia","Çatalhöyük East","TR",32.8257,37.6664,"3"
"PL-980566A",7820,90,"grain (charred)","Cerealia","Çatalhöyük East","TR",32.8257,37.6664,"3"
"PL-980570A",7800,90,"grain","Cerealia","Çatalhöyük East","TR",32.8257,37.6664,"3"
"Poz-13573",7620,50,"charcoal",,"Çatalhöyük East","TR",32.8257,37.6664,"3"
"Poz-13696",7530,50,"charcoal",,"Çatalhöyük East","TR",32.8257,37.6664,"3"
"Poz-19000",7539,47,"seeds (charred)",,"Çatalhöyük East","TR",32.8257,37.6664,"3"
"Poz-24009",7700,50,"charcoal",,"Çatalhöyük East","TR",32.8257,37.6664,"3"
"Poz-24010",7790,50,"charcoal",,"Çatalhöyük East","TR",32.8257,37.6664,"3"
"UCIAMS-103134",7955,25,"bone","Ovis","Çatalhöyük East","TR",32.8257,37.6664,"3"
"UCIAMS-103135",7970,25,"bone","Homo sapiens","Çatalhöyük East","TR",32.8257,37.6664,"3"
"UCIAMS-103136",7940,25,"bone","Ovis/Capra","Çatalhöyük East","TR",32.8257,37.6664,"3"
"UCIAMS-103137",7965,30,"bone","Ovis/Capra","Çatalhöyük East","TR",32.8257,37.6664,"3"
"UCIAMS-103138",7920,25,"bone","Ovis/Capra","Çatalhöyük East","TR",32.8257,37.6664,"3"
"UCIAMS-103139",7970,25,"bone","Bos","Çatalhöyük East","TR",32.8257,37.6664,"3"
"UCIAMS-103140",8025,25,"bone","Ovis","Çatalhöyük East","TR",32.8257,37.6664,"3"
"UCIAMS-103141",7980,25,"bone","Bos","Çatalhöyük East","TR",32.8257,37.6664,"3"
"UCIAMS-109991",8035,30,"bone","Canis","Çatalhöyük East","TR",32.8257,37.6664,"3"
"UCIAMS-109992",8030,30,"bone","Ovis","Çatalhöyük East","TR",32.8257,37.6664,"3"
"UCIAMS-109993",8160,30,"bone","Ovis","Çatalhöyük East","TR",32.8257,37.6664,"3"
"UCIAMS-109994",8210,30,"bone","Ovis/Capra","Çatalhöyük East","TR",32.8257,37.6664,"3"
"UCIAMS-109995",8020,30,"bone","Ovis/Capra","Çatalhöyük East","TR",32.8257,37.6664,"3"
"UCIAMS-98208",7965,25,"bone","Ovis/Capra","Çatalhöyük East","TR",32.8257,37.6664,"3"
"UCIAMS-98209",7990,25,"bone","Ovis","Çatalhöyük East","TR",32.8257,37.6664,"3"
"UCIAMS-98210",7940,30,"bone","Homo sapiens","Çatalhöyük East","TR",32.8257,37.6664,"3"
,7898,80,"seeds",,"Çatalhöyük East","TR",32.8257,37.6664,"3"
,7930,80,"seeds",,"Çatalhöyük East","TR",32.8257,37.6664,"3"
,7950,80,"charcoal",,"Çatalhöyük East","TR",32.8257,37.6664,"3"
,8060,80,"charcoal",,"Çatalhöyük East","TR",32.8257,37.6664,"3"
"GrN-10358",9180,80,"charcoal",,"Çayönü","TR",39.7264,38.2164,"2"
"GrN-10359",9050,140,"charcoal",,"Çayönü","TR",39.7264,38.2164,"2"
"GrN-10360",9300,140,"charcoal",,"Çayönü","TR",39.7264,38.2164,"2"
"GrN-10361",9290,110,"charcoal",,"Çayönü","TR",39.7264,38.2164,"2"
"GrN-13947",9240,90,"charcoal",,"Çayönü","TR",39.7264,38.2164,"2"
"GrN-13948",8910,50,"charcoal",,"Çayönü","TR",39.7264,38.2164,"2"
"GrN-13949",9205,45,"charcoal",,"Çayönü","TR",39.7264,38.2164,"2"
"GrN-14857",9155,35,"charcoal",,"Çayönü","TR",39.7264,38.2164,"2"
"GrN-14859",9170,50,"charcoal",,"Çayönü","TR",39.7264,38.2164,"2"
"GrN-14860",9040,35,"charcoal",,"Çayönü","TR",39.7264,38.2164,"2"
"GrN-14861",9090,50,"charcoal",,"Çayönü","TR",39.7264,38.2164,"2"
"GrN-14862",8920,130,"charcoal",,"Çayönü","TR",39.7264,38.2164,"2"
"GrN-16462",9040,65,"charcoal",,"Çayönü","TR",39.7264,38.2164,"2"
"GrN-16463",8040,60,"charcoal",,"Çayönü","TR",39.7264,38.2164,"2"
"GrN-19482",10230,200,"charcoal",,"Çayönü","TR",39.7264,38.2164,"2"
"GrN-4458",9520,100,"charcoal",,"Çayönü","TR",39.7264,38.2164,"2"
"GrN-4459",9200,60,"charcoal",,"Çayönü","TR",39.7264,38.2164,"2"
"GrN-5954",8055,75,"charcoal",,"Çayönü","TR",39.7264,38.2164,"2"
"GrN-6241",9275,95,"charcoal",,"Çayönü","TR",39.7264,38.2164,"2"
"GrN-6242",8795,50,"charcoal",,"Çayönü","TR",39.7264,38.2164,"2"
"GrN-6243",9320,55,"charcoal",,"Çayönü","TR",39.7264,38.2164,"2"
"GrN-6244",8980,80,"charcoal",,"Çayönü","TR",39.7264,38.2164,"2"
"GrN-8078",8355,50,"charcoal",,"Çayönü","TR",39.7264,38.2164,"2"
"GrN-8079",9250,60,"charcoal",,"Çayönü","TR",39.7264,38.2164,"2"
"GrN-8103",10430,80,"charcoal",,"Çayönü","TR",39.7264,38.2164,"2"
"GrN-8819",8080,90,"charcoal",,"Çayönü","TR",39.7264,38.2164,"2"
"GrN-8820",8865,45,"charcoal",,"Çayönü","TR",39.7264,38.2164,"2"
"GrN-8821",9175,55,"charcoal",,"Çayönü","TR",39.7264,38.2164,"2"
"ODTÜ-2",9510,100,"charcoal",,"Çayönü","TR",39.7264,38.2164,"2"
"UCLA-1703C",7620,140,"bone",,"Çayönü","TR",39.7264,38.2164,"2"
"UtC-1094",7920,110,"ceramic (organic temper)",,"Damishliyah","SY",39.03,36.49,"2"
"UtC-1097",7670,60,"ceramic (organic temper)",,"Damishliyah","SY",39.03,36.49,"2"
"UtC-1124",7700,90,"charcoal",,"Damishliyah","SY",39.03,36.49,"2"
"BM-2349",8190,60,"charcoal (short-lived)",,"Dhuweila 1","JO",37.25,32.03,"1"
"OxA-1637",8350,100,"charcoal (short-lived)",,"Dhuweila 1","JO",37.25,32.03,"1"
"Ly-2520",7680,200,,,"El Kowm 2","SY",38.8167,35.15,"2"
"Ly-4400",8030,80,,,"El Kowm 2","SY",38.8167,35.15,"2"
"OS-48490",8670,45,"charcoal",,"el-Hemmeh","JO",35.7311,30.9667,"1"
"OS-48491",9450,60,"charcoal",,"el-Hemmeh","JO",35.7311,30.9667,"1"
"AA-66739",7504,85,"bone",,"Erbaba Höyük","TR",31.68,37.77,"3"
"AA-66741",7677,86,"bone",,"Erbaba Höyük","TR",31.68,37.77,"3"
"I-5151",7730,120,"charcoal",,"Erbaba Höyük","TR",31.68,37.77,"3"
"Bln-4968",7979,45,"charcoal",,"Es Sifiya","JO",35.8224,31.4393,"1"
"Bln-4969",8024,44,"charcoal",,"Es Sifiya","JO",35.8224,31.4393,"1"
"Bln-4970",7921,48,"charcoal",,"Es Sifiya","JO",35.8224,31.4393,"1"
"Bln-4971",8001,44,"charcoal",,"Es Sifiya","JO",35.8224,31.4393,"1"
"Bln-4972",7990,48,"charcoal",,"Es Sifiya","JO",35.8224,31.4393,"1"
"Bln-4973",8040,44,"charcoal",,"Es Sifiya","JO",35.8224,31.4393,"1"
"ISGS-3279",7930,70,,,"Es Sifiya","JO",35.8224,31.4393,"1"
"GrN-9831",8170,100,,,"Es Sinn","SY",40.35,35.27,"2"
"GrN-9832",8280,40,,,"Es Sinn","SY",40.35,35.27,"2"
"GrN-9833",8650,50,,,"Es Sinn","SY",40.35,35.27,"2"
"AA-30508",7710,85,"bone (charred)","animal","Feyda","SY",40.35,36.65,"2"
"AA-30509",7945,85,"bone (charred)","animal","Feyda","SY",40.35,36.65,"2"
"SMU-905",11985,109,,,"Gebel Mishraq","JO",35.36,30.03,"1"
"OxA-5053",8550,110,"charcoal",,"Gesher","IL",35.5556,32.6028,"1"
"Pta-4553",10020,100,"charcoal",,"Gesher","IL",35.5556,32.6028,"1"
"Pta-4595",9870,80,"charcoal",,"Gesher","IL",35.5556,32.6028,"1"
"RT-814A",10590,140,"charcoal",,"Gesher","IL",35.5556,32.6028,"1"
"RT-868A",9820,140,"charcoal",,"Gesher","IL",35.5556,32.6028,"1"
"RT-868B",9790,140,"charcoal",,"Gesher","IL",35.5556,32.6028,"1"
"Beta-140757",8390,50,,,"Ghuwayr 1","JO",35.5061,30.6231,"1"
"Beta-140758",8620,50,,,"Ghuwayr 1","JO",35.5061,30.6231,"1"
"Beta-140759",8610,50,,,"Ghuwayr 1","JO",35.5061,30.6231,"1"
"DRI-3251",8806,52,"charcoal",,"Ghuwayr 1","JO",35.5061,30.6231,"1"
"DRI-3252",8880,117,"charcoal",,"Ghuwayr 1","JO",35.5061,30.6231,"1"
"DRI-3253",9027,116,"charcoal",,"Ghuwayr 1","JO",35.5061,30.6231,"1"
"DRI-3254",8659,178,"charcoal",,"Ghuwayr 1","JO",35.5061,30.6231,"1"
"DRI-3255",8755,111,,,"Ghuwayr 1","JO",35.5061,30.6231,"1"
"DRI-3256",8754,52,"charcoal",,"Ghuwayr 1","JO",35.5061,30.6231,"1"
"Hd-17219-17541",8812,61,"charcoal",,"Ghuwayr 1","JO",35.5061,30.6231,"1"
"Hd-17220-17550",8627,46,"charcoal",,"Ghuwayr 1","JO",35.5061,30.6231,"1"
"Hd-17221-17359",8528,89,"charcoal",,"Ghuwayr 1","JO",35.5061,30.6231,"1"
"ISGS-4325",8590,70,,,"Ghuwayr 1","JO",35.5061,30.6231,"1"
"ISGS-4330",8870,70,,,"Ghuwayr 1","JO",35.5061,30.6231,"1"
"ISGS-4331",8510,70,,,"Ghuwayr 1","JO",35.5061,30.6231,"1"
"ISGS-4332",8570,70,,,"Ghuwayr 1","JO",35.5061,30.6231,"1"
"ISGS-4333",8620,70,,,"Ghuwayr 1","JO",35.5061,30.6231,"1"
"ISGS-4364",8690,70,,,"Ghuwayr 1","JO",35.5061,30.6231,"1"
"ISGS-4365",8530,100,,,"Ghuwayr 1","JO",35.5061,30.6231,"1"
"ISGS-4366",9710,150,,,"Ghuwayr 1","JO",35.5061,30.6231,"1"
"Gd-10132",9570,120,"charcoal",,"Gilgal","PS",35.4756,32.0328,"1"
"Gd-10133",8830,150,"wood",,"Gilgal","PS",35.4756,32.0328,"1"
"Pta-4583",9830,80,"charcoal",,"Gilgal","PS",35.4756,32.0328,"1"
"Pta-4585",9710,70,"charcoal",,"Gilgal","PS",35.4756,32.0328,"1"
"Pta-4588",9920,70,"charcoal",,"Gilgal","PS",35.4756,32.0328,"1"
"RT-4015",9720,80,"wood",,"Gilgal","PS",35.4756,32.0328,"1"
"RT-4016",9710,90,"wood",,"Gilgal","PS",35.4756,32.0328,"1"
"RT-4017",9850,100,"wood",,"Gilgal","PS",35.4756,32.0328,"1"
"RT-4018",9770,120,"wood",,"Gilgal","PS",35.4756,32.0328,"1"
"RT-4019",9760,90,"wood",,"Gilgal","PS",35.4756,32.0328,"1"
"RT-4020",9820,80,"wood",,"Gilgal","PS",35.4756,32.0328,"1"
"RT-4021",9900,70,"wood",,"Gilgal","PS",35.4756,32.0328,"1"
"RT-4023",9780,100,"nutshells","Quercus","Gilgal","PS",35.4756,32.0328,"1"
"RT-4024",10150,100,"wood",,"Gilgal","PS",35.4756,32.0328,"1"
"RT-4025",10210,100,"wood",,"Gilgal","PS",35.4756,32.0328,"1"
"RT-4026",10030,100,"wood",,"Gilgal","PS",35.4756,32.0328,"1"
"RT-4027",9320,100,"charcoal",,"Gilgal","PS",35.4756,32.0328,"1"
"RT-4080",9900,60,"seeds",,"Gilgal","PS",35.4756,32.0328,"1"
"RT-4081",9840,60,"seeds",,"Gilgal","PS",35.4756,32.0328,"1"
"RT-4082",9860,60,"seeds",,"Gilgal","PS",35.4756,32.0328,"1"
"RT-777",9950,150,"charcoal",,"Gilgal","PS",35.4756,32.0328,"1"
"RT-777A",9950,150,"charcoal/seeds (charred)","Hordeum vulgare?","Gilgal","PS",35.4756,32.0328,"1"
"RTT-4016",9710,90,"wood",,"Gilgal","PS",35.4756,32.0328,"1"
"RTT-4017",9850,100,"wood",,"Gilgal","PS",35.4756,32.0328,"1"
"RTT-4018",9770,120,"wood",,"Gilgal","PS",35.4756,32.0328,"1"
"RTT-4019",9760,90,"wood",,"Gilgal","PS",35.4756,32.0328,"1"
"RTT-4020",9820,80,"wood",,"Gilgal","PS",35.4756,32.0328,"1"
"RTT-4021",9900,70,"charcoal (bulk,ash)",,"Gilgal","PS",35.4756,32.0328,"1"
"RTT-4023",9780,100,"nutshells","Quercus","Gilgal","PS",35.4756,32.0328,"1"
"RTT-4024",10150,100,"wood",,"Gilgal","PS",35.4756,32.0328,"1"
"RTT-4025",10210,100,"wood",,"Gilgal","PS",35.4756,32.0328,"1"
"RTT-4026",10030,100,"wood",,"Gilgal","PS",35.4756,32.0328,"1"
"RTT-4080",9900,60,"seeds",,"Gilgal","PS",35.4756,32.0328,"1"
"RTT-4081",9840,60,"seeds",,"Gilgal","PS",35.4756,32.0328,"1"
"RTT-4082",9860,60,"seeds",,"Gilgal","PS",35.4756,32.0328,"1"
"Hd-20025",9452,73,"seed (charred)","Pistacia/Amygalus","Göbekli Tepe","TR",38.9225,37.2231,"2"
"Hd-20036",9559,53,"seed (charred)","Pistacia/Amygalus","Göbekli Tepe","TR",38.9225,37.2231,"2"
"KIA-28407",9250,55,"charcoal",,"Göbekli Tepe","TR",38.9225,37.2231,"2"
"KIA-38007",9065,35,"bone",,"Göbekli Tepe","TR",38.9225,37.2231,"2"
"KIA-38008",8930,45,"bone (apatite)",,"Göbekli Tepe","TR",38.9225,37.2231,"2"
"KIA-42204",8475,60,"bone (apatite)",,"Göbekli Tepe","TR",38.9225,37.2231,"2"
"KIA-42205",9000,65,"bone (apatite)",,"Göbekli Tepe","TR",38.9225,37.2231,"2"
"KIA-42207",7830,35,"bone (apatite)",,"Göbekli Tepe","TR",38.9225,37.2231,"2"
"KIA-42208",8380,40,"bone (apatite)",,"Göbekli Tepe","TR",38.9225,37.2231,"2"
"KIA-42210",8370,35,"bone (apatite)",,"Göbekli Tepe","TR",38.9225,37.2231,"2"
"KIA-42211",7985,45,"bone (apatite)",,"Göbekli Tepe","TR",38.9225,37.2231,"2"
"KIA-42212",8665,45,"bone (apatite)",,"Göbekli Tepe","TR",38.9225,37.2231,"2"
"KIA-42213",8860,80,"bone (apatite)",,"Göbekli Tepe","TR",38.9225,37.2231,"2"
"KIA-42214",8115,60,"bone (apatite)",,"Göbekli Tepe","TR",38.9225,37.2231,"2"
"KIA-42216",7735,40,"bone (apatite)",,"Göbekli Tepe","TR",38.9225,37.2231,"2"
"KIA-42217",8860,50,"bone (apatite)",,"Göbekli Tepe","TR",38.9225,37.2231,"2"
"KIA-42218",8959,65,"bone (apatite)",,"Göbekli Tepe","TR",38.9225,37.2231,"2"
"KIA-42219",9120,50,"bone (apatite)",,"Göbekli Tepe","TR",38.9225,37.2231,"2"
"KIA-42221",9230,130,"bone (apatite)",,"Göbekli Tepe","TR",38.9225,37.2231,"2"
"KIA-44149",9984,42,"charcoal",,"Göbekli Tepe","TR",38.9225,37.2231,"2"
"KIA-44701",9800,120,"tooth","Bos","Göbekli Tepe","TR",38.9225,37.2231,"2"
"UGAMS-10795",9970,30,"charcoal","Pistacea atlantica","Göbekli Tepe","TR",38.9225,37.2231,"2"
"UGAMS-10796",9990,30,"charcoal","Pistacea atlantica","Göbekli Tepe","TR",38.9225,37.2231,"2"
"UGAMS-10797",9700,30,"charcoal","Pistacea atlantica","Göbekli Tepe","TR",38.9225,37.2231,"2"
"UGAMS-10798",9540,30,,,"Göbekli Tepe","TR",38.9225,37.2231,"2"
"UGAMS-10799",9960,30,"charcoal","Pistacea atlantica","Göbekli Tepe","TR",38.9225,37.2231,"2"
"Beta-13216",8610,90,"charcoal","Pistacia","Gritille","TR",38.5654,37.5492,"2"
"Beta-13217",8460,180,"charcoal",,"Gritille","TR",38.5654,37.5492,"2"
"Beta-13218",7950,120,"charcoal",,"Gritille","TR",38.5654,37.5492,"2"
"Beta-8240",7770,150,"charcoal",,"Gritille","TR",38.5654,37.5492,"2"
"Beta-8241",7860,80,"charcoal",,"Gritille","TR",38.5654,37.5492,"2"
"GrN-15246",8700,150,"charcoal","Quercus,Fraxinus,Ulmaceae","Gritille","TR",38.5654,37.5492,"2"
"GrN-15247",8075,40,"charcoal",,"Gritille","TR",38.5654,37.5492,"2"
"GrN-15248",8280,100,"charcoal",,"Gritille","TR",38.5654,37.5492,"2"
"GrN-15249",8190,140,"charcoal",,"Gritille","TR",38.5654,37.5492,"2"
"GrN-15250",8230,100,"charcoal",,"Gritille","TR",38.5654,37.5492,"2"
"GrN-15251",8790,150,"charcoal",,"Gritille","TR",38.5654,37.5492,"2"
"GrN-15252",8820,150,"charcoal",,"Gritille","TR",38.5654,37.5492,"2"
"GrN-15253",8600,150,"charcoal",,"Gritille","TR",38.5654,37.5492,"2"
"GrN-15255",8000,50,"charcoal","Quercus,Pistacia","Gritille","TR",38.5654,37.5492,"2"
"BM-125",7770,180,"charcoal",,"Hacılar","TR",30.0833,37.5833,"3"
"BM-127",8700,180,"charcoal",,"Hacılar","TR",30.0833,37.5833,"3"
"BM-48",7550,180,"charcoal","Juniperus","Hacılar","TR",30.0833,37.5833,"3"
,7562,85,,,"Hagoshrim","IL",35.62,33.22,"1"
,7562,85,,,"Hagoshrim","IL",35.62,33.22,"1"
,7735,55,,,"Hagoshrim","IL",35.62,33.22,"1"
"Beta-46647",10040,160,"charcoal",,"Hallan Çemi Tepesi","TR",41.2389,38.2272,"2"
"Beta-47211",10060,120,"charcoal",,"Hallan Çemi Tepesi","TR",41.2389,38.2272,"2"
"Beta-55049",10050,80,"charcoal",,"Hallan Çemi Tepesi","TR",41.2389,38.2272,"2"
"Beta-55050",9840,50,"charcoal",,"Hallan Çemi Tepesi","TR",41.2389,38.2272,"2"
"Beta-55051",10500,170,"charcoal",,"Hallan Çemi Tepesi","TR",41.2389,38.2272,"2"
"Beta-55052",10590,170,"charcoal",,"Hallan Çemi Tepesi","TR",41.2389,38.2272,"2"
"Beta-66850",9510,200,"charcoal",,"Hallan Çemi Tepesi","TR",41.2389,38.2272,"2"
"Beta-66852",9600,180,"charcoal",,"Hallan Çemi Tepesi","TR",41.2389,38.2272,"2"
"Beta-66854",9930,110,"charcoal",,"Hallan Çemi Tepesi","TR",41.2389,38.2272,"2"
"Beta-66855",10060,90,"charcoal",,"Hallan Çemi Tepesi","TR",41.2389,38.2272,"2"
"Beta-66856",9870,110,"charcoal",,"Hallan Çemi Tepesi","TR",41.2389,38.2272,"2"
"Beta-66858",10320,110,"charcoal",,"Hallan Çemi Tepesi","TR",41.2389,38.2272,"2"
"Beta-67462",10520,190,"charcoal",,"Hallan Çemi Tepesi","TR",41.2389,38.2272,"2"
"Beta-67463",9890,90,"charcoal",,"Hallan Çemi Tepesi","TR",41.2389,38.2272,"2"
"Beta-67464",10000,80,"charcoal",,"Hallan Çemi Tepesi","TR",41.2389,38.2272,"2"
"OxA-12298",9980,60,"seed (charred)","Pistacia","Hallan Çemi Tepesi","TR",41.2389,38.2272,"2"
"OxA-12299",10020,45,"seed (charred)","Lathyrus/Vicia","Hallan Çemi Tepesi","TR",41.2389,38.2272,"2"
"OxA-12328",9960,45,"seed (charred)","Pistacia","Hallan Çemi Tepesi","TR",41.2389,38.2272,"2"
"OxA-12329",10085,45,"seed (charred)","Pisum/Vicia","Hallan Çemi Tepesi","TR",41.2389,38.2272,"2"
"OxA-12330",9980,45,"seed (charred)","Amygdalus","Hallan Çemi Tepesi","TR",41.2389,38.2272,"2"
"OxA-12331",9975,45,"seed (charred)","Amygdalus","Hallan Çemi Tepesi","TR",41.2389,38.2272,"2"
"OxA-12332",9935,45,"seed (charred)","Pisum/Vicia","Hallan Çemi Tepesi","TR",41.2389,38.2272,"2"
"OxA-12333",10050,45,"seed (charred)","Lathyrus/Vicia","Hallan Çemi Tepesi","TR",41.2389,38.2272,"2"
"OxA-12334",9970,45,"seed (charred)","Scirpus maritimus","Hallan Çemi Tepesi","TR",41.2389,38.2272,"2"
"OxA-12335",9995,40,"seed (charred)","Lathyrus/Vicia","Hallan Çemi Tepesi","TR",41.2389,38.2272,"2"
"OxA-12336",10020,40,"seed (charred)","Pistacia","Hallan Çemi Tepesi","TR",41.2389,38.2272,"2"
"OxA-12337",9965,40,"seed (charred)","Pisum/Vicia","Hallan Çemi Tepesi","TR",41.2389,38.2272,"2"
"OxA-12338",9970,40,"seed (charred)","Pisum/Vicia","Hallan Çemi Tepesi","TR",41.2389,38.2272,"2"
"OxA-12339",9955,40,"seed (charred)","Lathyrus/Vicia","Hallan Çemi Tepesi","TR",41.2389,38.2272,"2"
"OxA-12340",9980,40,"seed (charred)","Amygdalus","Hallan Çemi Tepesi","TR",41.2389,38.2272,"2"
"OxA-12341",10045,45,"seeds (charred)","Amygdalus","Hallan Çemi Tepesi","TR",41.2389,38.2272,"2"
"OxA-12769",10010,40,"seeds (charred)","Lathyrus/Vicia","Hallan Çemi Tepesi","TR",41.2389,38.2272,"2"
"OxA-12878",9535,75,"seeds (charred)","Lathyrus/Vicia","Hallan Çemi Tepesi","TR",41.2389,38.2272,"2"
"OxA-12879",9560,100,"seeds (charred)","Lathyrus/Vicia","Hallan Çemi Tepesi","TR",41.2389,38.2272,"2"
"OxA-2143",16230,200,"charcoal",,"Hamifgash IV","IL",34.5833,31.1833,"1"
"MTC-16066",9860,82,,,"Hasankeyf Höyük","TR",41.439,37.7069,"2"
"MTC-16067",9827,69,,,"Hasankeyf Höyük","TR",41.439,37.7069,"2"
"MTC-16068",9920,83,,,"Hasankeyf Höyük","TR",41.439,37.7069,"2"
"MTC-16069",9652,77,,,"Hasankeyf Höyük","TR",41.439,37.7069,"2"
"MTC-16070",10006,83,,,"Hasankeyf Höyük","TR",41.439,37.7069,"2"
"MTC-16071",9597,66,,,"Hasankeyf Höyük","TR",41.439,37.7069,"2"
"MTC-16072",9828,76,,,"Hasankeyf Höyük","TR",41.439,37.7069,"2"
"MTC-16073",9674,72,,,"Hasankeyf Höyük","TR",41.439,37.7069,"2"
"MTC-16074",9527,71,,,"Hasankeyf Höyük","TR",41.439,37.7069,"2"
"MTC-16075",9708,77,,,"Hasankeyf Höyük","TR",41.439,37.7069,"2"
"MTC-16076",9778,69,,,"Hasankeyf Höyük","TR",41.439,37.7069,"2"
"MTC-16077",9916,82,,,"Hasankeyf Höyük","TR",41.439,37.7069,"2"
"MTC-16078",9831,90,,,"Hasankeyf Höyük","TR",41.439,37.7069,"2"
"MTC-16079",9784,95,,,"Hasankeyf Höyük","TR",41.439,37.7069,"2"
"MTC-16080",9733,68,,,"Hasankeyf Höyük","TR",41.439,37.7069,"2"
"GifA-91138",8890,120,"bone",,"Hatoula","PS",34.9876,31.8257,"1"
"GifA-91139",10170,120,"bone",,"Hatoula","PS",34.9876,31.8257,"1"
"GifA-91141",11020,120,"bone",,"Hatoula","PS",34.9876,31.8257,"1"
"GifA-91360",10030,140,"bone",,"Hatoula","PS",34.9876,31.8257,"1"
"GrN-12510",8300,60,"charcoal",,"Hayaz Höyük","TR",38.28,37.57,"2"
"GrN-12512",8040,170,"charcoal",,"Hayaz Höyük","TR",38.28,37.57,"2"
"RTT-6129.1",12260,70,"charcoal",,"Hayonim Cave","IL",35.2167,32.9217,"1"
"RTT-6130.1",12470,70,"charcoal",,"Hayonim Cave","IL",35.2167,32.9217,"1"
"RTT-6130.2",12210,70,"charcoal",,"Hayonim Cave","IL",35.2167,32.9217,"1"
"OxA-742",12360,160,"seeds (charred)","Leguminosae","Hayonim Cave B","IL",35.2167,32.9217,"1"
"OxA-743",12010,180,"seeds (charred)","Lupinus","Hayonim Cave B","IL",35.2167,32.9217,"1"
"Hv-4074",12250,65,"charcoal",,"Hayonim Terrace","IL",35.2167,32.9217,"1"
"OxA-1899",10000,100,"grain (charred)","Hordeum vulgare","Hayonim Terrace","IL",35.2167,32.9217,"1"
"OxA-2569",11220,110,"bone (charred)",,"Hayonim Terrace","IL",35.2167,32.9217,"1"
"OxA-2570",11820,120,"bone (charred)",,"Hayonim Terrace","IL",35.2167,32.9217,"1"
"OxA-2571",9640,100,"bone/charcoal",,"Hayonim Terrace","IL",35.2167,32.9217,"1"
"OxA-2572",11460,110,"bone (charred)",,"Hayonim Terrace","IL",35.2167,32.9217,"1"
"OxA-2573",10100,160,"bone (charred)",,"Hayonim Terrace","IL",35.2167,32.9217,"1"
"OxA-2975",11790,120,"bone (charred)",,"Hayonim Terrace","IL",35.2167,32.9217,"1"
"OxA-2976",14050,140,"bone/charcoal",,"Hayonim Terrace","IL",35.2167,32.9217,"1"
"OxA-2977",11720,120,"bone (charred)",,"Hayonim Terrace","IL",35.2167,32.9217,"1"
"SMU-231",11920,90,"charcoal",,"Hayonim Terrace","IL",35.2167,32.9217,"1"
"RTT-3760",10750,50,"charcoal",,"Hilazon Tachtit","IL",35.306,32.8781,"1"
"RTT-4592",10530,60,"charcoal",,"Hilazon Tachtit","IL",35.306,32.8781,"1"
"RTT-4593",10770,65,"charcoal",,"Hilazon Tachtit","IL",35.306,32.8781,"1"
"RT-1396",8950,100,"charcoal",,"Horvat Galil","IL",35.32,32.96,"1"
"RT-1397",9340,70,"charcoal",,"Horvat Galil","IL",35.32,32.96,"1"
"Hd-",7540,45,"charcoal",,"Höyücek","TR",30.5899,37.4565,"3"
"Hd-14218-14002",7551,46,"charcoal",,"Höyücek","TR",30.5899,37.4565,"3"
"Hd-14219-14007",7556,45,"charcoal",,"Höyücek","TR",30.5899,37.4565,"3"
"AA-38140",9592,64,"charcoal",,"Iraq ed Dubb","JO",35.7158,32.3908,"1"
"AA-38145",9941,72,"charcoal",,"Iraq ed Dubb","JO",35.7158,32.3908,"1"
"AA-38278",10657,82,"seed (charred)","Pistacia/Amygalus","Iraq ed Dubb","JO",35.7158,32.3908,"1"
"AA-38279",10723,68,"charcoal","Pistacia/Amygalus","Iraq ed Dubb","JO",35.7158,32.3908,"1"
"GX-17077",11145,120,"charcoal",,"Iraq ed Dubb","JO",35.7158,32.3908,"1"
"OxA-17077",9959,100,"charcoal",,"Iraq ed Dubb","JO",35.7158,32.3908,"1"
"OxA-2567",9950,100,"charcoal",,"Iraq ed Dubb","JO",35.7158,32.3908,"1"
"Hv-2597",7730,115,"charcoal",,"Iraq el-Barud","IL",34.9789,32.7389,"1"
"Hv-3368",9395,130,"charcoal",,"Iraq el-Barud","SY",34.9789,32.7389,"1"
"KN-1336",9120,85,"charcoal",,"Iraq el-Barud","IL",34.9789,32.7389,"1"
"KNI-366",9120,85,,,"Iraq el-Barud","SY",34.9789,32.7389,"1"
"Pta-3376",8050,80,"charcoal",,"Issaron","IL",35.03,29.9,"1"
"Pta-3377",8180,80,"charcoal",,"Issaron","IL",35.03,29.9,"1"
"RT-1507",8080,90,"charcoal",,"Issaron","IL",35.03,29.9,"1"
"GrN-6353",7655,75,"ceramic (organic temper)",,"Jarmo","IQ",44.9503,35.5489,"2"
"Hd-551-491",8525,175,"charcoal",,"Jarmo","IQ",44.9503,35.5489,"2"
"UCLA-1714E",7980,140,"bone","Equus asinus","Jarmo","IQ",44.9503,35.5489,"2"
"UCLA-1723A",7800,120,"bone","Ovis","Jarmo","IQ",44.9503,35.5489,"2"
"W-651",8830,200,"charcoal",,"Jarmo","IQ",44.9503,35.5489,"2"
"W-652",7950,200,"charcoal",,"Jarmo","IQ",44.9503,35.5489,"2"
"Beta-71866",9740,60,,,"Jerf el Ahmar","SY",38.2083,36.3917,"2"
"Beta-71870",9810,60,,,"Jerf el Ahmar","SY",38.2083,36.3917,"2"
"Ly-10647",9395,55,"charcoal",,"Jerf el Ahmar","SY",38.2083,36.3917,"2"
"Ly-10648",9855,70,"charcoal",,"Jerf el Ahmar","SY",38.2083,36.3917,"2"
"Ly-10649",9445,75,"charcoal",,"Jerf el Ahmar","SY",38.2083,36.3917,"2"
"Ly-10650",9065,95,"charcoal",,"Jerf el Ahmar","SY",38.2083,36.3917,"2"
"Ly-10651",9965,55,"charcoal",,"Jerf el Ahmar","SY",38.2083,36.3917,"2"
"Ly-10652",9705,135,"charcoal",,"Jerf el Ahmar","SY",38.2083,36.3917,"2"
"Ly-10653",9810,55,"charcoal",,"Jerf el Ahmar","SY",38.2083,36.3917,"2"
"Ly-1578",9440,60,"grain","Cerealia","Jerf el Ahmar","SY",38.2083,36.3917,"2"
"Ly-1579",9620,60,"seeds","Brassica/Sinapis","Jerf el Ahmar","SY",38.2083,36.3917,"2"
"Ly-2332",9570,70,"grain","Cerealia","Jerf el Ahmar","SY",38.2083,36.3917,"2"
"Ly-2333",9815,70,"grain","Cerealia","Jerf el Ahmar","SY",38.2083,36.3917,"2"
"Ly-2334",9980,70,"grain","Cerealia","Jerf el Ahmar","SY",38.2083,36.3917,"2"
"Ly-2335",10280,70,"grain","Cerealia","Jerf el Ahmar","SY",38.2083,36.3917,"2"
"Ly-2336",9545,70,"grain","Cerealia","Jerf el Ahmar","SY",38.2083,36.3917,"2"
"Ly-2337",9900,70,"grain","Cerealia","Jerf el Ahmar","SY",38.2083,36.3917,"2"
"Ly-2597",9960,70,"grain","Cerealia","Jerf el Ahmar","SY",38.2083,36.3917,"2"
"Ly-2598",9715,65,"grain","Cerealia","Jerf el Ahmar","SY",38.2083,36.3917,"2"
"Ly-2599",9890,60,"grain","Cerealia","Jerf el Ahmar","SY",38.2083,36.3917,"2"
"Ly-2600",10595,75,"grain","Cerealia","Jerf el Ahmar","SY",38.2083,36.3917,"2"
"Ly-2601",9580,65,"grain","Cerealia","Jerf el Ahmar","SY",38.2083,36.3917,"2"
"Ly-2602",9835,70,"grain","Cerealia","Jerf el Ahmar","SY",38.2083,36.3917,"2"
"Ly-275",9790,80,,,"Jerf el Ahmar","SY",38.2083,36.3917,"2"
"Ly-2809",9835,55,"grain","Cerealia","Jerf el Ahmar","SY",38.2083,36.3917,"2"
"Ly-7489",9680,90,"charcoal",,"Jerf el Ahmar","SY",38.2083,36.3917,"2"
"BM-105",10250,200,"charcoal",,"Jericho","PS",35.4439,31.8711,"1"
"BM-106",10300,200,"charcoal",,"Jericho","PS",35.4439,31.8711,"1"
"BM-110",10180,200,"charcoal",,"Jericho","PS",35.4439,31.8711,"1"
"BM-115",9170,200,"charcoal",,"Jericho","PS",35.4439,31.8711,"1"
"BM-1320",8539,64,"charcoal",,"Jericho","PS",35.4439,31.8711,"1"
"BM-1321",9226,76,"charcoal",,"Jericho","PS",35.4439,31.8711,"1"
"BM-1322",9376,85,"charcoal",,"Jericho","PS",35.4439,31.8711,"1"
"BM-1323",9382,83,"charcoal",,"Jericho","PS",35.4439,31.8711,"1"
"BM-1324",9427,83,"charcoal",,"Jericho","PS",35.4439,31.8711,"1"
"BM-1327",9551,63,"charcoal",,"Jericho","PS",35.4439,31.8711,"1"
"BM-1407",11086,90,"charcoal",,"Jericho","PS",35.4439,31.8711,"1"
"BM-1769R",8930,150,"charcoal",,"Jericho","PS",35.4439,31.8711,"1"
"BM-1770R",8910,120,"charcoal",,"Jericho","PS",35.4439,31.8711,"1"
"BM-1772R",9040,140,"charcoal",,"Jericho","PS",35.4439,31.8711,"1"
"BM-1773R",8960,130,"charcoal",,"Jericho","PS",35.4439,31.8711,"1"
"BM-1787R",9510,140,"charcoal",,"Jericho","PS",35.4439,31.8711,"1"
"BM-1789R",9420,120,"charcoal",,"Jericho","PS",35.4439,31.8711,"1"
"BM-1793R",8890,170,"charcoal",,"Jericho","PS",35.4439,31.8711,"1"
"BM-251",9390,150,"charcoal",,"Jericho","PS",35.4439,31.8711,"1"
"BM-252",9320,150,"charcoal",,"Jericho","PS",35.4439,31.8711,"1"
"BM-253",8710,150,"charcoal",,"Jericho","PS",35.4439,31.8711,"1"
"GL-28",8200,200,"charcoal",,"Jericho","PS",35.4439,31.8711,"1"
"GL-36",8390,200,"charcoal",,"Jericho","PS",35.4439,31.8711,"1"
"GL-38",7800,160,"charcoal",,"Jericho","PS",35.4439,31.8711,"1"
"GL-39",8800,160,"charcoal",,"Jericho","PS",35.4439,31.8711,"1"
"GL-39",8870,150,"charcoal",,"Jericho","PS",35.4439,31.8711,"1"
"GL-40",8690,150,"charcoal",,"Jericho","PS",35.4439,31.8711,"1"
"GL-41",8670,150,"charcoal",,"Jericho","PS",35.4439,31.8711,"1"
"GL-42",8700,200,"charcoal",,"Jericho","PS",35.4439,31.8711,"1"
"GL-43",8895,150,"charcoal",,"Jericho","PS",35.4439,31.8711,"1"
"GL-70",10800,180,"charcoal",,"Jericho","PS",35.4439,31.8711,"1"
"GrN-942",9140,70,"charcoal",,"Jericho","PS",35.4439,31.8711,"1"
"GrN-963",9025,100,"charcoal",,"Jericho","PS",35.4439,31.8711,"1"
"Gro-942",8900,70,"charcoal",,"Jericho","PS",35.4439,31.8711,"1"
"Gro-963",8785,100,"charcoal",,"Jericho","PS",35.4439,31.8711,"1"
"P-376",11166,107,"charcoal",,"Jericho","PS",35.4439,31.8711,"1"
"P-377",9582,89,"charcoal",,"Jericho","PS",35.4439,31.8711,"1"
"P-378",9775,110,"charcoal",,"Jericho","PS",35.4439,31.8711,"1"
"P-379",9655,84,"charcoal",,"Jericho","PS",35.4439,31.8711,"1"
"P-380",8610,75,"charcoal",,"Jericho","PS",35.4439,31.8711,"1"
"P-381",8658,101,"charcoal",,"Jericho","PS",35.4439,31.8711,"1"
"P-382",8956,103,"charcoal",,"Jericho","PS",35.4439,31.8711,"1"
"OxA-8407",15860,100,"charcoal",,"Karain Magarasi","TR",30.5708,37.0776,"3"
"OxA-9264",15920,100,"charcoal",,"Karain Magarasi","TR",30.5708,37.0778,"3"
"OxA-9265",16740,100,"charcoal",,"Karain Magarasi","TR",30.5708,37.0778,"3"
"OxA-9266",16750,90,"charcoal",,"Karain Magarasi","TR",30.5708,37.0778,"3"
"Hd-10028-10227",11250,200,"bone",,"Karain Mağarası","TR",30.5708,37.0778,"3"
"Hd-10819-10748",7710,115,"charcoal",,"Karain Mağarası","TR",30.5708,37.0778,"3"
"OxA-8406",14600,100,"charcoal",,"Karain Mağarası","TR",30.5708,37.0778,"3"
"TK-803",7730,90,"charcoal",,"Kashkashok II","SY",40.6447,36.6408,"2"
"TK-859",7880,110,"charcoal",,"Kashkashok II","SY",40.6447,36.6408,"2"
"OxA-2798",12470,180,"bone",,"Kebara Cave","IL",34.9373,32.5583,"1"
"RTT-3733.1",8650,50,,,"Kfar HaHoresh","IL",35.2744,32.7056,"1"
"OxA-22273",15890,90,"charcoal","Chenopodiaceae","Kharaneh IV","JO",36.4542,31.7237,"1"
"OxA-22274",15770,80,"charcoal","dicot","Kharaneh IV","JO",36.4542,31.7237,"1"
"OxA-22275",16145,75,"charcoal","dicot","Kharaneh IV","JO",36.4542,31.7237,"1"
"OxA-22287",15980,60,"charcoal","Chenopodiaceae","Kharaneh IV","JO",36.4542,31.7237,"1"
"OxA-22288",16275,60,"charcoal","Chenopodiaceae","Kharaneh IV","JO",36.4542,31.7237,"1"
"OxA-22289",16300,65,"charcoal","dicot","Kharaneh IV","JO",36.4542,31.7237,"1"
"OxA-22290",16200,65,"charcoal","Chenopodiaceae","Kharaneh IV","JO",36.4542,31.7237,"1"
"Q-3072",9840,120,"bone",,"Kharaneh IV","JO",36.45,31.73,"1"
"Q-3073",10620,125,"bone",,"Kharaneh IV","JO",36.45,31.73,"1"
"Q-3074",12200,140,"bone",,"Kharaneh IV","JO",36.45,31.73,"1"
"Q-3075",13970,150,"bone",,"Kharaneh IV","JO",36.45,31.73,"1"
"Beta-221347",8310,40,"charcoal",,"Khirbet Hammam","JO",35.6658,30.9842,"1"
"Beta-223148",8440,40,"charcoal",,"Khirbet Hammam","JO",35.6658,30.9842,"1"
"GrN-26146",8120,60,"charcoal",,"Khirbet Hammam","JO",35.6658,30.9842,"1"
"GrN-26147",8370,40,"charcoal",,"Khirbet Hammam","JO",35.6658,30.9842,"1"
"GX-26146",8120,60,"charcoal",,"Khirbet Hammam","JO",35.6658,30.9842,"1"
"GX-26147",8370,40,"charcoal",,"Khirbet Hammam","JO",35.6658,30.9842,"1"
"GifA-100396",9030,80,,,"Kömürcü-Kaletepe","TR",34.5758,38.2845,"3"
"GifA-100631",9000,90,,,"Kömürcü-Kaletepe","TR",34.5758,38.2845,"3"
"GifA-99090",8850,90,"charcoal",,"Kömürcü-Kaletepe","TR",34.5758,38.2845,"3"
"Beta-178241",8370,40,"bone","animal","Körtik Tepe","TR",40.9839,37.8144,"2"
"Beta-178242",9870,40,"bone","animal","Körtik Tepe","TR",40.9839,37.8144,"2"
"ETH-38848",9985,40,"charcoal","Quercus","Körtik Tepe","TR",40.9839,37.8144,"2"
"ETH-38849",10065,40,"charcoal","Quercus","Körtik Tepe","TR",40.9839,37.8144,"2"
"ETH-38850",10035,40,"charcoal","Pistacia","Körtik Tepe","TR",40.9839,37.8144,"2"
"ETH-38851",10075,40,"charcoal","Tamarix","Körtik Tepe","TR",40.9839,37.8144,"2"
"ETH-38852",9965,45,"charcoal","Tamarix","Körtik Tepe","TR",40.9839,37.8144,"2"
"ETH-38853",10015,45,"charcoal","Amygdalus","Körtik Tepe","TR",40.9839,37.8144,"2"
"ETH-38854",10000,40,"charcoal","Populus","Körtik Tepe","TR",40.9839,37.8144,"2"
"ETH-38855",10040,40,"charcoal",,"Körtik Tepe","TR",40.9839,37.8144,"2"
"ETH-39509",9960,60,"charcoal","Populus/Salix","Körtik Tepe","TR",40.9839,37.8144,"2"
"ETH-39510",9925,45,"charcoal","Tamarix","Körtik Tepe","TR",40.9839,37.8144,"2"
"ETH-39511",10100,60,"charcoal","Rhamnus","Körtik Tepe","TR",40.9839,37.8144,"2"
"ETH-39512",9955,45,"charcoal","Tamarix","Körtik Tepe","TR",40.9839,37.8144,"2"
"ETH-45333",10155,50,"charcoal",,"Körtik Tepe","TR",40.9839,37.8144,"2"
"ETH-45334",10205,40,"charcoal","Populus/Salix","Körtik Tepe","TR",40.9839,37.8144,"2"
"ETH-45335",10330,70,"charcoal","Populus/Salix","Körtik Tepe","TR",40.9839,37.8144,"2"
"ETH-45336",10270,95,"charcoal",,"Körtik Tepe","TR",40.9839,37.8144,"2"
"ETH-45340",10030,40,"plant matter","dicot","Körtik Tepe","TR",40.9839,37.8144,"2"
"ETH-45341",10015,40,"plant matter","Vitis","Körtik Tepe","TR",40.9839,37.8144,"2"
"ETH-45342",9835,35,"charcoal","Populus/Salix","Körtik Tepe","TR",40.9839,37.8144,"2"
"ETH-45344",10090,40,"charcoal (bark)",,"Körtik Tepe","TR",40.9839,37.8144,"2"
"KIA-44648",10250,60,"grain","Secale cereale;Secale","Körtik Tepe","TR",40.9838,37.8144,"2"
"KIA-44863",9815,45,"grain","Secale cereale;Secale","Körtik Tepe","TR",40.9838,37.8144,"2"
"KIA-44864",10252,60,"grain","Secale cereale","Körtik Tepe","TR",40.9839,37.8144,"2"
"GrN-12652",7930,80,"charcoal",,"Kumartepe","TR",38.5,37.5,"2"
"K-1428",7860,140,"charcoal",,"Labweh","LB",36.35,34.15,"1"
"K-1429",7850,140,"charcoal",,"Labweh","LB",36.35,34.15,"1"
"K-1430",7990,140,"charcoal",,"Labweh","LB",36.35,34.15,"1"
"Gd-4465",10850,200,"charcoal",,"M'lefaat","IQ",43.5867,35.4159,"2"
"Gd-6149",10290,180,"charcoal",,"M'lefaat","IQ",43.5867,35.4159,"2"
"Gd-6150",10890,140,"charcoal",,"M'lefaat","IQ",43.5867,35.4159,"2"
"Gd-6356",9630,130,"charcoal",,"M'lefaat","IQ",43.5867,35.4159,"2"
"Gd-6363",13540,180,,,"M'lefaat","IQ",43.5867,35.4159,"2"
"OxA-3747",9870,140,"seeds (charred)","Lens","M'lefaat","IQ",43.5867,35.4159,"2"
"OxA-3748",9890,120,"seeds (charred)","Lens","M'lefaat","IQ",43.5867,35.4159,"2"
"OxA-3810",9680,100,"seeds (charred)","Lens","M'lefaat","IQ",43.5867,35.4159,"2"
"OxA-3819",9680,100,,,"M'lefaat","IQ",43.5867,35.4159,"2"
"Pta-3371",10530,100,"charcoal",,"Maaleh Ramon East","IL",34.7547,30.58,"1"
"Pta-3483",10430,80,"charcoal",,"Maaleh Ramon East","IL",34.7547,30.58,"1"
"Pta-3687",10400,100,"charcoal",,"Maaleh Ramon West","IL",34.7114,30.5642,"1"
"RT-1068N",10000,200,"charcoal",,"Maaleh Ramon West","IL",34.7114,30.5642,"1"
"IGAN-772",8010,50,"charcoal",,"Magzaliyah","IQ",42.32,36.39,"2"
"Beta-2737",8480,70,"charcoal",,"Mezad Mazal","IL",35.315,30.93,"1"
"Hv-9106",8240,95,"charcoal",,"Mezad Mazal","IL",35.315,30.93,"1"
"Hv-9107",8330,75,"charcoal",,"Mezad Mazal","IL",35.315,30.93,"1"
"Hv-9108",8440,80,"charcoal",,"Mezad Mazal","IL",35.315,30.93,"1"
"KN-2443",8070,75,"charcoal",,"Mezad Mazal","IL",35.315,30.93,"1"
"KN-2444",8350,75,"charcoal",,"Mezad Mazal","IL",35.315,30.93,"1"
"AA-40101",7806,61,"fruit/seeds",,"Mezraa Teleilat","TR",37.982,36.982,"2"
"AA-49099",7849,61,"seeds",,"Mezraa Teleilat","TR",37.982,36.982,"2"
"AA-49100",7746,61,"seeds",,"Mezraa Teleilat","TR",37.982,36.982,"2"
"AA-49101",7806,61,"seeds",,"Mezraa Teleilat","TR",37.982,36.982,"2"
"AA-49102",9324,59,"seeds",,"Mezraa Teleilat","TR",37.982,36.982,"2"
"AA-49103",8021,55,"fruit/seeds","Aegilops","Mezraa Teleilat","TR",37.982,36.982,"2"
"AA-49104",7977,54,"grain","Triticum","Mezraa Teleilat","TR",37.982,36.982,"2"
"AA-49105",7973,62,"seeds","Gramineae","Mezraa Teleilat","TR",37.982,36.982,"2"
"AA-49106",7993,58,"seeds",,"Mezraa Teleilat","TR",37.982,36.982,"2"
"AA-49107",8001,55,"seeds","Gramineae","Mezraa Teleilat","TR",37.982,36.982,"2"
"AA-49108",7926,69,"grain","Triticum","Mezraa Teleilat","TR",37.982,36.982,"2"
"ANSTO OZ-1355",8360,80,,,"Mezraa Teleilat","TR",37.982,36.982,"2"
"LTL-2640A",7594,50,,,"Mezraa Teleilat","TR",37.982,36.982,"2"
"LTL-2645A",7816,85,,,"Mezraa Teleilat","TR",37.982,36.982,"2"
"LTL-2649A",7817,50,,,"Mezraa Teleilat","TR",37.982,36.982,"2"
"LTL-2651A",8016,45,,,"Mezraa Teleilat","TR",37.982,36.982,"2"
"OS-60149",7940,45,,,"Mezraa Teleilat","TR",37.982,36.982,"2"
"OS-60150",8190,40,,,"Mezraa Teleilat","TR",37.982,36.982,"2"
"OS-60151",7960,40,,,"Mezraa Teleilat","TR",37.982,36.982,"2"
"OS-60152",8020,45,,,"Mezraa Teleilat","TR",37.982,36.982,"2"
"OS-60153",7900,40,,,"Mezraa Teleilat","TR",37.982,36.982,"2"
"OS-60304",8040,55,,,"Mezraa Teleilat","TR",37.982,36.982,"2"
"OS-60305",7940,50,,,"Mezraa Teleilat","TR",37.982,36.982,"2"
"OS-60538",7940,40,,,"Mezraa Teleilat","TR",37.982,36.982,"2"
"OS-60540",7790,35,,,"Mezraa Teleilat","TR",37.982,36.982,"2"
"OS-60735",7760,55,,,"Mezraa Teleilat","TR",37.982,36.982,"2"
"OxA-18862",8517,39,"bone","Homo sapiens","Moghr El Ahwal Cave 2","LB",35.8824,34.2846,"1"
"OxA-18863",8710,45,"bone","Homo sapiens","Moghr El Ahwal Cave 2","LB",35.8824,34.2846,"1"
"Wk-20839",7645,43,"charcoal",,"Moghr El Ahwal Cave 2","LB",35.8824,34.2846,"1"
"Wk-20841",7610,42,"charcoal",,"Moghr El Ahwal Cave 2","LB",35.8824,34.2846,"1"
"Wk-20843",12664,63,"charcoal",,"Moghr El Ahwal Cave 2","LB",35.8824,34.2846,"1"
"OxA-20551",12230,75,"charcoal",,"Moghr El Ahwal Cave 3","LB",35.8824,34.2846,"1"
"OxA-20552",15750,75,"charcoal",,"Moghr El Ahwal Cave 3","LB",35.8824,34.2846,"1"
"OxA-20673",13585,55,"charcoal",,"Moghr El Ahwal Cave 3","LB",35.8824,34.2846,"1"
"RTT-4577",8965,45,"charcoal",,"Motza","IL",35.1685,31.7939,"1"
"RTT-4579",8890,45,"charcoal",,"Motza","IL",35.1685,31.7939,"1"
"RTT-4749",9130,50,"bone",,"Motza","IL",35.1685,31.7939,"1"
"RTT-4750",9310,30,"bone",,"Motza","IL",35.1685,31.7939,"1"
"RTT-4751",9100,30,"bone",,"Motza","IL",35.1685,31.7939,"1"
"RTT-4752",9210,25,"bone",,"Motza","IL",35.1685,31.7939,"1"
"RTT-4753",8995,35,"bone","Homo sapiens","Motza","IL",35.1685,31.7939,"1"
"RTT-4757",8965,45,,,"Motza","IL",35.1685,31.7939,"1"
"RTT-4865",9080,30,"charcoal",,"Motza","IL",35.1685,31.7939,"1"
"RTT-4866",9150,35,"charcoal",,"Motza","IL",35.1685,31.7939,"1"
"RTT-4867",9200,40,"charcoal",,"Motza","IL",35.1685,31.7939,"1"
"RTT-4869",9040,40,"humic acids",,"Motza","IL",35.1685,31.7939,"1"
"RTT-4882",9030,50,"humic acids",,"Motza","IL",35.1685,31.7939,"1"
"TO-11710",9870,90,"charcoal",,"Motza","IL",35.1685,31.7939,"1"
"TO-11711",9050,80,"charcoal",,"Motza","IL",35.1685,31.7939,"1"
"TO-11712",9170,80,"charcoal",,"Motza","IL",35.1685,31.7939,"1"
"GrA-20636",9300,70,"teeth",,"Mureybet","SY",38.1287,36.0434,"2"
"Lv-604",9730,140,"charcoal",,"Mureybet","SY",38.1287,36.0434,"2"
"Lv-605",10590,170,"charcoal",,"Mureybet","SY",38.1287,36.0434,"2"
"Lv-606",10460,200,"charcoal",,"Mureybet","SY",38.1287,36.0434,"2"
"Lv-607",10590,140,"charcoal",,"Mureybet","SY",38.1287,36.0434,"2"
"Lv-608",10590,140,"charcoal",,"Mureybet","SY",38.1287,36.0434,"2"
"Ly-11622",16560,70,"charcoal",,"Mureybet","SY",38.0906,36.0683,"2"
"Ly-11623",9940,50,"charcoal",,"Mureybet","SY",38.1287,36.0434,"2"
"Ly-11624",9080,155,"charcoal",,"Mureybet","SY",38.1287,36.0434,"2"
"Ly-11625",9435,90,"charcoal",,"Mureybet","SY",38.1287,36.0434,"2"
"Ly-11626",9455,45,"charcoal",,"Mureybet","SY",38.1287,36.0434,"2"
"Ly-11627",9400,110,"charcoal",,"Mureybet","SY",38.1287,36.0434,"2"
"Ly-11628",9320,50,"charcoal",,"Mureybet","SY",38.1287,36.0434,"2"
"Ly-11629",8510,85,"charcoal",,"Mureybet","SY",38.1287,36.0434,"2"
"Ly-11630",9505,50,"charcoal",,"Mureybet","SY",38.1287,36.0434,"2"
"Ly-11787",9905,60,"charcoal",,"Mureybet","SY",38.1287,36.0434,"2"
"Ly-11788",9945,50,"charcoal",,"Mureybet","SY",38.1287,36.0434,"2"
"MC-611",9840,200,"charcoal",,"Mureybet","SY",38.1287,36.0434,"2"
"MC-612",9520,150,"charcoal",,"Mureybet","SY",38.1287,36.0434,"2"
"MC-613",9620,200,"charcoal",,"Mureybet","SY",38.1287,36.0434,"2"
"MC-614",9570,200,"charcoal",,"Mureybet","SY",38.1287,36.0434,"2"
"MC-615",9540,110,"charcoal",,"Mureybet","SY",38.1287,36.0434,"2"
"MC-616",9675,110,"charcoal",,"Mureybet","SY",38.1287,36.0434,"2"
"MC-635",10170,200,"charcoal",,"Mureybet","SY",38.1287,36.0434,"2"
"MC-674",10090,170,"charcoal",,"Mureybet","SY",38.1287,36.0434,"2"
"MC-675",10350,150,"charcoal",,"Mureybet","SY",38.1287,36.0434,"2"
"MC-731",10230,170,"charcoal",,"Mureybet","SY",38.1287,36.0434,"2"
"MC-732",10230,170,"charcoal",,"Mureybet","SY",38.1287,36.0434,"2"
"MC-733",10030,150,"charcoal",,"Mureybet","SY",38.1287,36.0434,"2"
"MC-734",9950,150,"charcoal",,"Mureybet","SY",38.1287,36.0434,"2"
"MC-735",9730,150,"charcoal",,"Mureybet","SY",38.1287,36.0434,"2"
"MC-736",9280,150,"charcoal",,"Mureybet","SY",38.1287,36.0434,"2"
"MC-737",8910,150,"charcoal",,"Mureybet","SY",38.1287,36.0434,"2"
"MC-861",9600,150,"charcoal",,"Mureybet","SY",38.1287,36.0434,"2"
"MC-862",9130,150,"charcoal",,"Mureybet","SY",38.1287,36.0434,"2"
"MC-863",9030,150,"charcoal",,"Mureybet","SY",38.1287,36.0434,"2"
"OxA-2158",9190,55,"seeds (charred)",,"Mureybet","SY",38.1287,36.0434,"2"
"P-1215",10006,96,"charcoal",,"Mureybet","SY",38.1287,36.0434,"2"
"P-1216",10092,118,"charcoal",,"Mureybet","SY",38.1287,36.0434,"2"
"P-1217",10215,117,"charcoal",,"Mureybet","SY",38.1287,36.0434,"2"
"P-1220",9885,115,"charcoal",,"Mureybet","SY",38.1287,36.0434,"2"
"P-1220",9968,115,"charcoal",,"Mureybet","SY",38.1287,36.0434,"2"
"P-1222",9904,114,"charcoal",,"Mureybet","SY",38.1287,36.0434,"2"
"P-1224",9492,122,"charcoal",,"Mureybet","SY",38.1287,36.0434,"2"
"GrN-24918",8300,90,"charcoal",,"Musular","TR",34.226,38.3475,"3"
"GrN-24923",8370,110,"bone",,"Musular","TR",34.226,38.3475,"3"
"GrN-24924",8420,110,"bone",,"Musular","TR",34.226,38.3475,"3"
"GrN-25461",8130,180,"charcoal",,"Musular","TR",34.226,38.3475,"3"
"GrN-25611",8060,180,"charcoal",,"Musular","TR",34.226,38.3475,"3"
"GrN-25900",8280,50,,,"Musular","TR",34.226,38.3475,"3"
"GrN-25901",8540,50,,,"Musular","TR",34.226,38.3475,"3"
"GrN-27155",8200,50,"bone",,"Musular","TR",34.226,38.3475,"3"
"GrN-27156",8150,45,"bone",,"Musular","TR",34.226,38.3475,"3"
"GrN-27157",8310,45,"bone",,"Musular","TR",34.226,38.3475,"3"
"GrN-29631",8240,55,,,"Musular","TR",34.226,38.3475,"3"
"GrN-29632",8285,55,,,"Musular","TR",34.226,38.3475,"3"
"KIA-30924",8325,40,"bone","animal","Musular","TR",34.226,38.3475,"3"
"KIA-30926",8450,45,"bone","animal","Musular","TR",34.226,38.3475,"3"
"KIA-31073",8320,30,"bone","animal","Musular","TR",34.226,38.3475,"3"
"I-9767",7505,140,"charcoal",,"Nachcharini","LB",36.36,34.1,"1"
"I-5501",8620,140,"charcoal",,"Nahal Divshon","IL",34.7833,30.8333,"1"
"SMU-3",8900,180,"charcoal",,"Nahal Divshon","IL",34.7833,30.8333,"1"
"Tx-1123",8170,180,"charcoal",,"Nahal Divshon","IL",34.7833,30.8333,"1"
"Tx-1125",8170,165,,,"Nahal Divshon","IL",34.7833,30.8333,"1"
"RTD-8530",8789,40,"seeds","Retama raetam","Nahal Efe","IL",35.1505,31.0785,"1"
"RTD-7449",10460,45,"charcoal","Quercus ithaburensis","Nahal Ein Gev II","IL",35.6688,32.779,"1"
"RTD-7450",10340,40,"charcoal","Prunus amigdalus","Nahal Ein Gev II","IL",35.6688,32.779,"1"
"RTD-7451",10445,45,"charcoal","Tamarix","Nahal Ein Gev II","IL",35.6688,32.779,"1"
"BM-2298R",8430,100,"charcoal",,"Nahal Hemar","IL",35.2939,31.1392,"1"
"BM-2300R",8830,110,"plant matter",,"Nahal Hemar","IL",35.2939,31.1392,"1"
"OxA-1014",8600,120,"plant matter",,"Nahal Hemar","IL",35.2939,31.1392,"1"
"OxA-1016",8810,120,"plant matter","Linum","Nahal Hemar","IL",35.2939,31.1392,"1"
"OxA-1985",9540,100,"bone",,"Nahal Hemar","IL",35.2939,31.1392,"1"
"OxA-1986",9430,90,"bone",,"Nahal Hemar","IL",35.2939,31.1392,"1"
"OxA-2035",9170,100,"bone",,"Nahal Hemar","IL",35.2939,31.1392,"1"
"OxA-2036",8240,90,"bone",,"Nahal Hemar","IL",35.2939,31.1392,"1"
"Pta-3625",8850,90,"plant matter","Linum","Nahal Hemar","IL",35.2939,31.1392,"1"
"Pta-3650",8270,80,"charcoal",,"Nahal Hemar","IL",35.2939,31.1392,"1"
"RT-650",8100,150,"charcoal",,"Nahal Hemar","IL",35.2939,31.1392,"1"
"Pta-3000",8430,80,"charcoal",,"Nahal Issaron","IL",35.03,29.9,"1"
"RT-15076",8080,90,,,"Nahal Issaron","IL",35.03,29.9,"1"
"RT-1508",7620,80,"charcoal",,"Nahal Issaron","IL",35.03,29.9,"1"
"RT-1509",7870,55,"charcoal",,"Nahal Issaron","IL",35.03,29.9,"1"
"RT-1510",9100,85,"charcoal",,"Nahal Issaron","IL",35.03,29.9,"1"
"RT-1511",8120,80,"charcoal",,"Nahal Issaron","IL",35.03,29.9,"1"
"RT-1512",8650,85,"charcoal",,"Nahal Issaron","IL",35.03,29.9,"1"
"RT-1514",8200,90,"charcoal",,"Nahal Issaron","IL",35.03,29.9,"1"
"RT-1515",8785,80,"charcoal",,"Nahal Issaron","IL",35.03,29.9,"1"
"RT-1520",7990,55,"charcoal",,"Nahal Issaron","IL",35.03,29.9,"1"
"RT-1521",8390,95,"charcoal",,"Nahal Issaron","IL",35.03,29.9,"1"
"RT-1522",8350,75,"charcoal",,"Nahal Issaron","IL",35.03,29.9,"1"
"RT-1607",9195,70,"charcoal",,"Nahal Issaron","IL",35.03,29.9,"1"
"RT-1609",8685,70,"charcoal",,"Nahal Issaron","IL",35.03,29.9,"1"
"RT-1638",8265,80,"charcoal",,"Nahal Issaron","IL",35.03,29.9,"1"
"RT-1664",8330,100,"charcoal",,"Nahal Issaron","IL",35.03,29.9,"1"
"RT-1665",7600,110,"charcoal",,"Nahal Issaron","IL",35.03,29.9,"1"
"RT-1700",7950,110,"charcoal",,"Nahal Issaron","IL",35.03,29.9,"1"
"RT-1701",8290,80,"charcoal",,"Nahal Issaron","IL",35.03,29.9,"1"
"OxA-4794",13060,100,"charcoal",,"Nahal Neqarot","IL",35.2515,30.6732,"1"
"OxA-5010",9480,100,"charcoal",,"Nahal Oren","IL",34.9833,32.7164,"1"
"Pta-2848",8670,50,"charcoal",,"Nahal Reu'el","IL",34.9759,29.9628,"1"
"Pta-3137",8720,70,"charcoal",,"Nahal Reu'el","IL",34.9759,29.9628,"1"
"Pta-3202",8650,90,"charcoal",,"Nahal Reu'el","IL",34.9759,29.9628,"1"
"OxA-2137",12200,150,"charcoal",,"Nahal Sekher","IL",34.6639,31.1999,"1"
"SMU-268",13530,144,"charcoal",,"Nahal Zin","IL",34.77,30.84,"1"
"BM-2932",8010,90,"charcoal","Salix?","Nebi Mend","SY",36.54,34.5,"1"
"BM-2935",7820,90,"charcoal","Quercus","Nebi Mend","SY",36.54,34.5,"1"
"Gd-2637",8440,130,"charcoal/shell",,"Nemrik 9","IQ",42.85,36.7167,"2"
"Gd-2766",9570,130,"charcoal",,"Nemrik 9","IQ",42.85,36.7167,"2"
"Gd-2773",9480,170,"charcoal",,"Nemrik 9","IQ",42.85,36.7167,"2"
"Gd-2777",10180,130,"charcoal",,"Nemrik 9","IQ",42.85,36.7167,"2"
"Gd-2778",9010,170,"charcoal",,"Nemrik 9","IQ",42.85,36.7167,"2"
"Gd-2935",7640,110,"charcoal",,"Nemrik 9","IQ",42.85,36.7167,"2"
"Gd-2936",9170,130,"charcoal",,"Nemrik 9","IQ",42.85,36.7167,"2"
"Gd-2937",9740,150,"charcoal",,"Nemrik 9","IQ",42.85,36.7167,"2"
"Gd-2963",9780,130,"charcoal",,"Nemrik 9","IQ",42.85,36.7167,"2"
"Gd-2966",9440,160,"charcoal",,"Nemrik 9","IQ",42.85,36.7167,"2"
"Gd-2970",10070,120,"charcoal",,"Nemrik 9","IQ",42.85,36.7167,"2"
"Gd-2971",10330,150,"charcoal",,"Nemrik 9","IQ",42.85,36.7167,"2"
"Gd-2972",9490,170,"charcoal",,"Nemrik 9","IQ",42.85,36.7167,"2"
"Gd-2973",10400,190,"charcoal",,"Nemrik 9","IQ",42.85,36.7167,"2"
"Gd-4118",11300,200,"charcoal",,"Nemrik 9","IQ",42.85,36.7167,"2"
"Gd-4193",9500,130,"charcoal",,"Nemrik 9","IQ",42.85,36.7167,"2"
"Gd-4204",7980,140,"charcoal",,"Nemrik 9","IQ",42.85,36.7167,"2"
"Gd-4205",9000,150,"charcoal",,"Nemrik 9","IQ",42.85,36.7167,"2"
"Gd-4207",8700,110,"charcoal",,"Nemrik 9","IQ",42.85,36.7167,"2"
"Gd-4208",10100,130,"charcoal",,"Nemrik 9","IQ",42.85,36.7167,"2"
"Gd-4209",10040,130,"charcoal",,"Nemrik 9","IQ",42.85,36.7167,"2"
"Gd-4210",10180,190,"charcoal",,"Nemrik 9","IQ",42.85,36.7167,"2"
"Gd-4211",10260,170,"charcoal",,"Nemrik 9","IQ",42.85,36.7167,"2"
"Gd-4212",10480,180,"charcoal",,"Nemrik 9","IQ",42.85,36.7167,"2"
"Gd-4222",8180,120,"charcoal",,"Nemrik 9","IQ",42.85,36.7167,"2"
"Gd-4365",9140,150,"charcoal",,"Nemrik 9","IQ",42.85,36.7167,"2"
"Gd-4453",9630,160,"charcoal",,"Nemrik 9","IQ",42.85,36.7167,"2"
"Gd-4469",11090,190,"charcoal",,"Nemrik 9","IQ",42.85,36.7167,"2"
"Gd-4478",10700,190,"charcoal",,"Nemrik 9","IQ",42.85,36.7167,"2"
"Gd-5186",9170,90,"charcoal/shell",,"Nemrik 9","IQ",42.85,36.7167,"2"
"Gd-5240",9130,60,"charcoal",,"Nemrik 9","IQ",42.85,36.7167,"2"
"Gd-5249",11180,90,"charcoal",,"Nemrik 9","IQ",42.85,36.7167,"2"
"Gd-5257",10020,80,"charcoal",,"Nemrik 9","IQ",42.85,36.7167,"2"
"Gd-5421",9250,70,"charcoal",,"Nemrik 9","IQ",42.85,36.7167,"2"
"Gd-5422",8750,80,"charcoal",,"Nemrik 9","IQ",42.85,36.7167,"2"
"Gd-5424",9140,90,"charcoal",,"Nemrik 9","IQ",42.85,36.7167,"2"
"Gd-5425",9140,90,"charcoal",,"Nemrik 9","IQ",42.85,36.7167,"2"
"Gd-5443",9420,90,"charcoal",,"Nemrik 9","IQ",42.85,36.7167,"2"
"Gd-5451",10700,120,"charcoal",,"Nemrik 9","IQ",42.85,36.7167,"2"
"Gd-5595",9950,100,"charcoal",,"Nemrik 9","IQ",42.85,36.7167,"2"
"Gd-6108",8300,130,"charcoal",,"Nemrik 9","IQ",42.85,36.7167,"2"
"Gd-6110",9970,170,"charcoal",,"Nemrik 9","IQ",42.85,36.7167,"2"
"Gd-6111",10130,180,"charcoal",,"Nemrik 9","IQ",42.85,36.7167,"2"
"Gd-6113",8570,150,"charcoal",,"Nemrik 9","IQ",42.85,36.7167,"2"
"Gd-6119",8300,150,"charcoal",,"Nemrik 9","IQ",42.85,36.7167,"2"
"Gd-6120",9530,140,"charcoal",,"Nemrik 9","IQ",42.85,36.7167,"2"
"Gd-6121",9780,180,"charcoal",,"Nemrik 9","IQ",42.85,36.7167,"2"
"Gd-6127",9800,160,"charcoal",,"Nemrik 9","IQ",42.85,36.7167,"2"
"Gd-6128",9870,160,"charcoal",,"Nemrik 9","IQ",42.85,36.7167,"2"
"Gd-6129",9510,150,"charcoal",,"Nemrik 9","IQ",42.85,36.7167,"2"
"Gd-6130",9230,160,"charcoal",,"Nemrik 9","IQ",42.85,36.7167,"2"
"Gd-6131",9370,120,"charcoal",,"Nemrik 9","IQ",42.85,36.7167,"2"
"Gd-6143",9990,140,"charcoal",,"Nemrik 9","IQ",42.85,36.7167,"2"
"Gd-6148",9720,130,"charcoal",,"Nemrik 9","IQ",42.85,36.7167,"2"
"Gd-6152",9800,130,"charcoal",,"Nemrik 9","IQ",42.85,36.7167,"2"
"OxA-744",9700,150,"grain (charred)","Hordeum vulgare","Netiv Hagdud","PS",35.38,31.98,"1"
"Pta-4555",9750,90,"charcoal",,"Netiv Hagdud","PS",35.38,31.98,"1"
"Pta-4556",9660,70,"charcoal",,"Netiv Hagdud","PS",35.38,31.98,"1"
"Pta-4557",9780,90,"charcoal",,"Netiv Hagdud","PS",35.38,31.98,"1"
"Pta-4590",9700,80,"charcoal",,"Netiv Hagdud","PS",35.38,31.98,"1"
"RT-762A",9680,140,"charcoal",,"Netiv Hagdud","PS",35.38,31.98,"1"
"RT-762B",9600,170,"charcoal",,"Netiv Hagdud","PS",35.38,31.98,"1"
"RT-762C",9970,150,"charcoal",,"Netiv Hagdud","PS",35.38,31.98,"1"
"RT-762D",9400,180,"charcoal",,"Netiv Hagdud","PS",35.38,31.98,"1"
"RT-762F",9780,150,"charcoal",,"Netiv Hagdud","PS",35.38,31.98,"1"
"Hd-16781-835",9261,181,"charcoal",,"Nevali Çori","TR",38.6056,37.5183,"2"
"Hd-16782-351",9243,55,"grain (charred)","Cerealia","Nevali Çori","TR",38.6056,37.5183,"2"
"Hd-16783-769",9212,76,"grain (charred)","Cerealia","Nevali Çori","TR",38.6056,37.5183,"2"
"KIA-14759",8210,130,"bone",,"Nevali Çori","TR",38.6056,37.5183,"2"
"KIA-14763",8380,160,"bone",,"Nevali Çori","TR",38.6056,37.5183,"2"
"OxA-8234",8930,60,"bone","Homo sapiens","Nevali Çori","TR",38.6056,37.5183,"2"
"OxA-8235",9180,60,"bone","Homo sapiens","Nevali Çori","TR",38.6056,37.5183,"2"
"OxA-8236",8960,60,"bone","Homo sapiens","Nevali Çori","TR",38.6056,37.5183,"2"
"OxA-8247",8610,90,"bone","Homo sapiens","Nevali Çori","TR",38.6056,37.5183,"2"
"OxA-8302",9205,55,"bone","Homo sapiens","Nevali Çori","TR",38.6056,37.5183,"2"
"OxA-8303",9280,55,"bone","Homo sapiens","Nevali Çori","TR",38.6056,37.5183,"2"
"OxA-8381",8710,100,"bone","Homo sapiens","Nevali Çori","TR",38.6056,37.5183,"2"
"OxA-8382",8990,90,"bone","Homo sapiens","Nevali Çori","TR",38.6056,37.5183,"2"
"KIA-14756",9263,42,"bone","animal","Nevalı Çori","TR",38.6056,37.5183,"2"
"KIA-14757",9020,41,"bone","animal","Nevalı Çori","TR",38.6056,37.5183,"2"
"KIA-14758",8864,48,"bone","animal","Nevalı Çori","TR",38.6056,37.5183,"2"
"KIA-14760",9100,43,"bone","animal","Nevalı Çori","TR",38.6056,37.5183,"2"
"KIA-14761",8778,46,"bone","animal","Nevalı Çori","TR",38.6056,37.5183,"2"
"KIA-14762",9207,43,"bone","animal","Nevalı Çori","TR",38.6056,37.5183,"2"
"OxA-859",13400,180,"bone (charred)",,"Neve David","IL",34.98,32.81,"1"
"OxA-892",12610,130,"bone (charred)",,"Neve David","IL",34.98,32.81,"1"
"RT-1246",15550,130,"charcoal",,"Ohalo II","IL",35.57,32.7138,"1"
"Hd-13363-13884",8595,90,"charcoal",,"Öküzini Magarasi","TR",30.576,37.089,"3"
"OxA-5177",15460,160,"charcoal",,"Öküzini Magarasi","TR",30.576,37.089,"3"
"OxA-5178",16420,180,"charcoal",,"Öküzini Magarasi","TR",30.576,37.089,"3"
"OxA-5179",16440,160,"charcoal",,"Öküzini Magarasi","TR",30.576,37.089,"3"
"ETH-8026",12020,90,"charcoal",,"Öküzini Mağarası","TR",30.576,37.089,"3"
"ETH-8029",9480,80,"charcoal",,"Öküzini Mağarası","TR",30.576,37.089,"3"
"ETH-8030",11900,90,"charcoal",,"Öküzini Mağarası","TR",30.576,37.089,"3"
"ETH-8031",8800,80,"charcoal",,"Öküzini Mağarası","TR",30.576,37.089,"3"
"ETH-8032",11730,90,"charcoal",,"Öküzini Mağarası","TR",30.576,37.089,"3"
"ETH-8033",12210,90,"charcoal",,"Öküzini Mağarası","TR",30.576,37.089,"3"
"GifA-92389",12410,140,"bone",,"Öküzini Mağarası","TR",30.576,37.089,"3"
"Hd-13334-13211",11920,190,"charcoal",,"Öküzini Mağarası","TR",30.576,37.089,"3"
"Hd-13344-13211",11920,190,"charcoal",,"Öküzini Mağarası","TR",30.576,37.089,"3"
"Hd-13345-12983",7880,80,"charcoal",,"Öküzini Mağarası","TR",30.576,37.089,"3"
"Hd-13347-13341",11565,110,"charcoal",,"Öküzini Mağarası","TR",30.576,37.089,"3"
"Hd-13348-12984",12420,80,"charcoal",,"Öküzini Mağarası","TR",30.576,37.089,"3"
"Hd-13349-13373",12190,120,"charcoal",,"Öküzini Mağarası","TR",30.576,37.089,"3"
"Hd-13351-12985",12500,75,"charcoal",,"Öküzini Mağarası","TR",30.576,37.089,"3"
"Hd-13351-13985",12500,75,"charcoal",,"Öküzini Mağarası","TR",30.576,37.089,"3"
"Hd-13352-13343",12610,180,"charcoal",,"Öküzini Mağarası","TR",30.576,37.089,"3"
"Hd-13364-13887",9650,50,"charcoal",,"Öküzini Mağarası","TR",30.576,37.089,"3"
"Lv-1895",11440,100,"bone",,"Öküzini Mağarası","TR",30.576,37.089,"3"
"Lv-1998",12810,180,"bone",,"Öküzini Mağarası","TR",30.576,37.089,"3"
"Lv-2000",13380,190,"bone",,"Öküzini Mağarası","TR",30.576,37.089,"3"
"Lv-2074",14570,150,"bone",,"Öküzini Mağarası","TR",30.576,37.089,"3"
"Lv-2077",14380,190,"bone",,"Öküzini Mağarası","TR",30.576,37.089,"3"
"Lv-2078",12480,160,"bone",,"Öküzini Mağarası","TR",30.576,37.089,"3"
"Lv-2079",13430,180,"bone",,"Öküzini Mağarası","TR",30.576,37.089,"3"
"Lv-2080",13740,200,"bone",,"Öküzini Mağarası","TR",30.576,37.089,"3"
"Lv-2081",13910,120,"bone",,"Öküzini Mağarası","TR",30.576,37.089,"3"
"OxA-5175",14610,150,"charcoal",,"Öküzini Mağarası","TR",30.576,37.089,"3"
"OxA-5176",14820,150,"charcoal",,"Öküzini Mağarası","TR",30.576,37.089,"3"
"OxA-5213",10150,90,"charcoal",,"Öküzini Mağarası","TR",30.576,37.089,"3"
"OxA-5214",12130,100,"charcoal",,"Öküzini Mağarası","TR",30.576,37.089,"3"
"OxA-5215",12500,110,"charcoal",,"Öküzini Mağarası","TR",30.576,37.089,"3"
"OxA-5216",12390,110,"charcoal",,"Öküzini Mağarası","TR",30.576,37.089,"3"
"OxA-5217",12540,110,"charcoal",,"Öküzini Mağarası","TR",30.576,37.089,"3"
"OxA-5218",12580,110,"charcoal",,"Öküzini Mağarası","TR",30.576,37.089,"3"
"OxA-5219",12700,110,"charcoal",,"Öküzini Mağarası","TR",30.576,37.089,"3"
"OxA-5220",13060,120,"charcoal",,"Öküzini Mağarası","TR",30.576,37.089,"3"
"OxA-5221",13210,120,"charcoal",,"Öküzini Mağarası","TR",30.576,37.089,"3"
"OxA-5222",14200,130,"charcoal",,"Öküzini Mağarası","TR",30.576,37.089,"3"
"OxA-5223",14320,130,"charcoal",,"Öküzini Mağarası","TR",30.576,37.089,"3"
"OxA-5224",14550,130,"charcoal",,"Öküzini Mağarası","TR",30.576,37.089,"3"
"OxA-5225",14940,140,"charcoal",,"Öküzini Mağarası","TR",30.576,37.089,"3"
"RT-1441",10440,115,"charcoal",,"Öküzini Mağarası","TR",30.576,37.089,"3"
"RT-1442",12260,90,"charcoal",,"Öküzini Mağarası","TR",30.576,37.089,"3"
"RT-2334",13670,175,"charcoal",,"Öküzini Mağarası","TR",30.576,37.089,"3"
"RT-2335",11900,70,"charcoal",,"Öküzini Mağarası","TR",30.576,37.089,"3"
"Beta-159542",11210,110,"bone","animal","Palegawra","IQ",45.1,35.6333,"2"
"Beta-159543",12510,90,"bone","animal","Palegawra","IQ",45.1,35.6333,"2"
"Beta-159544",10170,70,"bone","animal","Palegawra","IQ",45.1,35.6333,"2"
"Beta-159545",8790,70,"bone","animal","Palegawra","IQ",45.1,35.6333,"2"
"GrN-6356",13060,110,,,"Palegawra","IQ",45.1,35.64,"2"
"GrN-6357",14480,75,,,"Palegawra","IQ",45.1,35.64,"2"
"GrN-6415",11590,95,"charcoal",,"Palegawra","IQ",45.1,35.64,"2"
"UCLA-1703D",14210,80,,,"Palegawra","IQ",45.1,35.64,"2"
"BA-130239",11445,40,,,"Pınarbaşı","TR",33.0192,37.4939,"3"
"BA-130241",11190,45,,,"Pınarbaşı","TR",33.0192,37.4939,"3"
"BA-130242",11400,45,,,"Pınarbaşı","TR",33.0192,37.4939,"3"
"OxA-16535",12580,55,"bone","Homo sapiens","Pınarbaşı","TR",33.0192,37.4939,"3"
"OxA-16536",12945,55,"bone","Homo sapiens","Pınarbaşı","TR",33.0192,37.4939,"3"
"OxA-5499",9050,80,"charcoal",,"Pınarbaşı","TR",33.0192,37.4939,"3"
"OxA-5500",9290,80,"charcoal",,"Pınarbaşı","TR",33.0192,37.4939,"3"
"OxA-5501",9140,80,"charcoal",,"Pınarbaşı","TR",33.0192,37.4939,"3"
"OZH-786",8680,70,"nutshell","Prunus amygdalus","Pınarbaşı","TR",33.0192,37.4939,"3"
"OZH-787",8860,70,"nutshell","Prunus amygdalus","Pınarbaşı","TR",33.0192,37.4939,"3"
"OZH-788",9060,60,"nutshell","Prunus amygdalus","Pınarbaşı","TR",33.0192,37.4939,"3"
"OZH-789",8920,70,"nutshell","Prunus amygdalus","Pınarbaşı","TR",33.0192,37.4939,"3"
"OZN-583",8900,60,"nutshell","Prunus amygdalus","Pınarbaşı","TR",33.0192,37.4939,"3"
"OZN-584",9300,60,"nutshell","Prunus amygdalus","Pınarbaşı","TR",33.0192,37.4939,"3"
"Wk-29760",9536,36,"nutshell","Prunus amygdalus","Pınarbaşı","TR",33.0192,37.4939,"3"
"Wk-29761",8918,34,"fruitstone","Prunus padus","Pınarbaşı","TR",33.0192,37.4939,"3"
"Wk-32872",9475,42,"nutshell","Prunus amygdalus","Pınarbaşı","TR",33.0192,37.4939,"3"
"Wk-32873",9409,30,"nutshell","Prunus amygdalus","Pınarbaşı","TR",33.0192,37.4939,"3"
"Wk-32874",9577,28,"nutshell","Prunus amygdalus","Pınarbaşı","TR",33.0192,37.4939,"3"
"Wk-34089",8845,41,"nutshell","Prunus amygdalus","Pınarbaşı","TR",33.0192,37.4939,"3"
"SMU-662",7530,100,"charcoal",,"Qadesh Barnea 3","EG",34.4222,30.6483,"1"
"Pta-2158",14130,160,"charcoal",,"Qadesh Barnea 8","EG",34.422,30.648,"1"
"Pta-2159",13390,120,"charcoal",,"Qadesh Barnea 8","EG",34.422,30.648,"1"
"Ly-2338",8030,65,"charcoal",,"Qdeir 1","SY",38.75,35.29,"2"
"Ly-2339",8100,60,"charcoal",,"Qdeir 1","SY",38.75,35.29,"2"
"Ly-2340",8040,65,"charcoal",,"Qdeir 1","SY",38.75,35.29,"2"
"OxA-3752",10145,90,"seeds (charred)","Lens","Qermez Dere","IQ",42.45,36.37,"2"
"OxA-3753",11990,100,,,"Qermez Dere","IQ",42.45,36.37,"2"
"OxA-3754",9580,95,"seeds (charred)","Lens","Qermez Dere","IQ",42.45,36.37,"2"
"OxA-3755",9710,85,"seeds (charred)","Lens","Qermez Dere","IQ",42.8333,36.5167,"2"
"OxA-3756",10115,95,"seeds (charred)","Fabaceae","Qermez Dere","IQ",42.45,36.37,"2"
"OxA-3757",9640,85,"seeds (charred)","Lens","Qermez Dere","IQ",42.8333,36.5167,"2"
"RT-3076",9605,110,"plant matter",,"Qumran Cave 24","PS",35.46,31.757,"1"
"RT-3078",10010,55,"charcoal",,"Qumran Cave 24","PS",35.46,31.757,"1"
"RT-907A",9720,100,"charcoal (twigs)",,"Qumran Cave 24","PS",35.46,31.757,"1"
"RT-907B",9010,150,"wood",,"Qumran Cave 24","PS",35.46,31.757,"1"
"RT-907C",8540,90,"charcoal",,"Qumran Cave 24","PS",35.46,31.757,"1"
"I-7030",10580,140,"bone",,"Rakefet Cave","IL",35.0725,32.6547,"1"
"I-7031",15460,200,,,"Rakefet Cave","IL",35.0725,32.6547,"1"
"Pta-3001",10300,100,"charcoal",,"Ramat Harif G 8","IL",34.5539,30.5017,"1"
"Pta-3009",10500,100,"charcoal",,"Ramat Harif G 8","IL",34.5539,30.5017,"1"
"Pta-3284",10380,100,"charcoal",,"Ramat Harif G 8","IL",34.5539,30.5017,"1"
"Pta-3285",10390,100,"charcoal",,"Ramat Harif G 8","IL",34.5539,30.5017,"1"
"Pta-3286",10100,100,"charcoal",,"Ramat Harif G 8","IL",34.5539,30.5017,"1"
"Pta-3288",10250,100,"charcoal",,"Ramat Harif G 8","IL",34.5539,30.5017,"1"
"Gif-3960",7900,140,,,"Ras Shamra","SY",35.782,35.602,"2"
"P-459",8142,100,"charcoal",,"Ras Shamra","SY",35.782,35.602,"2"
"P-460",8364,101,"charcoal",,"Ras Shamra","SY",35.782,35.602,"2"
"Pta-113",8000,115,"charcoal",,"Ras Shamra","SY",35.782,35.602,"2"
,8364,101,"charcoal",,"Ras Shamra","SY",35.782,35.602,"2"
,8650,90,"charcoal",,"Reu'el","IL",35.1,30.1,"1"
,8670,50,"charcoal",,"Reu'el","IL",35.1,30.1,"1"
,8720,70,"charcoal",,"Reu'el","IL",35.1,30.1,"1"
"I-5496",13090,200,"charcoal",,"Rosh Horesha","IL",34.58,30.5,"1"
"TO-3654",9980,110,"bone","Homo sapiens","Saaïdé II","LB",36.0749,34.0346,"1"
"OxA-2136",10930,130,"charcoal","Pistacia atlantica","Saflulim","IL",34.5706,30.5022,"1"
"OxA-2869",11150,100,"charcoal",,"Saflulim","IL",34.5706,30.5022,"1"
"TKa-14516",7690,45,"charcoal",,"Salat Camii Yanı","TR",40.8935,37.8409,"2"
"TKa-14517",7770,60,"charcoal",,"Salat Camii Yanı","TR",40.8935,37.8409,"2"
"TKa-14518",7760,40,"charcoal",,"Salat Camii Yanı","TR",40.8935,37.8409,"2"
"TKa-14519",7705,50,"charcoal",,"Salat Camii Yanı","TR",40.8935,37.8409,"2"
"TKa-14520",7710,50,"charcoal",,"Salat Camii Yanı","TR",40.8935,37.8409,"2"
"TKa-14521",7650,50,"charcoal",,"Salat Camii Yanı","TR",40.8935,37.8409,"2"
"TKa-14522",7720,45,"grain","Hordeum vulgare","Salat Camii Yanı","TR",40.8935,37.8409,"2"
"TKa-14523",7640,40,"grain","Triticum turgidum","Salat Camii Yanı","TR",40.8935,37.8409,"2"
"TKa-14524",7655,50,"grain","Triticum turgidum","Salat Camii Yanı","TR",40.8935,37.8409,"2"
"TKa-14533",7715,50,"ceramic (organic temper)",,"Salat Camii Yanı","TR",40.8935,37.8409,"2"
"UCI-AMS-21256",7525,25,"charcoal",,"Salat Camii Yanı","TR",40.8935,37.8409,"2"
"UCI-AMS-21257",7630,25,"charcoal",,"Salat Camii Yanı","TR",40.8935,37.8409,"2"
"UCI-AMS-21698",7690,25,"charcoal",,"Salat Camii Yanı","TR",40.8935,37.8409,"2"
"RT-1073",8700,200,,,"Sekher 23","IL",34.8,31.1,"1"
"RT-1082N",9460,130,,,"Sekher 6","IL",34.82,31.07,"1"
"OxA-13274",7900,40,"charcoal",,"Sha'ar Hagolan","IL",35.6033,32.6865,"1"
"OxA-13276",7815,40,"charcoal",,"Sha'ar Hagolan","IL",35.6033,32.6865,"1"
"OxA-13294",7726,37,"charcoal",,"Sha'ar Hagolan","IL",35.6033,32.6865,"1"
"OxA-13296",7896,38,"charcoal",,"Sha'ar Hagolan","IL",35.6033,32.6865,"1"
"OxA-13415",7510,80,"charcoal",,"Sha'ar Hagolan","IL",35.6033,32.6865,"1"
"RTT-5049",7525,55,"charcoal",,"Sha'ar Hagolan","IL",35.6033,32.6865,"1"
"RTT-5480",7620,45,"charcoal",,"Sha'ar Hagolan","IL",35.6033,32.6865,"1"
"RTT-5481",7735,50,"charcoal",,"Sha'ar Hagolan","IL",35.6033,32.6865,"1"
"RTT-5482",7535,50,"charcoal",,"Sha'ar Hagolan","IL",35.6033,32.6865,"1"
"RTT-5486",7785,50,"charcoal",,"Sha'ar Hagolan","IL",35.6033,32.6865,"1"
"K-951",7940,150,"ceramic",,"Shimshara","IQ",44.9382,36.2005,"2"
"K-972",7820,150,"ceramic",,"Shimshara","IQ",44.9382,36.2005,"2"
"K-981",10030,160,"ceramic",,"Shimshara","IQ",44.9382,36.2005,"2"
"KIA-29197",7692,37,"plant matter (charred)",,"Shir","SY",36.6297,35.2008,"2"
"KIA-29198",7844,37,"plant matter (charred)",,"Shir","SY",36.6297,35.2008,"2"
"KIA-33657",8045,35,"grain","Cerealia?","Shir","SY",36.6297,35.2008,"2"
"KIA-33658",7642,36,"seed","Vicia","Shir","SY",36.6297,35.2008,"2"
"KIA-34436",7796,43,"grain (charred)","Cerealia","Shir","SY",36.6297,35.2008,"2"
"KIA-34437",7908,43,"grain (charred)","Cerealia","Shir","SY",36.6297,35.2008,"2"
"KIA-34438",7940,39,"grain (charred)","Cerealia","Shir","SY",36.6297,35.2008,"2"
"KIA-40109",7820,40,"seed","Vicia","Shir","SY",36.6297,35.2008,"2"
"KIA-40110",7645,45,"seed","Vicia","Shir","SY",36.6297,35.2008,"2"
"KIA-40111",7705,40,"seed","Vicia","Shir","SY",36.6297,35.2008,"2"
"AAR-9335",8880,80,"charcoal","Ephedra","Shkarat Msaied","JO",35.4397,30.4458,"1"
"AAR-9336",9590,90,"charcoal","Juniperus","Shkarat Msaied","JO",35.4397,30.4458,"1"
"AAR-9337",8885,70,"charcoal","Pistacia","Shkarat Msaied","JO",35.4397,30.4458,"1"
"Wk-15159",8977,60,"charcoal",,"Shkarat Msaied","JO",35.4397,30.4458,"1"
"Wk-15160",9144,55,"charcoal",,"Shkarat Msaied","JO",35.4397,30.4458,"1"
"Pta-3403",16100,150,"eggshell","Struthio camelus","Shunera 16","IL",34.6,30.95,"1"
"Pta-3702",15800,160,"eggshell","Struthio camelus","Shunera 16","IL",34.6,30.95,"1"
"RT-1072N",16200,170,,,"Shunera 16","IL",34.6,30.95,"1"
"OxA-2138",12100,140,"charcoal",,"Shunera 21","IL",34.5318,30.9728,"1"
"Pta-3003",11000,140,"charcoal",,"Shunera 4","IL",34.5836,30.9506,"1"
"Pta-3690",11700,140,"charcoal",,"Shunera 4","IL",34.5836,30.9506,"1"
,9500,130,,,"Shunera 6","IL",34.6,30.95,"1"
"I-1867",8520,140,"charcoal",,"Suberde (Görüklük Tepe)","TR",31.9298,37.3526,"3"
"OS-62226",8120,40,"bone",,"Suberde (Görüklük Tepe)","TR",31.9298,37.3526,"3"
"OS-62227",8270,40,"bone",,"Suberde (Görüklük Tepe)","TR",31.9298,37.3526,"3"
"OS-62229",8160,45,"bone",,"Suberde (Görüklük Tepe)","TR",31.9298,37.3526,"3"
"OS-62370",8150,45,"bone",,"Suberde (Görüklük Tepe)","TR",31.9298,37.3526,"3"
"P-1385",7957,88,"charcoal",,"Suberde (Görüklük Tepe)","TR",31.9298,37.3526,"3"
"P-1386",8045,76,"charcoal",,"Suberde (Görüklük Tepe)","TR",31.9298,37.3526,"3"
"P-1388",8226,79,"charcoal",,"Suberde (Görüklük Tepe)","TR",31.9298,37.3526,"3"
"P-1389",7584,85,"charcoal",,"Suberde (Görüklük Tepe)","TR",31.9298,37.3526,"3"
"P-1391",8299,91,"charcoal",,"Suberde (Görüklük Tepe)","TR",31.9298,37.3526,"3"
"TO-1407",7800,70,"bone","Homo sapiens","Tabaqat al-Buma","JO",35.71,32.53,"1"
"TO-987",11170,100,"bone","Gazella","Tabaqat al-Buma","JO",35.71,32.53,"1"
"TO-989",13110,130,"bone",,"Tabaqat al-Buma","JO",35.71,32.53,"1"
"TO-991",14850,160,"bone",,"Tabaqat al-Buma","JO",35.71,32.53,"1"
"Beta-221179",11170,70,,,"TBAS 102","JO",35.8134,30.6458,"1"
"Beta-229411",11040,60,,,"TBAS 102","JO",35.8134,30.6458,"1"
"OxA-7886",7975,70,"charcoal",,"Tel 'Ali","IL",35.5599,32.7006,"1"
"OxA-7921",7940,50,"charcoal",,"Tel 'Ali","IL",35.5599,32.7006,"1"
"GrN-4426",8210,50,"charcoal",,"Tel Ramad","SY",35.9489,33.3602,"1"
"GrN-4427",7920,50,"charcoal",,"Tel Ramad","SY",35.9489,33.3602,"1"
"GrN-4428",8200,80,"charcoal",,"Tel Ramad","SY",35.9489,33.3602,"1"
"GrN-4821",8090,50,"charcoal",,"Tel Ramad","SY",35.9489,33.3602,"1"
"GrN-4822",7900,50,"charcoal",,"Tel Ramad","SY",35.9489,33.3602,"1"
"GrN-4823",7880,55,"charcoal",,"Tel Ramad","SY",35.9489,33.3602,"1"
"Ly-2805",9705,60,"seeds",,"Tell 'Abr 3","SY",38.0864,36.6819,"2"
"Ly-2806",9690,60,"seeds",,"Tell 'Abr 3","SY",38.0864,36.6819,"2"
"Ly-2807",9705,55,"seeds",,"Tell 'Abr 3","SY",38.0864,36.6819,"2"
"Ly-2808",9685,55,"seeds",,"Tell 'Abr 3","SY",38.0864,36.6819,"2"
"Ly-5235",9750,50,"seeds",,"Tell 'Abr 3","SY",38.0864,36.6819,"2"
"Ly-5236",9700,50,"seeds",,"Tell 'Abr 3","SY",38.0864,36.6819,"2"
"Ly-5237",9730,50,"seeds",,"Tell 'Abr 3","SY",38.0864,36.6819,"2"
"GrA-22266",8230,45,,,"Tell Ain el-Kerkh","SY",36.4657,35.8196,"2"
"GrA-22275",8380,50,,,"Tell Ain el-Kerkh","SY",36.4657,35.8196,"2"
"GrA-22276",9240,50,"charcoal",,"Tell Ain el-Kerkh","SY",36.4657,35.8196,"2"
"GrA-22277",9350,90,"charcoal",,"Tell Ain el-Kerkh","SY",36.4657,35.8196,"2"
"Ly-12086",9205,60,"charcoal",,"Tell Ain el-Kerkh","SY",36.4657,35.8196,"2"
"Ly-12087",7830,50,"wood",,"Tell Ain el-Kerkh","SY",36.4657,35.8196,"2"
"Ly-2554",8235,40,"charcoal",,"Tell Ain el-Kerkh","SY",36.4657,35.8196,"2"
"Ly-2555",9250,40,"charcoal",,"Tell Ain el-Kerkh","SY",36.4657,35.8196,"2"
"Ly-2556",9165,40,"charcoal",,"Tell Ain el-Kerkh","SY",36.4657,35.8196,"2"
"Ly-2860",9185,55,"organic matter",,"Tell Ain el-Kerkh","SY",36.4657,35.8196,"2"
"NUT-22023",7670,45,"charcoal",,"Tell Ain el-Kerkh","SY",36.4657,35.8196,"2"
"NUT-22024",7730,80,"charcoal",,"Tell Ain el-Kerkh","SY",36.4657,35.8196,"2"
"NUT-22106",8660,100,"charcoal",,"Tell Ain el-Kerkh","SY",36.4657,35.8196,"2"
"NUT-22109",8390,50,"charcoal",,"Tell Ain el-Kerkh","SY",36.4657,35.8196,"2"
"NUTA2-2023",7670,45,"charcoal","Pinus","Tell Ain el-Kerkh","SY",36.4657,35.8196,"2"
"NUTA2-2024",7730,80,"charcoal","Pinus","Tell Ain el-Kerkh","SY",36.4657,35.8196,"2"
"OxA-2555",9250,40,"charcoal",,"Tell Ain el-Kerkh","SY",36.4657,35.8196,"2"
"OxA-2556",9165,40,"charcoal",,"Tell Ain el-Kerkh","SY",36.4657,35.8196,"2"
"Gif-2369",8540,110,"charcoal",,"Tell Aswad","SY",36.55,33.4042,"1"
"Gif-2370",9340,120,"charcoal",,"Tell Aswad","SY",36.55,33.4042,"1"
"Gif-2371",9270,120,"charcoal",,"Tell Aswad","SY",36.55,33.4042,"1"
"Gif-2372",9640,120,"charcoal",,"Tell Aswad","SY",36.55,33.4042,"1"
"Gif-2373",8560,110,"charcoal",,"Tell Aswad","SY",36.55,33.4042,"1"
"Gif-2633",9730,120,"charcoal",,"Tell Aswad","SY",36.55,33.4042,"1"
"GrA-25913",9020,60,"seeds",,"Tell Aswad","SY",36.55,33.4042,"1"
"GrA-25915",9300,60,"seeds",,"Tell Aswad","SY",36.55,33.4042,"1"
"GrA-25916",9070,60,"seeds",,"Tell Aswad","SY",36.55,33.4042,"1"
"GrA-25917",9280,50,"seeds",,"Tell Aswad","SY",36.55,33.4042,"1"
"GrN-6676",8650,55,"charcoal",,"Tell Aswad","SY",36.55,33.4042,"1"
"GrN-6677",8720,75,"charcoal",,"Tell Aswad","SY",36.55,33.4042,"1"
"GrN-6678",8875,55,"charcoal",,"Tell Aswad","SY",36.55,33.4042,"1"
"GrN-6679",8865,60,"charcoal",,"Tell Aswad","SY",36.55,33.4042,"1"
"Ly-11383",9285,51,"charcoal",,"Tell Aswad","SY",36.55,33.4042,"1"
"Ly-11384",9219,68,"charcoal",,"Tell Aswad","SY",36.55,33.4042,"1"
"Ly-11385",9805,115,"charcoal",,"Tell Aswad","SY",36.55,33.4042,"1"
"Ly-11386",8602,51,"charcoal",,"Tell Aswad","SY",36.55,33.4042,"1"
"Ly-12107",8835,50,"charcoal",,"Tell Aswad","SY",36.55,33.4042,"1"
"Ly-12781",8765,80,"charcoal",,"Tell Aswad","SY",36.55,33.4042,"1"
"Ly-12782",8935,50,"charcoal",,"Tell Aswad","SY",36.55,33.4042,"1"
"Ly-13696",8800,45,"charcoal",,"Tell Aswad","SY",36.55,33.4042,"1"
"Ly-13697",9115,45,"charcoal",,"Tell Aswad","SY",36.55,33.4042,"1"
"Ly-2756",9235,45,"charcoal",,"Tell Aswad","SY",36.55,33.4042,"1"
"Ly-3465",9220,45,"seeds",,"Tell Aswad","SY",36.55,33.4042,"1"
"Ly-3466",9020,45,"charcoal",,"Tell Aswad","SY",36.55,33.4042,"1"
"Ly-3467",9170,40,"charcoal",,"Tell Aswad","SY",36.55,33.4042,"1"
"Ly-4859",9055,40,"seeds",,"Tell Aswad","SY",36.55,33.4042,"1"
"Ly-4860",9080,40,"seeds",,"Tell Aswad","SY",36.55,33.4042,"1"
"Ly-4861",9030,40,"seeds",,"Tell Aswad","SY",36.55,33.4042,"1"
"Ly-4862",9155,40,"seeds",,"Tell Aswad","SY",36.55,33.4042,"1"
"Beta-268168",9560,50,"seeds",,"Tell Dja’de el-Mughara","SY",38.1833,36.3833,"2"
"LTL-3332A",9562,65,,,"Tell Dja’de el-Mughara","SY",38.1833,36.3833,"2"
"Ly-10845",9175,55,"charcoal",,"Tell Dja’de el-Mughara","SY",38.1833,36.3833,"2"
"Ly-10846",9250,55,"charcoal",,"Tell Dja’de el-Mughara","SY",38.1833,36.3833,"2"
"Ly-10847",9210,55,"charcoal",,"Tell Dja’de el-Mughara","SY",38.1833,36.3833,"2"
"Ly-10848",9150,55,"charcoal",,"Tell Dja’de el-Mughara","SY",38.1833,36.3833,"2"
"Ly-10849",9210,95,"charcoal",,"Tell Dja’de el-Mughara","SY",38.1833,36.3833,"2"
"Ly-11328",9145,50,"charcoal",,"Tell Dja’de el-Mughara","SY",38.1833,36.3833,"2"
"Ly-11329",9480,50,"charcoal",,"Tell Dja’de el-Mughara","SY",38.1833,36.3833,"2"
"Ly-11330",9410,50,"charcoal",,"Tell Dja’de el-Mughara","SY",38.1833,36.3833,"2"
"Ly-12110",9570,50,"charcoal",,"Tell Dja’de el-Mughara","SY",38.1833,36.3833,"2"
"Ly-12112",9290,45,"charcoal",,"Tell Dja’de el-Mughara","SY",38.1833,36.3833,"2"
"Ly-13628",9305,45,"charcoal",,"Tell Dja’de el-Mughara","SY",38.1833,36.3833,"2"
"Ly-13629",9440,45,,,"Tell Dja’de el-Mughara","SY",38.1833,36.3833,"2"
"Ly-13630",9000,40,,,"Tell Dja’de el-Mughara","SY",38.1833,36.3833,"2"
"Ly-13631",9340,45,"charcoal",,"Tell Dja’de el-Mughara","SY",38.1833,36.3833,"2"
"Ly-14032",9420,45,"charcoal",,"Tell Dja’de el-Mughara","SY",38.1833,36.3833,"2"
"Ly-14033",9220,60,"charcoal",,"Tell Dja’de el-Mughara","SY",38.1833,36.3833,"2"
"Ly-14413",7635,35,"charcoal",,"Tell Dja’de el-Mughara","SY",38.1833,36.3833,"2"
"Ly-15185",9345,45,"charcoal",,"Tell Dja’de el-Mughara","SY",38.1833,36.3833,"2"
"Ly-15186",9315,40,"charcoal",,"Tell Dja’de el-Mughara","SY",38.1833,36.3833,"2"
"Ly-15454",9320,45,"charcoal",,"Tell Dja’de el-Mughara","SY",38.1833,36.3833,"2"
"Ly-15455",9150,40,"charcoal",,"Tell Dja’de el-Mughara","SY",38.1833,36.3833,"2"
"Ly-2603",9560,65,"seeds",,"Tell Dja’de el-Mughara","SY",38.1833,36.3833,"2"
"Ly-2604",9780,65,"seeds",,"Tell Dja’de el-Mughara","SY",38.1833,36.3833,"2"
"Ly-2614",8160,95,"bone",,"Tell Dja’de el-Mughara","SY",38.1833,36.3833,"2"
"Ly-3464",9445,45,"seed",,"Tell Dja’de el-Mughara","SY",38.1833,36.3833,"2"
"Ly-4704",9480,60,"charcoal",,"Tell Dja’de el-Mughara","SY",38.1833,36.3833,"2"
"Ly-4705",9380,60,"charcoal",,"Tell Dja’de el-Mughara","SY",38.1833,36.3833,"2"
"Ly-4706",9590,60,"charcoal",,"Tell Dja’de el-Mughara","SY",38.1833,36.3833,"2"
"Ly-5821",9610,170,"charcoal",,"Tell Dja’de el-Mughara","SY",38.1833,36.3833,"2"
"Ly-5822",9160,75,"charcoal",,"Tell Dja’de el-Mughara","SY",38.1833,36.3833,"2"
"Ly-6165",9100,80,"charcoal",,"Tell Dja’de el-Mughara","SY",38.1833,36.3833,"2"
"Ly-6166",8990,100,"charcoal",,"Tell Dja’de el-Mughara","SY",38.1833,36.3833,"2"
"Ly-6803",9555,45,"charcoal",,"Tell Dja’de el-Mughara","SY",38.1833,36.3833,"2"
"Ly-6902",9360,45,"charcoal",,"Tell Dja’de el-Mughara","SY",38.1833,36.3833,"2"
"Ly-7795",9540,45,,,"Tell Dja’de el-Mughara","SY",38.1833,36.3833,"2"
"Ly-8841",9280,60,"charcoal",,"Tell Dja’de el-Mughara","SY",38.1833,36.3833,"2"
"Ly-8842",9370,75,"charcoal",,"Tell Dja’de el-Mughara","SY",38.1833,36.3833,"2"
"Ly-8843",9190,65,"charcoal",,"Tell Dja’de el-Mughara","SY",38.1833,36.3833,"2"
"Ly-8844",9245,65,"charcoal",,"Tell Dja’de el-Mughara","SY",38.1833,36.3833,"2"
"UBA-16007",9556,34,,,"Tell Dja’de el-Mughara","SY",38.1833,36.3833,"2"
"UBA-16008",9530,39,,,"Tell Dja’de el-Mughara","SY",38.1833,36.3833,"2"
"UBA-16009",9483,30,,,"Tell Dja’de el-Mughara","SY",38.1833,36.3833,"2"
"UtC-",9200,100,"charcoal",,"Tell Dja’de el-Mughara","SY",38.183,36.383,"2"
"UtC-2369",9200,100,"charcoal",,"Tell Dja’de el-Mughara","SY",38.1833,36.3833,"2"
,7734,88,,,"Tell el-Umeiri","JO",35.8881,31.8686,"1"
"Gif-3372",8150,190,"charcoal",,"Tell Ghoraifé","SY",36.531,33.532,"1"
"Gif-3374",8400,190,"charcoal",,"Tell Ghoraifé","SY",36.531,33.532,"1"
"Gif-3375",8480,190,"charcoal",,"Tell Ghoraifé","SY",36.531,33.532,"1"
"Gif-3376",8710,190,"charcoal",,"Tell Ghoraifé","SY",36.531,33.532,"1"
"AA-30500",7705,75,"grain (charred)","Cerealia","Tell Halaf","SY",40.0396,36.8266,"2"
"AA-30501",7805,60,"grain (charred)","Cerealia","Tell Halaf","SY",40.0396,36.8266,"2"
"GrN-2660",7570,35,"charcoal",,"Tell Halaf","SY",40.05,36.81,"2"
"Beta-101602",8630,70,"charcoal",,"Tell Halula","SY",38.1667,36.4167,"2"
"Beta-101603",8710,70,"charcoal",,"Tell Halula","SY",38.1667,36.4167,"2"
"Beta-101604",8310,110,"charcoal",,"Tell Halula","SY",38.1667,36.4167,"2"
"Beta-101605",13860,120,"charcoal",,"Tell Halula","SY",38.1667,36.4167,"2"
"Beta-101606",8450,100,"charcoal",,"Tell Halula","SY",38.1667,36.4167,"2"
"Beta-121012",8600,60,"charcoal",,"Tell Halula","SY",38.1667,36.4167,"2"
"Beta-206820",8460,40,"seeds",,"Tell Halula","SY",38.1667,36.4167,"2"
"Beta-206821",8490,40,"seeds",,"Tell Halula","SY",38.1667,36.4167,"2"
"Beta-206822",8500,50,"seeds",,"Tell Halula","SY",38.1667,36.4167,"2"
"Beta-206824",8270,50,"seeds",,"Tell Halula","SY",38.1667,36.4167,"2"
"Beta-206825",8370,50,"seeds",,"Tell Halula","SY",38.1667,36.4167,"2"
"Beta-206826",8340,130,"charcoal",,"Tell Halula","SY",38.1667,36.4167,"2"
"Beta-206827",8200,160,"charcoal",,"Tell Halula","SY",38.1667,36.4167,"2"
"Beta-206829",8500,40,"charcoal",,"Tell Halula","SY",38.1667,36.4167,"2"
"Beta-50856",8655,75,"charcoal",,"Tell Halula","SY",38.1667,36.4167,"2"
"Beta-50857",8300,60,"charcoal",,"Tell Halula","SY",38.1667,36.4167,"2"
"Beta-58925",7880,120,"charcoal",,"Tell Halula","SY",38.1667,36.4167,"2"
"Beta-58928",8700,60,"charcoal",,"Tell Halula","SY",38.1667,36.4167,"2"
"Beta-58930",7990,70,"charcoal",,"Tell Halula","SY",38.1667,36.4167,"2"
"Beta-61488",9520,180,"charcoal",,"Tell Halula","SY",38.1667,36.4167,"2"
"Beta-69593",7760,60,"charcoal",,"Tell Halula","SY",38.1667,36.4167,"2"
"Beta-80636",8750,60,"charcoal",,"Tell Halula","SY",38.1667,36.4167,"2"
"Beta-90616",10770,160,"charcoal",,"Tell Halula","SY",38.1667,36.4167,"2"
"Beta-90618",8810,80,"charcoal",,"Tell Halula","SY",38.1667,36.4167,"2"
"Ly-6494",7710,70,"charcoal",,"Tell Halula","SY",38.1667,36.4167,"2"
"Gd-11627",10170,70,"charcoal",,"Tell Qaramel","SY",37.275,36.3778,"2"
"Gd-11673",10280,90,"charcoal",,"Tell Qaramel","SY",37.275,36.3778,"2"
"Gd-11741",10680,60,"charcoal",,"Tell Qaramel","SY",37.275,36.3778,"2"
"Gd-12502",10140,110,"charcoal",,"Tell Qaramel","SY",37.275,36.3778,"2"
"Gd-12503",10245,95,"charcoal",,"Tell Qaramel","SY",37.275,36.3778,"2"
"Gd-12504",10350,120,"charcoal",,"Tell Qaramel","SY",37.275,36.3778,"2"
"Gd-12506",10360,95,"charcoal",,"Tell Qaramel","SY",37.275,36.3778,"2"
"Gd-12510",10015,90,"charcoal",,"Tell Qaramel","SY",37.275,36.3778,"2"
"Gd-12514",10310,130,"charcoal",,"Tell Qaramel","SY",37.275,36.3778,"2"
"Gd-12515",10510,95,"charcoal",,"Tell Qaramel","SY",37.275,36.3778,"2"
"Gd-12637",8220,100,"charcoal",,"Tell Qaramel","SY",37.275,36.3778,"2"
"Gd-12639",10250,80,"charcoal",,"Tell Qaramel","SY",37.275,36.3778,"2"
"Gd-12649",9830,100,"charcoal",,"Tell Qaramel","SY",37.275,36.3778,"2"
"Gd-12651",10080,90,"charcoal",,"Tell Qaramel","SY",37.275,36.3778,"2"
"Gd-12652",10090,100,"charcoal",,"Tell Qaramel","SY",37.275,36.3778,"2"
"Gd-12797",10440,120,"charcoal",,"Tell Qaramel","SY",37.275,36.3778,"2"
"Gd-12798",10900,110,"charcoal",,"Tell Qaramel","SY",37.275,36.3778,"2"
"Gd-12799",10620,120,"charcoal",,"Tell Qaramel","SY",37.275,36.3778,"2"
"Gd-12802",11420,130,"charcoal",,"Tell Qaramel","SY",37.275,36.3778,"2"
"Gd-12811",10180,110,"charcoal",,"Tell Qaramel","SY",37.275,36.3778,"2"
"Gd-12816",9870,95,"charcoal",,"Tell Qaramel","SY",37.275,36.3778,"2"
"Gd-12817",9420,100,"charcoal",,"Tell Qaramel","SY",37.275,36.3778,"2"
"Gd-12819",9950,110,"charcoal",,"Tell Qaramel","SY",37.275,36.3778,"2"
"Gd-12820",9880,80,"charcoal",,"Tell Qaramel","SY",37.275,36.3778,"2"
"Gd-15477",8860,110,"charcoal",,"Tell Qaramel","SY",37.275,36.3778,"2"
"Gd-15486",10220,140,"charcoal",,"Tell Qaramel","SY",37.275,36.3778,"2"
"Gd-15488",10590,150,"charcoal",,"Tell Qaramel","SY",37.275,36.3778,"2"
"Gd-15676",10230,120,"charcoal",,"Tell Qaramel","SY",37.275,36.3778,"2"
"Gd-15679",10700,140,"charcoal",,"Tell Qaramel","SY",37.275,36.3778,"2"
"Gd-15680",10350,150,"charcoal",,"Tell Qaramel","SY",37.275,36.3778,"2"
"Gd-15681",10280,150,"charcoal",,"Tell Qaramel","SY",37.275,36.3778,"2"
"Gd-16285",10050,140,"charcoal",,"Tell Qaramel","SY",37.275,36.3778,"2"
"Gd-30004",9990,120,"charcoal",,"Tell Qaramel","SY",37.275,36.3778,"2"
"Gd-30005",10295,85,"charcoal",,"Tell Qaramel","SY",37.275,36.3778,"2"
"Gd-30007",9850,160,"charcoal",,"Tell Qaramel","SY",37.275,36.3778,"2"
"Gd-30017",9690,100,"charcoal",,"Tell Qaramel","SY",37.275,36.3778,"2"
"Gd-30062",10360,80,"charcoal",,"Tell Qaramel","SY",37.275,36.3778,"2"
"Gd-30070",10260,130,"charcoal",,"Tell Qaramel","SY",37.275,36.3778,"2"
"GdA-466",9850,110,"charcoal",,"Tell Qaramel","SY",37.275,36.3778,"2"
"GdA-467",8370,90,"charcoal",,"Tell Qaramel","SY",37.275,36.3778,"2"
"GdS-358",9640,60,"charcoal",,"Tell Qaramel","SY",37.275,36.3778,"2"
"GdS-359",9710,70,"charcoal",,"Tell Qaramel","SY",37.275,36.3778,"2"
"GdS-360",9520,70,"charcoal",,"Tell Qaramel","SY",37.275,36.3778,"2"
"GdS-361",9770,110,"charcoal",,"Tell Qaramel","SY",37.275,36.3778,"2"
"GdS-362",9840,70,"charcoal",,"Tell Qaramel","SY",37.275,36.3778,"2"
"GdS-363",9550,65,"charcoal",,"Tell Qaramel","SY",37.275,36.3778,"2"
"GdS-364",9980,70,"charcoal",,"Tell Qaramel","SY",37.275,36.3778,"2"
"Beta-262212",8940,50,"seeds",,"Tell Qarassa","SY",36.4137,32.8356,"1"
"Beta-262213",9100,60,"grain","Triticum dicoccum","Tell Qarassa","SY",36.4137,32.8356,"1"
"Beta-272103",9320,50,"seeds","Cerealia","Tell Qarassa","SY",36.4137,32.8356,"1"
"Beta-274098",9030,60,"seeds","Fabaceae","Tell Qarassa","SY",36.4137,32.8356,"1"
"Beta-277177",9300,50,"grain","Triticum","Tell Qarassa","SY",36.4137,32.8356,"1"
"Beta-290929",9340,40,"grain (charred)","Triticum monococcum","Tell Qarassa","SY",36.4137,32.8356,"1"
"CAN-1065",9300,45,"charcoal (branch)","Pistacia","Tell Qarassa","SY",36.4137,32.8356,"1"
"CNA-1058",9010,45,,,"Tell Qarassa","SY",36.4137,32.8356,"1"
"CNA-1059",9110,35,,,"Tell Qarassa","SY",36.4137,32.8356,"1"
"CNA-1060",9145,40,,,"Tell Qarassa","SY",36.4137,32.8356,"1"
"CNA-1065",9300,45,"charcoal","Pistacia","Tell Qarassa","SY",36.4137,32.8356,"1"
"CNA-1074",8960,45,,,"Tell Qarassa","SY",36.4137,32.8356,"1"
"CNA-1353",9252,38,"grain","Triticum boeoticum/monococcum","Tell Qarassa","SY",36.4137,32.8356,"1"
"CNA-1354",9252,48,"grain","Triticum boeoticum/monococcum","Tell Qarassa","SY",36.4137,32.8356,"1"
"CNA-1355",9185,40,"grain","Triticum dicoccum","Tell Qarassa","SY",36.4137,32.8356,"1"
"Ly-14517",9290,45,"wood",,"Tell Qarassa","SY",36.4137,32.8356,"1"
"Ly-7031",9140,50,"charcoal",,"Tell Qarassa","SY",36.4137,32.8356,"1"
"TO-3986",8100,70,"charcoal",,"Tell Rakan","JO",35.6601,32.5345,"1"
"TO-3987",8430,70,"charcoal",,"Tell Rakan","JO",35.6601,32.5345,"1"
"GrA-24219",7570,50,"charcoal",,"Tell Sabi Abyad I","SY",39.093,36.504,"2"
"GrA-24248",7720,50,"charcoal",,"Tell Sabi Abyad I","SY",39.093,36.504,"2"
"GrA-26928",7525,45,"charcoal",,"Tell Sabi Abyad I","SY",39.093,36.504,"2"
"GrA-29706",7570,60,"charcoal",,"Tell Sabi Abyad I","SY",39.093,36.504,"2"
"GrA-29713",7765,30,"charcoal",,"Tell Sabi Abyad I","SY",39.093,36.504,"2"
"GrA-31875",7690,45,"charcoal",,"Tell Sabi Abyad I","SY",39.093,36.504,"2"
"GrA-31876",7700,50,"charcoal",,"Tell Sabi Abyad I","SY",39.093,36.504,"2"
"GrA-31877",7695,45,"charcoal",,"Tell Sabi Abyad I","SY",39.093,36.504,"2"
"GrA-32047",7640,45,"charcoal",,"Tell Sabi Abyad I","SY",39.093,36.504,"2"
"GrA-32048",7705,45,"charcoal",,"Tell Sabi Abyad I","SY",39.093,36.504,"2"
"GrA-32049",7735,45,"charcoal",,"Tell Sabi Abyad I","SY",39.093,36.504,"2"
"GrA-32051",7625,45,"charcoal",,"Tell Sabi Abyad I","SY",39.093,36.504,"2"
"GrA-32052",8170,80,"charcoal",,"Tell Sabi Abyad I","SY",39.093,36.504,"2"
"GrA-32053",7545,45,"charcoal",,"Tell Sabi Abyad I","SY",39.093,36.504,"2"
"GrA-32056",7760,50,"charcoal",,"Tell Sabi Abyad I","SY",39.093,36.504,"2"
"GrA-32059",7930,45,"charcoal",,"Tell Sabi Abyad I","SY",39.093,36.504,"2"
"GrA-32062",7740,45,"charcoal",,"Tell Sabi Abyad I","SY",39.093,36.504,"2"
"GrA-33001",7955,35,"charcoal",,"Tell Sabi Abyad I","SY",39.093,36.504,"2"
"GrA-33002",8005,35,"charcoal",,"Tell Sabi Abyad I","SY",39.093,36.504,"2"
"GrA-33006",7930,35,"charcoal",,"Tell Sabi Abyad I","SY",39.093,36.504,"2"
"GrA-33007",8040,35,"charcoal",,"Tell Sabi Abyad I","SY",39.093,36.504,"2"
"GrA-33009",7990,35,"charcoal",,"Tell Sabi Abyad I","SY",39.093,36.504,"2"
"GrA-33992",8005,40,"charcoal",,"Tell Sabi Abyad I","SY",39.093,36.504,"2"
"GrA-41269",9730,50,"charcoal",,"Tell Sabi Abyad I","SY",39.093,36.504,"2"
"GrA-42452",7600,50,"charcoal",,"Tell Sabi Abyad I","SY",39.093,36.504,"2"
"GrA-42463",7535,45,"charcoal",,"Tell Sabi Abyad I","SY",39.093,36.504,"2"
"GrA-42465",7510,45,"charcoal",,"Tell Sabi Abyad I","SY",39.093,36.504,"2"
"GrA-42466",7675,45,"charcoal",,"Tell Sabi Abyad I","SY",39.093,36.504,"2"
"GrA-42468",7520,45,"charcoal",,"Tell Sabi Abyad I","SY",39.093,36.504,"2"
"GrA-42481",7500,45,"seeds (charred)",,"Tell Sabi Abyad I","SY",39.093,36.504,"2"
"GrA-42722",7605,40,"charcoal",,"Tell Sabi Abyad I","SY",39.093,36.504,"2"
"GrA-42728",7540,40,"charcoal",,"Tell Sabi Abyad I","SY",39.093,36.504,"2"
"GrA-42729",7540,40,"charcoal",,"Tell Sabi Abyad I","SY",39.093,36.504,"2"
"GrA-42764",7505,40,"charcoal",,"Tell Sabi Abyad I","SY",39.093,36.504,"2"
"GrA-42775",7725,45,"charcoal",,"Tell Sabi Abyad I","SY",39.093,36.504,"2"
"GrA-42776",7595,45,"charcoal",,"Tell Sabi Abyad I","SY",39.093,36.504,"2"
"GrA-42780",7655,45,"charcoal",,"Tell Sabi Abyad I","SY",39.093,36.504,"2"
"GrA-42781",7680,45,"charcoal",,"Tell Sabi Abyad I","SY",39.093,36.504,"2"
"GrA-42782",7535,45,"charcoal",,"Tell Sabi Abyad I","SY",39.093,36.504,"2"
"GrA-42785",7725,45,"charcoal",,"Tell Sabi Abyad I","SY",39.093,36.504,"2"
"GrA-42786",7715,45,"charcoal",,"Tell Sabi Abyad I","SY",39.093,36.504,"2"
"GrA-42787",7835,45,"seeds (charred)",,"Tell Sabi Abyad I","SY",39.093,36.504,"2"
"GrA-42788",7710,40,"charcoal",,"Tell Sabi Abyad I","SY",39.093,36.504,"2"
"GrA-42790",7710,45,"charcoal",,"Tell Sabi Abyad I","SY",39.093,36.504,"2"
"GrA-42791",7665,45,"charcoal",,"Tell Sabi Abyad I","SY",39.093,36.504,"2"
"GrA-42792",7760,45,"charcoal",,"Tell Sabi Abyad I","SY",39.093,36.504,"2"
"GrA-42795",7725,45,"charcoal",,"Tell Sabi Abyad I","SY",39.093,36.504,"2"
"GrA-42796",7635,45,"charcoal",,"Tell Sabi Abyad I","SY",39.093,36.504,"2"
"GrA-42797",7775,45,"charcoal",,"Tell Sabi Abyad I","SY",39.093,36.504,"2"
"GrA-42798",7700,45,"charcoal",,"Tell Sabi Abyad I","SY",39.093,36.504,"2"
"GrA-42800",7780,45,"charcoal",,"Tell Sabi Abyad I","SY",39.093,36.504,"2"
"GrA-42801",7705,45,"charcoal",,"Tell Sabi Abyad I","SY",39.093,36.504,"2"
"GrA-42802",8270,45,"charcoal",,"Tell Sabi Abyad I","SY",39.093,36.504,"2"
"GrA-42804",7795,45,"charcoal",,"Tell Sabi Abyad I","SY",39.093,36.504,"2"
"GrA-42806",7820,45,"charcoal",,"Tell Sabi Abyad I","SY",39.093,36.504,"2"
"GrA-42807",7740,45,"charcoal",,"Tell Sabi Abyad I","SY",39.093,36.504,"2"
"GrA-42810",7970,45,"charcoal",,"Tell Sabi Abyad I","SY",39.093,36.504,"2"
"GrA-42811",7925,45,"charcoal",,"Tell Sabi Abyad I","SY",39.093,36.504,"2"
"GrA-42812",7985,45,"charcoal",,"Tell Sabi Abyad I","SY",39.093,36.504,"2"
"GrA-42813",7910,45,"charcoal",,"Tell Sabi Abyad I","SY",39.093,36.504,"2"
"GrA-42815",7940,45,"charcoal",,"Tell Sabi Abyad I","SY",39.093,36.504,"2"
"GrA-42817",7890,50,"charcoal",,"Tell Sabi Abyad I","SY",39.093,36.504,"2"
"GrA-42818",7995,45,"charcoal",,"Tell Sabi Abyad I","SY",39.093,36.504,"2"
"GrA-42820",8615,50,"charcoal",,"Tell Sabi Abyad I","SY",39.093,36.504,"2"
"GrA-42821",8010,45,"charcoal",,"Tell Sabi Abyad I","SY",39.093,36.504,"2"
"GrA-42850",7715,45,"charcoal",,"Tell Sabi Abyad I","SY",39.093,36.504,"2"
"GrA-42889",7555,45,"charcoal",,"Tell Sabi Abyad I","SY",39.093,36.504,"2"
"GrN-21319",8530,60,"seeds (charred)",,"Tell Sabi Abyad I","SY",39.093,36.504,"2"
"GrN-22273",8190,60,"seeds (charred)",,"Tell Sabi Abyad I","SY",39.093,36.504,"2"
"GrN-24219",7570,50,"charcoal",,"Tell Sabi Abyad I","SY",39.093,36.504,"2"
"GrN-24248",7720,50,"charcoal",,"Tell Sabi Abyad I","SY",39.093,36.504,"2"
"GrN-26928",7525,45,"charcoal",,"Tell Sabi Abyad I","SY",39.093,36.504,"2"
"GrN-29706",7570,60,"charcoal",,"Tell Sabi Abyad I","SY",39.093,36.504,"2"
"GrN-29713",7765,30,"charcoal",,"Tell Sabi Abyad I","SY",39.093,36.504,"2"
"GrN-29714",7680,30,"charcoal",,"Tell Sabi Abyad I","SY",39.093,36.504,"2"
"UtC-4907",7950,50,"seeds (charred)",,"Tell Sabi Abyad I","SY",39.093,36.504,"2"
"GrA-32991",7920,35,"charcoal",,"Tell Sabi Abyad III","SY",39.093,36.504,"2"
"GrA-32992",7950,35,"charcoal",,"Tell Sabi Abyad III","SY",39.093,36.504,"2"
"GrA-32998",7900,40,"charcoal",,"Tell Sabi Abyad III","SY",39.093,36.504,"2"
"TK-198",7800,80,"charcoal",,"Telul eth-Thalathat II","IQ",42.5333,36.5667,"2"
"TK-24",7520,120,"charcoal",,"Telul eth-Thalathat II","IQ",42.5333,36.5667,"2"
"TKa-13418",7520,60,"charcoal",,"Telul eth-Thalathat II","IQ",42.5333,36.5667,"2"
"TKa-13420",7600,60,"charcoal",,"Telul eth-Thalathat II","IQ",42.5333,36.5667,"2"
"TKa-13421",7620,50,"charcoal",,"Telul eth-Thalathat II","IQ",42.5333,36.5667,"2"
"KN-5964",7641,37,"charcoal",,"Tepecik (Makaraz Tepe)","TR",34.4938,38.1722,"3"
"KN-5965",7811,25,"charcoal",,"Tepecik (Makaraz Tepe)","TR",34.4938,38.1722,"3"
"KN-5966",7690,30,"charcoal",,"Tepecik (Makaraz Tepe)","TR",34.4938,38.1722,"3"
"Beta-57898",9010,100,"sediment",,"Tor al-Tareeq (WHS 1065)","JO",35.92,30.87,"1"
"ETH-806",12320,95,"charcoal",,"Tor Hamar (C or J431)","JO",34.9527,30.0018,"1"
"Pta-2703",8220,80,"charcoal",,"Ujrat el-Mehed 1","EG",34,28.21,"1"
"Beta-69598",14650,70,,,"Umm et-Tlel","SY",38.85,35.23,"2"
"Beta-79221",14490,200,,,"Umm et-Tlel","SY",38.85,35.23,"2"
"OxA-1503",14440,150,"charcoal",,"Urkanar-Rub IIa","PS",35.43,32.06,"1"
"OxA-2835",15190,130,"charcoal",,"Urkanar-Rub IIa","PS",35.43,32.06,"1"
"OxA-2836",14860,130,"charcoal",,"Urkanar-Rub IIa","PS",35.43,32.06,"1"
"OxA-2837",14650,120,"charcoal",,"Urkanar-Rub IIa","PS",35.43,32.06,"1"
"OxA-2838",15050,160,"charcoal",,"Urkanar-Rub IIa","PS",35.43,32.06,"1"
"OxA-2839",14800,130,"charcoal",,"Urkanar-Rub IIa","PS",35.43,32.06,"1"
"OxA-2840",14880,120,"charcoal",,"Urkanar-Rub IIa","PS",35.43,32.06,"1"
"OxA-2841",15730,130,"charcoal",,"Urkanar-Rub IIa","PS",35.43,32.06,"1"
"OxA-2842",14980,200,,,"Urkanar-Rub IIa","PS",35.43,32.06,"1"
"RT-670D",7960,200,"charcoal",,"Uvda 9","IL",34.96,29.95,"1"
"RT-760D",7960,200,,,"Uvda 9","IL",34.96,29.95,"1"
"OxA-20973",13650,50,"bone/charcoal",,"Uyun al-Hammam","JO",35.5707,32.5025,"1"
"OxA-20974",13720,55,"bone/charcoal",,"Uyun al-Hammam","JO",35.5707,32.5025,"1"
"OxA-20977",13785,60,"bone/charcoal",,"Uyun al-Hammam","JO",35.5707,32.5025,"1"
"OxA-20978",13685,55,"bone/charcoal",,"Uyun al-Hammam","JO",35.5707,32.5025,"1"
"Poz-35077",13700,70,"charcoal",,"Uyun al-Hammam","JO",35.5707,32.5025,"1"
"TO-11704",12400,180,"bone","Homo sapiens","Uyun al-Hammam","JO",35.5707,32.5025,"1"
"NITA2-11406",8409,41,,,"Wadi Abu Tulayha","JO",35.9714,30.5082,"1"
"NITA2-11408",8464,51,,,"Wadi Abu Tulayha","JO",35.9714,30.5082,"1"
"NITA2-11409",8443,51,,,"Wadi Abu Tulayha","JO",35.9714,30.5082,"1"
"OxA-393",11920,150,"seeds (charred)","Leguminosae","Wadi el-Hammeh 27","JO",35.61,32.466,"1"
"OxA-394",12200,160,"seeds (charred)","Chenopodium","Wadi el-Hammeh 27","JO",35.61,32.466,"1"
"OxA-507",11950,160,"seeds (charred)","Leguminosae","Wadi el-Hammeh 27","JO",35.61,32.466,"1"
"Wk-22244",12349,44,"charcoal",,"Wadi el-Hammeh 27","JO",35.61,32.4664,"1"
"Hd-12333",9157,112,,,"Wadi Faynan 11","JO",35.4908,30.6245,"1"
"Beta-1202011",9890,50,,,"Wadi Faynan 16","JO",35.4557,30.6608,"1"
"Beta-120204",13010,50,"shell (terrestrial)","Gastropoda","Wadi Faynan 16","JO",35.4557,30.6608,"1"
"Beta-120205",9690,50,"charcoal",,"Wadi Faynan 16","JO",35.4557,30.6608,"1"
"Beta-120206",9420,50,"charcoal",,"Wadi Faynan 16","JO",35.4557,30.6608,"1"
"Beta-120207",9400,60,"charcoal",,"Wadi Faynan 16","JO",35.4557,30.6608,"1"
"Beta-120208",12830,50,"shell (terrestrial)","Gastropoda","Wadi Faynan 16","JO",35.4557,30.6608,"1"
"Beta-120209",11830,50,"shell (terrestrial)","Gastropoda","Wadi Faynan 16","JO",35.4557,30.6608,"1"
"Beta-120210",10190,50,"charcoal",,"Wadi Faynan 16","JO",35.4557,30.6608,"1"
"Beta-120211",9890,50,"charcoal",,"Wadi Faynan 16","JO",35.4557,30.6608,"1"
"Beta-135110",9180,60,"charcoal",,"Wadi Faynan 16","JO",35.4557,30.6608,"1"
"Beta-135111",10220,60,"charcoal",,"Wadi Faynan 16","JO",35.4557,30.6608,"1"
"Beta-192520",9900,40,"charcoal","Ficus","Wadi Faynan 16","JO",35.4557,30.6608,"1"
"Beta-192521",10500,40,"charcoal","Cupressaceae","Wadi Faynan 16","JO",35.4557,30.6608,"1"
"Beta-192522",9880,40,"charcoal","Tamarix","Wadi Faynan 16","JO",35.4557,30.6608,"1"
"Beta-192523",9920,40,"charcoal","Ficus","Wadi Faynan 16","JO",35.4557,30.6608,"1"
"Beta-192524",10150,40,"charcoal","Cupressaceae","Wadi Faynan 16","JO",35.4557,30.6608,"1"
"Beta-192525",10350,40,"charcoal","Cupressaceae","Wadi Faynan 16","JO",35.4557,30.6608,"1"
"Beta-192526",10420,40,"charcoal","Cupressaceae","Wadi Faynan 16","JO",35.4557,30.6608,"1"
"Beta-192527",10440,40,"charcoal","Cupressaceae","Wadi Faynan 16","JO",35.4557,30.6608,"1"
"Beta-192529",9870,40,"charcoal",,"Wadi Faynan 16","JO",35.4557,30.6608,"1"
"Beta-192530",10340,40,"charcoal","Cupressaceae","Wadi Faynan 16","JO",35.4557,30.6608,"1"
"Beta-192531",9950,40,"charcoal","Tamarix","Wadi Faynan 16","JO",35.4557,30.6608,"1"
"Beta-192536",10420,40,"charcoal","Cupressaceae","Wadi Faynan 16","JO",35.4557,30.6608,"1"
"Beta-19520",9900,40,"charcoal","Ficus","Wadi Faynan 16","JO",35.4557,30.6608,"1"
"Beta-208671",9560,40,"grain (charred)","Hordeum vulgare","Wadi Faynan 16","JO",35.4557,30.6608,"1"
"Beta-208672",9430,40,"grain","Bromus","Wadi Faynan 16","JO",35.4557,30.6608,"1"
"Beta-209010",9140,40,"charcoal",,"Wadi Faynan 16","JO",35.4557,30.6608,"1"
"Beta-253733",9670,50,"charcoal","Chenopodiaceae","Wadi Faynan 16","JO",35.4557,30.6608,"1"
"Beta-253734",9850,50,"charcoal","Tamarix","Wadi Faynan 16","JO",35.4557,30.6608,"1"
"Beta-253735",10130,60,"charcoal","Cupressaceae","Wadi Faynan 16","JO",35.4557,30.6608,"1"
"Beta-253736",10020,70,"charcoal","Salicaceae","Wadi Faynan 16","JO",35.4557,30.6608,"1"
"Beta-253737",9730,50,"charcoal","Salicaceae","Wadi Faynan 16","JO",35.4557,30.6608,"1"
"Beta-253738",9950,70,"charcoal (twig)","Tamarix","Wadi Faynan 16","JO",35.4557,30.6608,"1"
"Beta-253739",9660,70,"charcoal (twig)","Tamarix","Wadi Faynan 16","JO",35.4557,30.6608,"1"
"Beta-271680",9380,50,"charcoal (twig)","Salicaceae","Wadi Faynan 16","JO",35.4557,30.6608,"1"
"Beta-271681",9940,60,"charcoal (twig)",,"Wadi Faynan 16","JO",35.4557,30.6608,"1"
"Beta-271683",9070,50,"charcoal","Salicaceae","Wadi Faynan 16","JO",35.4557,30.6608,"1"
"Beta-271684",9780,50,"charcoal","Pistacia","Wadi Faynan 16","JO",35.4557,30.6608,"1"
"Beta-271685",9830,50,"charcoal","Chenopodiaceae","Wadi Faynan 16","JO",35.4557,30.6608,"1"
"Beta-271686",9730,50,"charcoal","Salicaceae","Wadi Faynan 16","JO",35.4557,30.6608,"1"
"Beta-271687",9480,50,"charcoal","Salicaceae","Wadi Faynan 16","JO",35.4557,30.6608,"1"
"Beta-271688",9560,60,"charcoal","Pistacia","Wadi Faynan 16","JO",35.4557,30.6608,"1"
"Beta-290705",10070,50,"charcoal","Pistacia","Wadi Faynan 16","JO",35.4557,30.6608,"1"
"Beta-290706",9790,50,"charcoal","Ficus","Wadi Faynan 16","JO",35.4557,30.6608,"1"
"Beta-290707",9770,50,"charcoal",,"Wadi Faynan 16","JO",35.4557,30.6608,"1"
"Beta-290708",9760,50,"charcoal","Cupressaceae","Wadi Faynan 16","JO",35.4557,30.6608,"1"
"Beta-290709",9650,50,"charcoal","Chenopodiaceae","Wadi Faynan 16","JO",35.4557,30.6608,"1"
"Beta-290710",10100,50,"charcoal",,"Wadi Faynan 16","JO",35.4557,30.6608,"1"
"Beta-290711",9860,50,"charcoal","Cupressaceae","Wadi Faynan 16","JO",35.4557,30.6608,"1"
"Beta-290712",9530,50,"charcoal","Salicaceae","Wadi Faynan 16","JO",35.4557,30.6608,"1"
"Beta-290713",9880,50,"charcoal","Cupressaceae","Wadi Faynan 16","JO",35.4557,30.6608,"1"
"Beta-290714",10410,50,"charcoal","Cupressaceae","Wadi Faynan 16","JO",35.4557,30.6608,"1"
"OxA-2870",15450,130,"charcoal",,"Wadi Fazael 10/11","PS",35.433,32.033,"1"
"Hd-13777",8220,117,,,"Wadi Fidan 8","JO",35.4703,30.6235,"1"
"Wk-7005",14052,94,"charcoal",,"Wadi Hisban 2","JO",35.7,31.82,"1"
"Wk-7007",9196,77,"charcoal",,"Wadi Hisban 5","JO",35.7,31.82,"1"
"Wk-7008",12890,95,"charcoal",,"Wadi Hisban 5","JO",35.7,31.82,"1"
"OxA-1000",13120,180,"charcoal",,"Wadi Jilat 10","JO",36.464,31.522,"1"
"OxA-520",14790,200,"charcoal",,"Wadi Jilat 10","JO",36.464,31.522,"1"
"Beta-3462",7829,89,"charcoal",,"Wadi Jilat 13","JO",36.41,31.5,"1"
"Beta-3642",7829,89,"charcoal",,"Wadi Jilat 13","JO",36.3667,31.55,"1"
"OxA-1800",7920,100,"charcoal",,"Wadi Jilat 13","JO",36.41,31.5,"1"
"OxA-1801",7870,100,"charcoal",,"Wadi Jilat 13","JO",36.41,31.5,"1"
"OxA-2411",7900,80,"charcoal",,"Wadi Jilat 13","JO",36.41,31.5,"1"
"UB-3642",7830,90,"charcoal",,"Wadi Jilat 13","JO",36.41,31.5,"1"
"OxA-1770",11920,180,"charcoal",,"Wadi Jilat 22","JO",36.3667,31.55,"1"
"OxA-1771",13040,180,"charcoal",,"Wadi Jilat 22","JO",36.3667,31.55,"1"
"OxA-1772",12840,140,"charcoal",,"Wadi Jilat 22","JO",36.3667,31.55,"1"
"OxA-2409",13490,110,"charcoal",,"Wadi Jilat 22","JO",36.3667,31.55,"1"
"OxA-2410",13540,120,"charcoal",,"Wadi Jilat 22","JO",36.3667,31.55,"1"
"OxA-2408",8020,80,"charcoal",,"Wadi Jilat 25","JO",36.3667,31.55,"1"
"OxA-1802",8690,110,"charcoal",,"Wadi Jilat 26","JO",36.3667,31.55,"1"
"OxA-2407",8720,100,"charcoal",,"Wadi Jilat 26","JO",36.3667,31.55,"1"
"OxA-2969",8740,110,"charcoal",,"Wadi Jilat 26","JO",36.3667,31.55,"1"
"OxA-522",11740,80,"charcoal",,"Wadi Jilat 6","JO",36.464,31.522,"1"
"OxA-523",11450,200,"bone",,"Wadi Jilat 6","JO",36.464,31.522,"1"
"OxA-524",15520,200,"charcoal",,"Wadi Jilat 6","JO",36.464,31.522,"1"
"OxA-525",16010,200,"charcoal",,"Wadi Jilat 6","JO",36.464,31.522,"1"
"OxA-539",7980,150,"charcoal",,"Wadi Jilat 6","JO",36.464,31.522,"1"
"OxA-2413",8390,80,"charcoal",,"Wadi Jilat 7","JO",36.3667,31.55,"1"
"OxA-526",8810,110,"charcoal",,"Wadi Jilat 7","JO",36.42,31.52,"1"
"OxA-527",8520,110,"charcoal",,"Wadi Jilat 7","JO",36.42,31.52,"1"
"OxA-521",13310,120,"charcoal",,"Wadi Jilat 8","JO",36.464,31.522,"1"
"OxA-636",10540,160,"bone/charcoal",,"Wadi Jilat 8","JO",36.464,31.522,"1"
"Ly-12735",9780,70,"charcoal",,"Wadi Kafrein","JO",35.5893,31.8275,"1"
"Ly-12972",11675,70,"charcoal",,"Wadi Kefrein","JO",35.6835,31.8675,"1"
"CAMS-55899",14100,130,"bone","animal","Wadi Mataha","JO",35.448,30.3437,"1"
"CAMS-55897",11200,50,"bone",,"Wadi Mataha 2","JO",35.444,30.341,"1"
"UCIAMS-24863",11600,25,"bone (charred)",,"Wadi Mataha 2","JO",35.444,30.341,"1"
"UCIAMS-24864",12025,30,"bone (charred)",,"Wadi Mataha 2","JO",35.444,30.341,"1"
"Ly-12731",14935,56,"plant matter",,"Wadi Nemrin","JO",35.5393,31.8794,"1"
"Beta-35086",8500,160,"charcoal",,"Wadi Shu'eib","JO",35.7278,31.9733,"1"
"Beta-35087",9100,140,"charcoal",,"Wadi Shu'eib","JO",35.7278,31.9733,"1"
"Beta-35089",9160,190,"charcoal",,"Wadi Shu'eib","JO",35.7278,31.9733,"1"
"Beta-353081",8600,100,,,"Wadi Shu'eib","JO",35.7278,31.9733,"1"
"Beta-35081",8600,100,"charcoal",,"Wadi Shu‘eib","JO",35.7278,31.9733,"1"
"Pta-2700",10350,100,"charcoal",,"Wadi Tbeik","EG",33.93,28.81,"1"
"Ly-8248",10030,45,"charcoal",,"Wadi Tumbaq 3","SY",37.5666,34.9246,"2"
"Ly-8249",9970,45,"charcoal",,"Wadi Tumbaq 3","SY",37.5666,34.9246,"2"
"Ly-12728",8528,48,"organic matter",,"Wadi-Sarar 1","JO",35.5753,32.2978,"1"
"Beta-346621",7690,40,"charcoal (brushwood)",,"Wisad Pools","JO",37.95,31.82,"1"
"Beta-366677",7620,40,"charcoal (brushwood)",,"Wisad Pools","JO",37.95,31.82,"1"
"RTT-3871",9400,60,"charcoal/seed",,"Yeni Mahalle","TR",38.79,37.15,"2"
"Ly-3938",8740,140,"seeds (charred)",,"Yiftahel","IL",35.2277,32.7554,"1"
"Ly-3939",8940,140,"seeds (charred)",,"Yiftahel","IL",35.2277,32.7554,"1"
"OxA-1983",7510,200,"bone",,"Yiftahel","IL",35.2277,32.7554,"1"
"OxA-2037",8390,110,"bone",,"Yiftahel","IL",35.2277,32.7554,"1"
"Pta-4242",8870,90,"seeds (charred)","Vicia faba","Yiftahel","IL",35.2277,32.7554,"1"
"Pta-4245",8720,70,"seeds (charred)","Lens","Yiftahel","IL",35.2277,32.7554,"1"
"RT-736A",8570,130,"seeds (charred)","Vicia faba","Yiftahel","IL",35.2277,32.7554,"1"
"RT-736B",8890,120,"seeds (charred)","Lens","Yiftahel","IL",35.2277,32.7554,"1"
,8790,50,,,"Yiftahel","IL",35.2277,32.7554,"1"
"R-1010",7545,75,"charcoal",,"Yumuktepe","TR",34.6039,36.8014,"3"
"R-1011",7545,75,"charcoal",,"Yumuktepe","TR",34.6039,36.8014,"3"
"R-1343",7640,80,"charcoal",,"Yumuktepe","TR",34.6039,36.8014,"3"
"R-1344",7750,80,"charcoal",,"Yumuktepe","TR",34.6039,36.8014,"3"
"R-467",7920,90,"charcoal",,"Yumuktepe","TR",34.6039,36.8014,"3"
"R-734",7790,80,"charcoal",,"Yumuktepe","TR",34.6039,36.8014,"3"
"OZE-605",9490,50,"charcoal",,"Zahrat adh-Dhra' 2","JO",35.5662,31.2552,"1"
"OZE-606",9440,50,"charcoal",,"Zahrat adh-Dhra' 2","JO",35.5662,31.2552,"1"
"OZE-607",9470,50,"charcoal",,"Zahrat adh-Dhra' 2","JO",35.5662,31.2552,"1"
"Wk-9444",9323,59,"charcoal",,"Zahrat adh-Dhra' 2","JO",35.5662,31.2552,"1"
"Wk-9445",9552,59,"charcoal",,"Zahrat adh-Dhra' 2","JO",35.5662,31.2552,"1"
"Wk-9447",9603,59,"charcoal",,"Zahrat adh-Dhra' 2","JO",35.5662,31.2552,"1"
"Wk-9568",9623,91,"charcoal",,"Zahrat adh-Dhra' 2","JO",35.5662,31.2552,"1"
"Wk-9570",9528,61,"charcoal",,"Zahrat adh-Dhra' 2","JO",35.5662,31.2552,"1"
"Wk-9633",9635,59,"charcoal",,"Zahrat adh-Dhra' 2","JO",35.5662,31.2552,"1"
"Ly-3911",11970,60,"charcoal",,"Zaquma","JO",35.6816,32.1867,"1"
"Ly-3912",11860,60,"charcoal",,"Zaquma","JO",35.6816,32.1867,"1"
